{
"type": "FeatureCollection",
"name": "Mzn_ipm_filtrado_poligono_Barrio_Obrero",
"crs": { "type": "name", "properties": { "name": "urn:ogc:def:crs:OGC:1.3:CRS84" } },
"features": [
{ "type": "Feature", "properties": { "COD_DPTO": "76", "COD_MPIO": "76001", "COD_DANE": "7600110000000009100114", "ipm": 11.3, "Id": 0, "area": 7.4719606236300002 }, "geometry": { "type": "Polygon", "coordinates": [ [ [ -76.520212404999938, 3.446493300000043 ], [ -76.520287215999929, 3.446476574000087 ], [ -76.520303137999917, 3.446485576000043 ], [ -76.520359091999921, 3.446738544000084 ], [ -76.520371691999912, 3.446792691000041 ], [ -76.520381832999931, 3.446836274000077 ], [ -76.520393305999903, 3.446885580000071 ], [ -76.520402791999913, 3.446928848000084 ], [ -76.520417505999944, 3.446995955000091 ], [ -76.520457946999898, 3.447187451000048 ], [ -76.520450869999934, 3.447199211000054 ], [ -76.520366598999942, 3.447213609000073 ], [ -76.520323234999921, 3.447221462000073 ], [ -76.520188811999901, 3.447245806000069 ], [ -76.520144798999922, 3.447253776000082 ], [ -76.520101401999909, 3.447261594000054 ], [ -76.520057828999938, 3.447268424000072 ], [ -76.520012917999907, 3.447275460000071 ], [ -76.51998440199992, 3.447281868000061 ], [ -76.51993525599994, 3.447291795000069 ], [ -76.519900216999929, 3.44730089400008 ], [ -76.519846354999913, 3.447308489000079 ], [ -76.519763359999899, 3.447312267000086 ], [ -76.519750599999952, 3.447307369000043 ], [ -76.519726337999941, 3.447195622000038 ], [ -76.519715877999943, 3.44714666200008 ], [ -76.519705896999938, 3.447100714000044 ], [ -76.519696920999934, 3.447059397000089 ], [ -76.519687308999949, 3.447015161000081 ], [ -76.519677719999947, 3.446971019000046 ], [ -76.519656115999908, 3.446871588000079 ], [ -76.519642329999897, 3.446808120000071 ], [ -76.519604550999929, 3.446634239000048 ], [ -76.51961498199995, 3.446619171000066 ], [ -76.519636915999911, 3.446614150000073 ], [ -76.519680442999913, 3.446605556000065 ], [ -76.519707988999926, 3.44660011700006 ], [ -76.519769352999901, 3.446588001000066 ], [ -76.519814559999929, 3.446578631000079 ], [ -76.519858180999904, 3.446569587000056 ], [ -76.519903389999911, 3.446560218000059 ], [ -76.519948331999899, 3.446550900000091 ], [ -76.5200364559999, 3.44653263400005 ], [ -76.520080811999946, 3.446522719000086 ], [ -76.520124901999907, 3.446512860000041 ], [ -76.520167940999897, 3.446503241000073 ], [ -76.520212296999944, 3.446493324000073 ], [ -76.520212404999938, 3.446493300000043 ] ] ] } },
{ "type": "Feature", "properties": { "COD_DPTO": "76", "COD_MPIO": "76001", "COD_DANE": "7600110000000009100115", "ipm": 9.0, "Id": 0, "area": 7.4719606236300002 }, "geometry": { "type": "Polygon", "coordinates": [ [ [ -76.519898600999909, 3.448093239000059 ], [ -76.519889959999944, 3.448050468000076 ], [ -76.519881122999948, 3.448052172000075 ], [ -76.519867655999917, 3.447999634000041 ], [ -76.519844793999937, 3.447910430000093 ], [ -76.519822338999916, 3.44782282500006 ], [ -76.519799889999945, 3.447735245000047 ], [ -76.519780831999924, 3.44766089500007 ], [ -76.519783265999934, 3.447660374000066 ], [ -76.519769667999924, 3.447606938000092 ], [ -76.519761416999927, 3.447574519000057 ], [ -76.519741203999899, 3.447495084000082 ], [ -76.51975527399992, 3.447471933000088 ], [ -76.51983877999993, 3.447454938000078 ], [ -76.519871508999927, 3.447448278000081 ], [ -76.5199241709999, 3.447437558000047 ], [ -76.519967400999917, 3.447428759000047 ], [ -76.520015552999951, 3.44741896000005 ], [ -76.520104793999906, 3.447400796000068 ], [ -76.52014965199993, 3.447391666000044 ], [ -76.520192158999919, 3.447383013000092 ], [ -76.520223005999924, 3.447376736000081 ], [ -76.520280380999907, 3.447365058000059 ], [ -76.520326247999947, 3.447355723000044 ], [ -76.520326359999899, 3.447355701000049 ], [ -76.520370127999911, 3.447346792000076 ], [ -76.520416785999942, 3.447337296000057 ], [ -76.520436485999937, 3.447333287000049 ], [ -76.520463142999915, 3.447350971000049 ], [ -76.520471069999928, 3.447386251000069 ], [ -76.520501205999949, 3.447522163000087 ], [ -76.520512786999916, 3.447571444000062 ], [ -76.520503956999903, 3.447573193000039 ], [ -76.520516351999902, 3.447616930000038 ], [ -76.52052213199994, 3.447616006000089 ], [ -76.520533040999908, 3.447662191000063 ], [ -76.520554447999928, 3.44775280600004 ], [ -76.520564602999912, 3.447799602000089 ], [ -76.520569689999945, 3.447823038000081 ], [ -76.520585602999915, 3.447896364000087 ], [ -76.520592596999904, 3.447926294000069 ], [ -76.520609253999908, 3.447997595000061 ], [ -76.520592780999948, 3.448024567000061 ], [ -76.520527806999951, 3.448038990000043 ], [ -76.520483277999915, 3.448048874000051 ], [ -76.520438740999907, 3.448058762000073 ], [ -76.520386984999902, 3.448070250000058 ], [ -76.520379795999929, 3.448071847000051 ], [ -76.52035083599992, 3.448078273000078 ], [ -76.520307516999935, 3.448087878000081 ], [ -76.520307399999922, 3.448087902000054 ], [ -76.520263690999911, 3.448097619000066 ], [ -76.520263478999937, 3.448097665000091 ], [ -76.520174185999906, 3.448117486000058 ], [ -76.520129409999925, 3.448127426000042 ], [ -76.520083102999934, 3.448137704000089 ], [ -76.519994547999943, 3.448157362000074 ], [ -76.51997971499992, 3.448160656000084 ], [ -76.519966380999904, 3.448163616000045 ], [ -76.519926968999926, 3.448172365000062 ], [ -76.519909294999934, 3.448146170000086 ], [ -76.519898600999909, 3.448093239000059 ] ] ] } },
{ "type": "Feature", "properties": { "COD_DPTO": "76", "COD_MPIO": "76001", "COD_DANE": "7600110000000009100211", "ipm": 23.7, "Id": 0, "area": 7.4719606236300002 }, "geometry": { "type": "Polygon", "coordinates": [ [ [ -76.520115712999939, 3.44898145500008 ], [ -76.5200554729999, 3.44875382400005 ], [ -76.520040250999898, 3.448696304000066 ], [ -76.520031498999913, 3.448663233000048 ], [ -76.520008046999919, 3.448574613000062 ], [ -76.51998373899994, 3.448482756000089 ], [ -76.519961298999931, 3.448397966000073 ], [ -76.519942343999901, 3.448326340000051 ], [ -76.519958828999904, 3.448296237000079 ], [ -76.520025784999916, 3.44827833800008 ], [ -76.520113608999907, 3.448254858000041 ], [ -76.52015885499992, 3.448244808000084 ], [ -76.520204101999923, 3.448234754000055 ], [ -76.520209449999925, 3.448233567000045 ], [ -76.520295034999947, 3.448214552000081 ], [ -76.520339843999921, 3.448204598000075 ], [ -76.520383260999949, 3.448194209000064 ], [ -76.52042833899992, 3.448183422000056 ], [ -76.520473417999938, 3.448172638000074 ], [ -76.52053049999995, 3.448158982000052 ], [ -76.520565326999929, 3.448150647000091 ], [ -76.520642385999906, 3.448132343000054 ], [ -76.520656309999936, 3.448142620000056 ], [ -76.520696184999906, 3.448309214000062 ], [ -76.520717017999914, 3.448396249000041 ], [ -76.520738200999915, 3.448484757000074 ], [ -76.520738374999951, 3.448485477000077 ], [ -76.520749105999926, 3.448530313000049 ], [ -76.520760429999939, 3.448575468000058 ], [ -76.520776919999946, 3.448641226000063 ], [ -76.520803157999921, 3.448753457000066 ], [ -76.520820545999925, 3.448827836000078 ], [ -76.520813028999953, 3.448850100000072 ], [ -76.520738104999907, 3.448865242000068 ], [ -76.520648111999947, 3.448883434000038 ], [ -76.520645974999923, 3.448874883000087 ], [ -76.520527521999952, 3.448902216000079 ], [ -76.520524921999936, 3.448893559000055 ], [ -76.520132821999937, 3.448989514000061 ], [ -76.520115712999939, 3.44898145500008 ] ] ] } },
{ "type": "Feature", "properties": { "COD_DPTO": "76", "COD_MPIO": "76001", "COD_DANE": "7600110000000009100303", "ipm": 18.3, "Id": 0, "area": 7.4719606236300002 }, "geometry": { "type": "Polygon", "coordinates": [ [ [ -76.51880018199995, 3.446992675000047 ], [ -76.518791862999933, 3.446957497000085 ], [ -76.51877937699993, 3.446904708000091 ], [ -76.518760695999902, 3.446825712000077 ], [ -76.51877745999991, 3.446798921000038 ], [ -76.518802112999936, 3.446793703000083 ], [ -76.518846135999922, 3.446784390000062 ], [ -76.518883557999914, 3.446776472000067 ], [ -76.518901054999901, 3.446772773000077 ], [ -76.518935064999937, 3.446765577000065 ], [ -76.518981292999911, 3.446755797000094 ], [ -76.519022673999928, 3.446747044000062 ], [ -76.519054813999901, 3.446740244000068 ], [ -76.519110092999938, 3.446727623000072 ], [ -76.519174583999927, 3.446712902000058 ], [ -76.519238636999944, 3.446698281000067 ], [ -76.519282643999929, 3.446688879000078 ], [ -76.519329340999946, 3.446679166000081 ], [ -76.519373838999911, 3.446669910000082 ], [ -76.519417893999901, 3.446660748000056 ], [ -76.519452697999952, 3.446653509000043 ], [ -76.519472500999939, 3.446666193000056 ], [ -76.519495309999911, 3.44676761900007 ], [ -76.519503244999953, 3.446802898000044 ], [ -76.519513162999942, 3.446846994000055 ], [ -76.519528832999924, 3.446916670000064 ], [ -76.519524426999908, 3.446917574000054 ], [ -76.519532315999925, 3.446963 ], [ -76.519536749999929, 3.446962227000085 ], [ -76.51954655399993, 3.447007278000058 ], [ -76.519555394999941, 3.447047911000084 ], [ -76.5195660629999, 3.447096935000047 ], [ -76.519570709999925, 3.447117540000079 ], [ -76.519577651999953, 3.447148317000085 ], [ -76.519586051999909, 3.447185558000058 ], [ -76.519577306999906, 3.447187694000093 ], [ -76.519623585999909, 3.44735307500008 ], [ -76.519535152999936, 3.447374123000088 ], [ -76.519444260999933, 3.447388258000046 ], [ -76.519444837999913, 3.447390714000051 ], [ -76.519356433999917, 3.447410992000073 ], [ -76.519269968999936, 3.44743360700005 ], [ -76.51922546499992, 3.447442819000059 ], [ -76.519181456999945, 3.447451514000079 ], [ -76.519135843999948, 3.447461953000072 ], [ -76.519099890999939, 3.447468506000064 ], [ -76.519099801999914, 3.44746851900004 ], [ -76.519056741999918, 3.44747516800004 ], [ -76.519011769999906, 3.447484263000092 ], [ -76.519011961999922, 3.447485190000066 ], [ -76.518973432999928, 3.447494400000039 ], [ -76.518934053999942, 3.447503813000083 ], [ -76.518918688999918, 3.447493809000093 ], [ -76.518910038999934, 3.447455224000066 ], [ -76.518880819999936, 3.447333668000056 ], [ -76.518869898999924, 3.447287492000044 ], [ -76.518859557999917, 3.447243766000042 ], [ -76.518852521999918, 3.447214014000053 ], [ -76.518838316999904, 3.44715394900004 ], [ -76.518827925999915, 3.447110002000045 ], [ -76.518817638999906, 3.447066502000041 ], [ -76.51880018199995, 3.446992675000047 ] ] ] } },
{ "type": "Feature", "properties": { "COD_DPTO": "76", "COD_MPIO": "76001", "COD_DANE": "7600110000000009100304", "ipm": 0.0, "Id": 0, "area": 7.4719606236300002 }, "geometry": { "type": "Polygon", "coordinates": [ [ [ -76.51856813899991, 3.446843211000044 ], [ -76.518625861999908, 3.446833740000045 ], [ -76.518633812999951, 3.446838083000046 ], [ -76.518681459999925, 3.44705900200006 ], [ -76.518700327999909, 3.447146486000065 ], [ -76.518716242999915, 3.447220273000084 ], [ -76.518726379999919, 3.447270795000065 ], [ -76.518733848999943, 3.447308023000062 ], [ -76.518744249999941, 3.447359874000085 ], [ -76.518777220999937, 3.447516911000093 ], [ -76.518762541999934, 3.447545422000076 ], [ -76.518731473999935, 3.447550603000082 ], [ -76.518691972999932, 3.447557194000069 ], [ -76.518641376999938, 3.447565631000089 ], [ -76.518600989999925, 3.447572368000067 ], [ -76.518529533999924, 3.447584285000062 ], [ -76.51849100599992, 3.447590951000052 ], [ -76.518461492999904, 3.447585190000041 ], [ -76.518485656999928, 3.447432491000086 ], [ -76.518495549999898, 3.447369981000065 ], [ -76.518499467999902, 3.447314909000056 ], [ -76.518502994999949, 3.447265316000085 ], [ -76.518509006999921, 3.447180789000072 ], [ -76.518514951999919, 3.447097190000079 ], [ -76.518518618999906, 3.447045635000052 ], [ -76.518532404999917, 3.446851768000045 ], [ -76.51854549299992, 3.446846925000045 ], [ -76.51856813899991, 3.446843211000044 ] ] ] } },
{ "type": "Feature", "properties": { "COD_DPTO": "76", "COD_MPIO": "76001", "COD_DANE": "7600110000000009100305", "ipm": 0.0, "Id": 0, "area": 7.4719606236300002 }, "geometry": { "type": "Polygon", "coordinates": [ [ [ -76.518723039999941, 3.447686619000081 ], [ -76.518800896999949, 3.447669817000076 ], [ -76.518821827999943, 3.447679062000077 ], [ -76.518856262999918, 3.447838098000091 ], [ -76.518875583999943, 3.447927335000088 ], [ -76.51889366599994, 3.448011289000078 ], [ -76.518901282999934, 3.448046638000051 ], [ -76.518906040999923, 3.448068732000081 ], [ -76.51890794499991, 3.448077570000066 ], [ -76.518909846999918, 3.448086407000062 ], [ -76.518911749999916, 3.448095243000068 ], [ -76.518930644999898, 3.448183647000064 ], [ -76.518931681999902, 3.448188508000044 ], [ -76.518936114999917, 3.448209236000082 ], [ -76.518949756999916, 3.448273070000084 ], [ -76.518966544999898, 3.448351614000046 ], [ -76.518959648999953, 3.448362963000079 ], [ -76.518883148999919, 3.448379738000085 ], [ -76.518796042999952, 3.448398839000049 ], [ -76.518707826999901, 3.448418184000047 ], [ -76.518663915999923, 3.448427815000059 ], [ -76.518612100999917, 3.448439178000058 ], [ -76.518566928999917, 3.448449082000081 ], [ -76.51852232899995, 3.448458865000077 ], [ -76.518489678999913, 3.448466023000037 ], [ -76.518353847999947, 3.44849581200009 ], [ -76.518330023999908, 3.448482587000058 ], [ -76.518326766999905, 3.448390277000044 ], [ -76.518330904999914, 3.448390003000043 ], [ -76.518338587999949, 3.448340613000084 ], [ -76.518346153999914, 3.448288871000045 ], [ -76.518353067999897, 3.448241596000059 ], [ -76.51835802699992, 3.448207685000057 ], [ -76.518364418999909, 3.448144925000065 ], [ -76.518367227999931, 3.448117366000076 ], [ -76.518379392999918, 3.448046284000043 ], [ -76.518383851999943, 3.448020233000079 ], [ -76.518387619999942, 3.447953089000066 ], [ -76.518396324999912, 3.447880056000088 ], [ -76.518403167999907, 3.447764527000061 ], [ -76.518408972999907, 3.447754390000057 ], [ -76.518505744999914, 3.447733507000066 ], [ -76.518547970999919, 3.447724396000069 ], [ -76.51860071099992, 3.447713014000044 ], [ -76.518635065999945, 3.447705601000052 ], [ -76.518697200999952, 3.447692194000069 ], [ -76.518723039999941, 3.447686619000081 ] ] ] } },
{ "type": "Feature", "properties": { "COD_DPTO": "76", "COD_MPIO": "76001", "COD_DANE": "7600110000000009100306", "ipm": 14.3, "Id": 0, "area": 7.4719606236300002 }, "geometry": { "type": "Polygon", "coordinates": [ [ [ -76.519597158999943, 3.447510480000062 ], [ -76.519624240999917, 3.447504991000073 ], [ -76.519653010999946, 3.447526728000071 ], [ -76.519730550999952, 3.447899071000052 ], [ -76.519737023999937, 3.447930141000086 ], [ -76.519750423999938, 3.447988194000061 ], [ -76.51978330399993, 3.448130623000054 ], [ -76.519796441999915, 3.448187526000083 ], [ -76.519784541999911, 3.448203693000039 ], [ -76.519705973999919, 3.448219730000062 ], [ -76.519662543999914, 3.448227368000062 ], [ -76.519618404999903, 3.448236115000043 ], [ -76.519528548999915, 3.448254896000037 ], [ -76.519483776999948, 3.448264158000086 ], [ -76.519438831999935, 3.448273463000078 ], [ -76.519394697999928, 3.44828224400004 ], [ -76.519348359999924, 3.448291463000089 ], [ -76.519304889999944, 3.448300111000037 ], [ -76.519257883999899, 3.448309461000065 ], [ -76.519174474999943, 3.448326054000063 ], [ -76.51910003699993, 3.448340711000071 ], [ -76.519082344999902, 3.448331789000065 ], [ -76.51905069299994, 3.448203667000087 ], [ -76.51904038899994, 3.448161890000051 ], [ -76.519028017999915, 3.448111493000056 ], [ -76.519018082999935, 3.44807103100004 ], [ -76.518959907999943, 3.447779095000044 ], [ -76.518937727999912, 3.447667792000061 ], [ -76.518953895999914, 3.44764084600007 ], [ -76.519031800999926, 3.447625059000075 ], [ -76.519340176999947, 3.447562563000076 ], [ -76.51938296599991, 3.447553891000041 ], [ -76.519481105999944, 3.447534001000065 ], [ -76.519597158999943, 3.447510480000062 ] ] ] } },
{ "type": "Feature", "properties": { "COD_DPTO": "76", "COD_MPIO": "76001", "COD_DANE": "7600110000000009100307", "ipm": 25.6, "Id": 0, "area": 7.4719606236300002 }, "geometry": { "type": "Polygon", "coordinates": [ [ [ -76.519731074999925, 3.448358432000077 ], [ -76.519814860999929, 3.448341419000087 ], [ -76.519831950999901, 3.448349524000093 ], [ -76.519842395999945, 3.448409188000085 ], [ -76.519850190999932, 3.448453716000074 ], [ -76.519859547999943, 3.448507147000043 ], [ -76.5198663299999, 3.448545885000044 ], [ -76.519875298999921, 3.448597089000089 ], [ -76.519883492999952, 3.448641542000075 ], [ -76.519891849999908, 3.448686885000086 ], [ -76.519900046999908, 3.448731338000073 ], [ -76.519908071999907, 3.448777201000041 ], [ -76.519923659999904, 3.448866255000041 ], [ -76.519931905999897, 3.448910696000041 ], [ -76.519940149999911, 3.448955140000066 ], [ -76.519953879999946, 3.449028910000038 ], [ -76.519944294999902, 3.449045681000086 ], [ -76.519825294999919, 3.449070186000085 ], [ -76.519746696999903, 3.449085602000082 ], [ -76.519690519999926, 3.449096569000062 ], [ -76.519645677999904, 3.449105347000057 ], [ -76.519601138999917, 3.44911406600005 ], [ -76.519558464999932, 3.449122421000084 ], [ -76.519514307999941, 3.449131067000053 ], [ -76.519456113999922, 3.44914245700005 ], [ -76.519249521999939, 3.44918289900005 ], [ -76.519232273999933, 3.449093245000086 ], [ -76.519223734999912, 3.449048861000051 ], [ -76.519215191999933, 3.449004455000079 ], [ -76.519198118999952, 3.448915700000043 ], [ -76.519181492999905, 3.448829287000081 ], [ -76.51916381399991, 3.448737390000076 ], [ -76.519153734999918, 3.448684999000079 ], [ -76.519146908999915, 3.448649513000078 ], [ -76.519138293999902, 3.44860473500006 ], [ -76.519129703999909, 3.448559997000075 ], [ -76.519115681999949, 3.44848720400006 ], [ -76.519131333999951, 3.448467944000072 ], [ -76.519264447999944, 3.448445536000065 ], [ -76.519381145999944, 3.448425892000046 ], [ -76.519473121999908, 3.448408567000058 ], [ -76.519517341999915, 3.448400237000044 ], [ -76.519562888999928, 3.448391659000038 ], [ -76.519625678999944, 3.448379832000057 ], [ -76.51969314999991, 3.448366130000068 ], [ -76.519731074999925, 3.448358432000077 ] ] ] } },
{ "type": "Feature", "properties": { "COD_DPTO": "76", "COD_MPIO": "76001", "COD_DANE": "7600110000000009100308", "ipm": 2.0, "Id": 0, "area": 7.4719606236300002 }, "geometry": { "type": "Polygon", "coordinates": [ [ [ -76.518435084999908, 3.449344745000076 ], [ -76.518428298999936, 3.449281652000082 ], [ -76.518422704999921, 3.449229646000049 ], [ -76.518422668999904, 3.449229314000092 ], [ -76.518415940999944, 3.449166785000045 ], [ -76.518404092999901, 3.449103183000091 ], [ -76.518395607999935, 3.449036549000084 ], [ -76.518385297999941, 3.448970843000041 ], [ -76.518362592999949, 3.44886318600004 ], [ -76.518354048999925, 3.448811100000057 ], [ -76.518345471999908, 3.448758804000079 ], [ -76.518338980999943, 3.448705640000071 ], [ -76.518331445999934, 3.448663822000071 ], [ -76.518332283999939, 3.448659189000068 ], [ -76.518332298999951, 3.448659146000068 ], [ -76.518333863999942, 3.448654754000074 ], [ -76.518333896999934, 3.448654692000048 ], [ -76.518336141999953, 3.448650636000082 ], [ -76.518336183999907, 3.448650580000049 ], [ -76.518339055999945, 3.448646948000089 ], [ -76.51833909599992, 3.448646909000047 ], [ -76.518342526999902, 3.448643786000048 ], [ -76.51834256099994, 3.448643762000074 ], [ -76.518346465999912, 3.448641233000046 ], [ -76.518346611999903, 3.448641161000069 ], [ -76.518350767999948, 3.448639359000083 ], [ -76.518495285999904, 3.448609376000093 ], [ -76.518536456999925, 3.448600499000065 ], [ -76.518602617999932, 3.44858623500005 ], [ -76.518657163999933, 3.448574474000054 ], [ -76.518713028999912, 3.448562431000084 ], [ -76.518774614999927, 3.448549154000091 ], [ -76.518972459999929, 3.448505995000062 ], [ -76.518982351999909, 3.448512264000044 ], [ -76.518998820999911, 3.448593789000086 ], [ -76.519016991999933, 3.448683731000074 ], [ -76.519025941999928, 3.44872803700008 ], [ -76.519035668999948, 3.448773103000065 ], [ -76.51904849999994, 3.448835532000089 ], [ -76.519061334999947, 3.448897960000068 ], [ -76.519075068999939, 3.448950426000067 ], [ -76.519081914999902, 3.448995110000055 ], [ -76.519088889999921, 3.449040686000046 ], [ -76.519105144999912, 3.449130080000089 ], [ -76.519118163999906, 3.449201680000044 ], [ -76.519109153999921, 3.449218985000073 ], [ -76.518939852999949, 3.449246502000051 ], [ -76.518858343999909, 3.449265737000076 ], [ -76.518799780999927, 3.449283550000075 ], [ -76.518798404999927, 3.449276285000053 ], [ -76.518789506999951, 3.449277721000044 ], [ -76.51878613699995, 3.449281936000091 ], [ -76.518786094999939, 3.44928198100007 ], [ -76.518782107999925, 3.449285517000078 ], [ -76.518782013999953, 3.449285591000091 ], [ -76.518777413999942, 3.44928843200006 ], [ -76.518777377999925, 3.449288449000051 ], [ -76.518772367999929, 3.449290456000085 ], [ -76.518772322999951, 3.449290470000051 ], [ -76.5187670709999, 3.449291582000058 ], [ -76.518767003999926, 3.449291594000044 ], [ -76.518761640999912, 3.449291790000075 ], [ -76.518761569999924, 3.449291790000075 ], [ -76.51876077299994, 3.449291739000046 ], [ -76.518760581999913, 3.449291724000091 ], [ -76.518760350999912, 3.449291703000085 ], [ -76.518759617999933, 3.449291627000093 ], [ -76.518759243999909, 3.449291582000058 ], [ -76.518759128999932, 3.449291569000081 ], [ -76.518755264999925, 3.44929077900008 ], [ -76.518750851999926, 3.449289233000059 ], [ -76.518746713999917, 3.449287054000081 ], [ -76.518746653999926, 3.449287016000085 ], [ -76.518746320999924, 3.449286800000039 ], [ -76.518746273999909, 3.449286769000082 ], [ -76.518745992999925, 3.44928658200007 ], [ -76.518745664999926, 3.449286360000087 ], [ -76.518745641999942, 3.449286344000086 ], [ -76.5187453449999, 3.449286130000075 ], [ -76.51874502499993, 3.449285901000053 ], [ -76.518746893999946, 3.449294532000067 ], [ -76.518700537999905, 3.449303521000047 ], [ -76.518646645999922, 3.449313974000063 ], [ -76.518603010999925, 3.449322436000045 ], [ -76.518448328999909, 3.449352433000058 ], [ -76.518435084999908, 3.449344745000076 ] ] ] } }
]
}
