{
"type": "FeatureCollection",
"name": "Mzn_ics_filtrado_poligono_Barrio_Obrero",
"crs": { "type": "name", "properties": { "name": "urn:ogc:def:crs:OGC:1.3:CRS84" } },
"features": [
{ "type": "Feature", "properties": { "COD_MZN": "7600110000000009100114", "CLASE": 1.0, "ZONA": "Urbana", "cod_dane_a": "7600110000000009100114", "ics": 27.984537, "Id": 0, "area": 7.4719606236300002 }, "geometry": { "type": "Polygon", "coordinates": [ [ [ -76.520212404831256, 3.446493299933727 ], [ -76.520287216187995, 3.446476574251901 ], [ -76.520303137783245, 3.446485576023485 ], [ -76.52035909190468, 3.446738544321078 ], [ -76.520371691845853, 3.446792690576421 ], [ -76.520381833175151, 3.446836273274669 ], [ -76.520393306404344, 3.446885579519647 ], [ -76.520402792584832, 3.446928848412646 ], [ -76.520417506470523, 3.446995955620358 ], [ -76.520457946717698, 3.447187450719208 ], [ -76.520450870545417, 3.44719921161646 ], [ -76.520366599042632, 3.447213609546506 ], [ -76.520323234881928, 3.447221461891637 ], [ -76.520188811918786, 3.447245805686298 ], [ -76.520144798903587, 3.447253775586773 ], [ -76.52010140144175, 3.447261594461271 ], [ -76.520057828492838, 3.447268423989414 ], [ -76.52001291824304, 3.447275460607872 ], [ -76.519984402068786, 3.447281867816027 ], [ -76.519935256732154, 3.447291794688114 ], [ -76.519900216942062, 3.447300894099572 ], [ -76.519846355057382, 3.447308488679546 ], [ -76.519763359649502, 3.44731226693172 ], [ -76.519750600406027, 3.447307369033627 ], [ -76.519726337414795, 3.447195621942227 ], [ -76.519715877540122, 3.447146662051347 ], [ -76.519705897327881, 3.447100713601754 ], [ -76.519696920537257, 3.447059397165232 ], [ -76.519687308397707, 3.447015161529311 ], [ -76.519677720557127, 3.446971019039943 ], [ -76.519656115971557, 3.446871588109277 ], [ -76.519642329967908, 3.446808119941173 ], [ -76.519604550981654, 3.446634239478092 ], [ -76.519614982110582, 3.446619170526882 ], [ -76.519636916162341, 3.446614149671439 ], [ -76.519680443189571, 3.446605555801678 ], [ -76.519707988318061, 3.446600117146259 ], [ -76.519769352902074, 3.446588000897048 ], [ -76.519814560100841, 3.446578631101683 ], [ -76.519858180718131, 3.446569586864185 ], [ -76.519903389715026, 3.446560217968919 ], [ -76.519948331431166, 3.446550899714174 ], [ -76.520036456393285, 3.446532633975355 ], [ -76.520080811351406, 3.446522718851828 ], [ -76.520124901728551, 3.446512860699281 ], [ -76.520167940984052, 3.44650324128914 ], [ -76.520212296839404, 3.44649332435077 ], [ -76.520212404831256, 3.446493299933727 ] ] ] } },
{ "type": "Feature", "properties": { "COD_MZN": "7600110000000009100115", "CLASE": 1.0, "ZONA": "Urbana", "cod_dane_a": "7600110000000009100115", "ics": 23.335649, "Id": 0, "area": 7.4719606236300002 }, "geometry": { "type": "Polygon", "coordinates": [ [ [ -76.51989860101321, 3.448093238588656 ], [ -76.519889959881198, 3.448050467981768 ], [ -76.519881122532809, 3.448052172650002 ], [ -76.519867655965726, 3.447999634299467 ], [ -76.519844793222703, 3.447910430517271 ], [ -76.519822339052439, 3.447822825601837 ], [ -76.519799889385922, 3.447735245102813 ], [ -76.519780832460668, 3.447660895050874 ], [ -76.519783265880335, 3.447660373250631 ], [ -76.519769667934625, 3.447606937796213 ], [ -76.51976141647512, 3.44757451912953 ], [ -76.519741204046426, 3.447495083990646 ], [ -76.519755274518374, 3.447471932984773 ], [ -76.519838780212112, 3.447454937853727 ], [ -76.519871508978838, 3.447448278343141 ], [ -76.519924171262659, 3.447437557469197 ], [ -76.519967400447058, 3.447428758301799 ], [ -76.520015553164299, 3.447418959843306 ], [ -76.520104794121792, 3.447400796289162 ], [ -76.520149652181587, 3.447391666127045 ], [ -76.52019215961559, 3.44738301254728 ], [ -76.520223006617627, 3.447376736462538 ], [ -76.520280380942381, 3.447365057877958 ], [ -76.520326248723563, 3.447355723327693 ], [ -76.520326360315238, 3.447355701623644 ], [ -76.520370127652114, 3.447346792108934 ], [ -76.520416785572607, 3.447337295678175 ], [ -76.520436486003177, 3.44733328675667 ], [ -76.520463142912206, 3.447350971062872 ], [ -76.520471069517484, 3.447386251044695 ], [ -76.520501206461645, 3.447522162896332 ], [ -76.520512786797227, 3.447571443817743 ], [ -76.52050395665384, 3.447573193708624 ], [ -76.520516352329864, 3.447616930142075 ], [ -76.520522132600291, 3.4476160059103 ], [ -76.520533041588067, 3.447662191287022 ], [ -76.520554447397359, 3.447752805818242 ], [ -76.520564603144081, 3.447799602526032 ], [ -76.520569690467127, 3.447823037505497 ], [ -76.520585603089629, 3.447896363832354 ], [ -76.520592597372769, 3.447926293757282 ], [ -76.520609254243638, 3.447997595273849 ], [ -76.520592780962289, 3.448024567114471 ], [ -76.520527806663239, 3.448038990379214 ], [ -76.520483277952337, 3.448048873871536 ], [ -76.520438741141106, 3.448058761883456 ], [ -76.520386985061833, 3.448070250567811 ], [ -76.520379795492474, 3.448071846720602 ], [ -76.520350835629699, 3.448078272930653 ], [ -76.520307517325847, 3.448087877879317 ], [ -76.520307400334488, 3.448087902296367 ], [ -76.520263690558622, 3.448097618476323 ], [ -76.520263479074231, 3.448097665501765 ], [ -76.520174185857968, 3.448117486719585 ], [ -76.520129410557914, 3.44812742535971 ], [ -76.520083103569803, 3.448137704027527 ], [ -76.519994547391789, 3.448157362448179 ], [ -76.519979715583773, 3.448160656033166 ], [ -76.519966381265405, 3.448163615918659 ], [ -76.519926969566328, 3.44817236444557 ], [ -76.519909294887597, 3.448146170323179 ], [ -76.51989860101321, 3.448093238588656 ] ] ] } },
{ "type": "Feature", "properties": { "COD_MZN": "7600110000000009100211", "CLASE": 1.0, "ZONA": "Urbana", "cod_dane_a": "7600110000000009100211", "ics": 23.383051, "Id": 0, "area": 7.4719606236300002 }, "geometry": { "type": "Polygon", "coordinates": [ [ [ -76.520115712270055, 3.448981455534381 ], [ -76.52005547348196, 3.44875382403101 ], [ -76.520040251126645, 3.448696303692332 ], [ -76.520031499285608, 3.44866323300176 ], [ -76.520008047054361, 3.448574612521532 ], [ -76.519983738992266, 3.4484827563236 ], [ -76.519961299193028, 3.448397965708086 ], [ -76.519942343932797, 3.448326339522401 ], [ -76.519958829838714, 3.448296236879868 ], [ -76.520025784919895, 3.44827833828969 ], [ -76.520113609464133, 3.448254858139242 ], [ -76.520158854535737, 3.448244808266691 ], [ -76.520204102306181, 3.448234754774622 ], [ -76.520209449712638, 3.448233567382636 ], [ -76.520295034312099, 3.448214551924433 ], [ -76.520339844711899, 3.448204598807135 ], [ -76.520383261113622, 3.448194209797183 ], [ -76.520428339691918, 3.448183421973028 ], [ -76.520473418269177, 3.448172638668419 ], [ -76.520530499260303, 3.448158982284665 ], [ -76.520565326691482, 3.448150647014528 ], [ -76.520642386205552, 3.448132343237847 ], [ -76.520656309979188, 3.448142620117987 ], [ -76.520696185160674, 3.44830921338887 ], [ -76.520717017741433, 3.448396249455237 ], [ -76.520738200400558, 3.448484756876612 ], [ -76.520738374987872, 3.44848547763287 ], [ -76.52074910580879, 3.448530312831724 ], [ -76.520760430587231, 3.448575468165465 ], [ -76.520776920092914, 3.448641226094669 ], [ -76.520803157699135, 3.448753456975407 ], [ -76.52082054624745, 3.448827835944321 ], [ -76.52081302910247, 3.44885009980941 ], [ -76.520738104177425, 3.448865242038496 ], [ -76.520648112550219, 3.448883433686181 ], [ -76.520645975205511, 3.448874883183708 ], [ -76.520527522252706, 3.448902215856513 ], [ -76.520524922342787, 3.448893558642028 ], [ -76.520132821819175, 3.448989514085815 ], [ -76.520115712270055, 3.448981455534381 ] ] ] } },
{ "type": "Feature", "properties": { "COD_MZN": "7600110000000009100303", "CLASE": 1.0, "ZONA": "Urbana", "cod_dane_a": "7600110000000009100303", "ics": 24.817074, "Id": 0, "area": 7.4719606236300002 }, "geometry": { "type": "Polygon", "coordinates": [ [ [ -76.518800181931567, 3.446992674869228 ], [ -76.51879186302034, 3.44695749706245 ], [ -76.518779376555287, 3.446904708195841 ], [ -76.518760695906252, 3.446825711641141 ], [ -76.518777459896356, 3.446798920699549 ], [ -76.518802113552525, 3.446793703627492 ], [ -76.518846136459402, 3.446784389945018 ], [ -76.518883557459461, 3.446776472544608 ], [ -76.518901054850033, 3.446772772934182 ], [ -76.518935064204555, 3.446765577186407 ], [ -76.518981293743622, 3.446755796863725 ], [ -76.519022673544967, 3.44674704385735 ], [ -76.519054813737668, 3.446740244201695 ], [ -76.519110092997622, 3.446727622461317 ], [ -76.519174583965821, 3.446712901765843 ], [ -76.519238636664895, 3.446698280542416 ], [ -76.519282643364477, 3.446688879118958 ], [ -76.519329340860978, 3.446679165700838 ], [ -76.519373838921609, 3.44666990987199 ], [ -76.519417894214627, 3.446660748091539 ], [ -76.519452698201476, 3.446653508917986 ], [ -76.519472501195281, 3.446666193166881 ], [ -76.519495309864368, 3.446767619070159 ], [ -76.519503244528565, 3.446802898156189 ], [ -76.519513163534583, 3.446846994526665 ], [ -76.519528833082163, 3.446916670065428 ], [ -76.519524427011874, 3.446917574397262 ], [ -76.519532315770903, 3.44696300014008 ], [ -76.51953674973916, 3.446962226937051 ], [ -76.519546554455928, 3.447007278286404 ], [ -76.51955539535048, 3.447047911045743 ], [ -76.519566063100243, 3.447096935146621 ], [ -76.519570710330981, 3.447117540461969 ], [ -76.519577651479821, 3.447148316853907 ], [ -76.519586052313329, 3.447185557445631 ], [ -76.519577307665017, 3.44718769347975 ], [ -76.51962358564252, 3.447353074994581 ], [ -76.51953515371693, 3.447374123338199 ], [ -76.51944426047902, 3.447388258017065 ], [ -76.519444838233071, 3.447390713291731 ], [ -76.519356434198968, 3.447410992028225 ], [ -76.519269969513445, 3.447433606660642 ], [ -76.519225465116847, 3.447442819076275 ], [ -76.519181457483143, 3.447451514209987 ], [ -76.519135843465691, 3.447461952900282 ], [ -76.519099891133621, 3.447468505668793 ], [ -76.519099802040245, 3.447468518329364 ], [ -76.519056742036867, 3.447475167849271 ], [ -76.519011769671323, 3.447484262690357 ], [ -76.519011962255476, 3.447485190540053 ], [ -76.518973433409116, 3.447494400240593 ], [ -76.518934054124983, 3.44750381341384 ], [ -76.518918688686, 3.447493809615448 ], [ -76.518910039496546, 3.44745522426904 ], [ -76.51888081978673, 3.447333667808192 ], [ -76.518869899183258, 3.447287492359828 ], [ -76.518859558133173, 3.447243765855966 ], [ -76.518852522511963, 3.447214014072083 ], [ -76.518838317181917, 3.4471539489108 ], [ -76.51882792573889, 3.447110001748242 ], [ -76.518817639588121, 3.447066502232362 ], [ -76.518800181931567, 3.446992674869228 ] ] ] } },
{ "type": "Feature", "properties": { "COD_MZN": "7600110000000009100304", "CLASE": 1.0, "ZONA": "Urbana", "cod_dane_a": "7600110000000009100304", "ics": 25.757576, "Id": 0, "area": 7.4719606236300002 }, "geometry": { "type": "Polygon", "coordinates": [ [ [ -76.518568139140584, 3.446843211074275 ], [ -76.518625862622841, 3.446833740076154 ], [ -76.518633813516644, 3.446838082716955 ], [ -76.518681460002611, 3.44705900230819 ], [ -76.518700327819133, 3.44714648606386 ], [ -76.518716242986144, 3.447220273634777 ], [ -76.518726379731646, 3.447270795325351 ], [ -76.518733849102688, 3.447308023262004 ], [ -76.518744250427801, 3.447359874327668 ], [ -76.518777220975593, 3.44751691063904 ], [ -76.51876254211453, 3.447545422536807 ], [ -76.518731474616018, 3.447550603421905 ], [ -76.518691972941809, 3.447557194150214 ], [ -76.518641376888567, 3.447565630605536 ], [ -76.518600989678674, 3.447572367830779 ], [ -76.518529534067596, 3.447584285028458 ], [ -76.518491006118069, 3.447590951714743 ], [ -76.518461493724985, 3.447585190121095 ], [ -76.518485657259504, 3.447432491124378 ], [ -76.518495549457313, 3.447369980684439 ], [ -76.518499467883728, 3.447314909304546 ], [ -76.518502994827159, 3.447265315490776 ], [ -76.518509007459343, 3.447180788966436 ], [ -76.518514951693618, 3.447097190291181 ], [ -76.518518619029095, 3.447045634971222 ], [ -76.518532404607271, 3.446851767831823 ], [ -76.518545492334283, 3.446846925136992 ], [ -76.518568139140584, 3.446843211074275 ] ] ] } },
{ "type": "Feature", "properties": { "COD_MZN": "7600110000000009100305", "CLASE": 1.0, "ZONA": "Urbana", "cod_dane_a": "7600110000000009100305", "ics": 19.813725, "Id": 0, "area": 7.4719606236300002 }, "geometry": { "type": "Polygon", "coordinates": [ [ [ -76.518723040182152, 3.447686619252953 ], [ -76.518800897032065, 3.44766981773048 ], [ -76.518821828560689, 3.447679062802551 ], [ -76.518856263320131, 3.447838097696784 ], [ -76.518875584731305, 3.447927334957094 ], [ -76.518893666046921, 3.448011289080058 ], [ -76.518901283022586, 3.448046637803558 ], [ -76.518906040932862, 3.448068732564364 ], [ -76.518907944277032, 3.448077569745205 ], [ -76.518909846721286, 3.448086406926057 ], [ -76.518911750065527, 3.448095242298217 ], [ -76.518930644919905, 3.448183646662136 ], [ -76.518931682535111, 3.448188507473277 ], [ -76.518936114673124, 3.448209235780665 ], [ -76.518949756660078, 3.448273070213261 ], [ -76.518966545692805, 3.448351613686034 ], [ -76.518959649481047, 3.448362963098993 ], [ -76.518883149677791, 3.448379737506552 ], [ -76.518796043247249, 3.44839883965069 ], [ -76.518707826294374, 3.448418184146832 ], [ -76.518663916702067, 3.448427814340587 ], [ -76.518612101186179, 3.448439178129358 ], [ -76.518566928984129, 3.448449081425649 ], [ -76.518522329139358, 3.448458864444266 ], [ -76.518489678621876, 3.448466023102112 ], [ -76.518353847928211, 3.448495812547921 ], [ -76.518330024007881, 3.448482586569054 ], [ -76.518326766462678, 3.448390277305227 ], [ -76.518330905259049, 3.448390002396642 ], [ -76.518338588108975, 3.448340612974471 ], [ -76.518346153972175, 3.448288871372343 ], [ -76.518353068272262, 3.448241595382822 ], [ -76.518358026985041, 3.448207684579634 ], [ -76.518364418458049, 3.448144924537041 ], [ -76.518367228113974, 3.448117365789219 ], [ -76.518379393578257, 3.4480462840541 ], [ -76.518383851908197, 3.448020232839125 ], [ -76.518387620082265, 3.447953088566117 ], [ -76.518396324403625, 3.447880056168486 ], [ -76.518403167757484, 3.447764527179388 ], [ -76.518408973249677, 3.447754389578942 ], [ -76.518505744915927, 3.447733507756612 ], [ -76.518547971601777, 3.447724396655689 ], [ -76.518600711311166, 3.447713013881073 ], [ -76.518635066276133, 3.44770560110414 ], [ -76.518697201289868, 3.447692194437817 ], [ -76.518723040182152, 3.447686619252953 ] ] ] } },
{ "type": "Feature", "properties": { "COD_MZN": "7600110000000009100306", "CLASE": 1.0, "ZONA": "Urbana", "cod_dane_a": "7600110000000009100306", "ics": 21.595238, "Id": 0, "area": 7.4719606236300002 }, "geometry": { "type": "Polygon", "coordinates": [ [ [ -76.519597158955236, 3.447510480186206 ], [ -76.519624241544719, 3.447504990889992 ], [ -76.519653011482418, 3.447526728457792 ], [ -76.519730551188474, 3.447899071051476 ], [ -76.519737024382479, 3.447930140446409 ], [ -76.519750424341666, 3.447988193443597 ], [ -76.519783304194732, 3.448130622872713 ], [ -76.519796441379825, 3.448187525552604 ], [ -76.519784541544041, 3.448203692368756 ], [ -76.519705974620933, 3.448219730711076 ], [ -76.519662543814349, 3.448227368697966 ], [ -76.519618404758162, 3.448236115398866 ], [ -76.519528549058208, 3.448254895663793 ], [ -76.519483777345528, 3.448264157829603 ], [ -76.519438832844685, 3.448273463401261 ], [ -76.519394698283961, 3.448282244456522 ], [ -76.519348359784118, 3.448291463205849 ], [ -76.519304890272963, 3.448300110415966 ], [ -76.519257884020362, 3.44830946119312 ], [ -76.519174474535305, 3.448326053843005 ], [ -76.519100037390231, 3.448340710314724 ], [ -76.519082344705652, 3.448331789006496 ], [ -76.519050693336851, 3.448203667065393 ], [ -76.51904038826288, 3.448161889409829 ], [ -76.519028017856044, 3.448111493422713 ], [ -76.519018082654625, 3.448071030672889 ], [ -76.51895990873949, 3.447779095338416 ], [ -76.518937728273173, 3.447667792260765 ], [ -76.51895389651763, 3.447640845769622 ], [ -76.519031801054609, 3.447625058893948 ], [ -76.519340176717279, 3.447562563349705 ], [ -76.519382965845267, 3.447553890815561 ], [ -76.519481106267065, 3.447534000952564 ], [ -76.519597158955236, 3.447510480186206 ] ] ] } },
{ "type": "Feature", "properties": { "COD_MZN": "7600110000000009100307", "CLASE": 1.0, "ZONA": "Urbana", "cod_dane_a": "7600110000000009100307", "ics": 28.485464, "Id": 0, "area": 7.4719606236300002 }, "geometry": { "type": "Polygon", "coordinates": [ [ [ -76.519731075450665, 3.448358431554356 ], [ -76.519814860201649, 3.448341419243614 ], [ -76.519831950838153, 3.448349523921742 ], [ -76.519842396324904, 3.448409187538354 ], [ -76.519850191518842, 3.448453716175119 ], [ -76.51985954809237, 3.448507147102605 ], [ -76.519866329966447, 3.448545884366689 ], [ -76.519875298671792, 3.448597088816872 ], [ -76.519883493439579, 3.448641542393532 ], [ -76.519891849295703, 3.448686884933091 ], [ -76.519900046764832, 3.448731337605189 ], [ -76.519908071446395, 3.44877720104217 ], [ -76.51992366004724, 3.448866254696469 ], [ -76.519931906115843, 3.448910695611783 ], [ -76.519940149485393, 3.448955140144324 ], [ -76.519953879737187, 3.449028909603528 ], [ -76.51994429452462, 3.449045681424088 ], [ -76.519825295272611, 3.44907018614808 ], [ -76.519746697681825, 3.449085602309852 ], [ -76.519690520160964, 3.449096569149877 ], [ -76.519645678216065, 3.449105346598671 ], [ -76.519601139548342, 3.44911406526377 ], [ -76.519558464644575, 3.449122421289779 ], [ -76.519514308447526, 3.449131067604274 ], [ -76.519456114167539, 3.44914245765768 ], [ -76.519249522437519, 3.449182898422706 ], [ -76.51923227441587, 3.449093244276086 ], [ -76.519223734999471, 3.449048861231995 ], [ -76.519215191984159, 3.449004455579368 ], [ -76.519198118554911, 3.448915700342657 ], [ -76.519181493292706, 3.448829287337933 ], [ -76.519163814218615, 3.448737390433976 ], [ -76.519153735033058, 3.448684999485928 ], [ -76.519146909085265, 3.448649512402605 ], [ -76.519138294082907, 3.448604735066467 ], [ -76.519129704279436, 3.448559996616706 ], [ -76.51911568161789, 3.448487203827951 ], [ -76.519131334197553, 3.448467944194729 ], [ -76.519264447952722, 3.44844553582925 ], [ -76.519381146004505, 3.448425891981801 ], [ -76.51947312196593, 3.448408567715321 ], [ -76.519517342024983, 3.44840023701614 ], [ -76.51956288948594, 3.448391659432413 ], [ -76.51962567878158, 3.448379832582222 ], [ -76.519693149533097, 3.448366130138006 ], [ -76.519731075450665, 3.448358431554356 ] ] ] } },
{ "type": "Feature", "properties": { "COD_MZN": "7600110000000009100308", "CLASE": 1.0, "ZONA": "Urbana", "cod_dane_a": "7600110000000009100308", "ics": 28.529411, "Id": 0, "area": 7.4719606236300002 }, "geometry": { "type": "Polygon", "coordinates": [ [ [ -76.518435084877709, 3.449344745162144 ], [ -76.518428299510504, 3.449281651390739 ], [ -76.518422704732899, 3.449229645693002 ], [ -76.518422668736264, 3.449229313801395 ], [ -76.518415940965227, 3.449166785240258 ], [ -76.518404093470053, 3.449103183219797 ], [ -76.518395608138434, 3.449036548966145 ], [ -76.518385298638862, 3.448970843461839 ], [ -76.51836259264185, 3.44886318665756 ], [ -76.518354048785937, 3.448811100466159 ], [ -76.518345471633879, 3.448758803564118 ], [ -76.518338981432038, 3.448705640312371 ], [ -76.518331446380984, 3.448663821960888 ], [ -76.518332284230425, 3.448659188142046 ], [ -76.518332299529405, 3.448659146542601 ], [ -76.518333864525019, 3.448654754183338 ], [ -76.518333896922798, 3.448654691784192 ], [ -76.518336142267771, 3.448650635839746 ], [ -76.518336183664886, 3.448650580675304 ], [ -76.518339056262917, 3.448646947961866 ], [ -76.5183390958601, 3.448646909075483 ], [ -76.51834252731598, 3.448643785504855 ], [ -76.518342560613604, 3.44864376199217 ], [ -76.518346466333369, 3.448641232571795 ], [ -76.518346612122841, 3.448641161129547 ], [ -76.518350768022572, 3.448639359700709 ], [ -76.518495285800483, 3.448609375842067 ], [ -76.518536456901927, 3.448600498962719 ], [ -76.518602617381788, 3.448586235000373 ], [ -76.518657164206275, 3.44857447421388 ], [ -76.518713029433272, 3.448562431273783 ], [ -76.518774614641629, 3.448549153921721 ], [ -76.518972459801304, 3.448505995713468 ], [ -76.518982351864921, 3.448512263687115 ], [ -76.518998821423054, 3.448593788756224 ], [ -76.519016991845845, 3.448683731392887 ], [ -76.519025941619503, 3.448728036666892 ], [ -76.519035668935928, 3.448773103393456 ], [ -76.51904850009899, 3.448835532483474 ], [ -76.51906133486348, 3.448897960668908 ], [ -76.5190750695795, 3.448950425779056 ], [ -76.519081915311091, 3.448995109966018 ], [ -76.519088889732586, 3.44904068673332 ], [ -76.519105145112462, 3.449130079527825 ], [ -76.519118163457406, 3.449201680398581 ], [ -76.519109153285868, 3.449218984865755 ], [ -76.518939853038944, 3.449246501745221 ], [ -76.518858344124013, 3.44926573684174 ], [ -76.518799781742914, 3.449283550357046 ], [ -76.518798405756186, 3.449276285818554 ], [ -76.518789506299541, 3.449277720984124 ], [ -76.518786136936299, 3.449281936090743 ], [ -76.518786094639282, 3.449281980403149 ], [ -76.518782107922078, 3.449285517256132 ], [ -76.518782014328735, 3.449285590507215 ], [ -76.518777414757267, 3.449288431924179 ], [ -76.51877737875985, 3.449288449106494 ], [ -76.51877236791978, 3.449290455819977 ], [ -76.518772322923013, 3.44929047028927 ], [ -76.518767070902101, 3.449291581709019 ], [ -76.518767003406978, 3.449291593465264 ], [ -76.5187616406958, 3.449291789696135 ], [ -76.518761570500899, 3.449291789696002 ], [ -76.51876077315886, 3.449291739051638 ], [ -76.51876058147279, 3.449291723677561 ], [ -76.518760350189623, 3.449291703781716 ], [ -76.518759617642928, 3.449291626911708 ], [ -76.518759244170113, 3.449291581694158 ], [ -76.518759128978502, 3.449291569033232 ], [ -76.518755264660456, 3.449290778635674 ], [ -76.518750852283603, 3.449289233115989 ], [ -76.518746714388072, 3.449287053656868 ], [ -76.51874665409251, 3.449287015674612 ], [ -76.518746321117078, 3.449286800441858 ], [ -76.518746274320534, 3.44928676878999 ], [ -76.518745992641328, 3.449286581591771 ], [ -76.518745665065538, 3.449286360028681 ], [ -76.518745642567211, 3.449286344654908 ], [ -76.518745345589153, 3.449286130326574 ], [ -76.518745025212837, 3.449285900624448 ], [ -76.518746894360802, 3.449294531616589 ], [ -76.518700537807476, 3.449303521536812 ], [ -76.518646646097068, 3.449313973751873 ], [ -76.518603010945512, 3.449322435540245 ], [ -76.518448329200268, 3.449352432957238 ], [ -76.518435084877709, 3.449344745162144 ] ] ] } }
]
}
