{
"type": "FeatureCollection",
"name": "Geojson_Barrio_Obrero_cambioArea",
"crs": { "type": "name", "properties": { "name": "urn:ogc:def:crs:ESRI::103599" } },
"features": [
{ "type": "Feature", "properties": { "Id": 0, "area": 13.6572155689 }, "geometry": { "type": "MultiPolygon", "coordinates": [ [ [ [ 4609101.97402385622263, 1939599.119413001462817 ], [ 4608887.457211350090802, 1939554.400827372446656 ], [ 4608801.362202869728208, 1939485.510596616193652 ], [ 4608718.179701653309166, 1939893.541113754734397 ], [ 4608997.052540053613484, 1939952.168678851798177 ], [ 4609093.951457261107862, 1939973.36520748026669 ], [ 4609126.945664742961526, 1939795.637372512370348 ], [ 4609101.97402385622263, 1939599.119413001462817 ] ] ] ] } }
]
}
