{
"type": "FeatureCollection",
"name": "poligono_ciudad_de_cali_T8",
"crs": { "type": "name", "properties": { "name": "urn:ogc:def:crs:OGC:1.3:CRS84" } },
"features": [
{ "type": "Feature", "properties": { "tramo": "8", "distancia": 1880.92657302, "BUFF_DIST": 100.0, "ORIG_FID": 4, "proyecto": "TRAMO 08" }, "geometry": { "type": "Polygon", "coordinates": [ [ [ -76.512486875718508, 3.337744137683853 ], [ -76.514283039051875, 3.337675488188428 ], [ -76.514286132915984, 3.337752393320727 ], [ -76.514274551968811, 3.340449202429117 ], [ -76.514272796258012, 3.340501893656763 ], [ -76.514428685960368, 3.341224479181824 ], [ -76.515054504084134, 3.344144976866966 ], [ -76.515834525138786, 3.344132606961823 ], [ -76.515887425520958, 3.344294946138858 ], [ -76.516434581307252, 3.345450600254712 ], [ -76.517096957055969, 3.346925797272245 ], [ -76.517306715551555, 3.347391117962153 ], [ -76.51728336653764, 3.347512501753799 ], [ -76.517652370637251, 3.349614492408252 ], [ -76.517863909828137, 3.350244725157253 ], [ -76.518161954687926, 3.351123219393477 ], [ -76.517542485610917, 3.351191902503493 ], [ -76.517555942280239, 3.353092492047368 ], [ -76.517527831025149, 3.353212100551029 ], [ -76.517522474647308, 3.354240835535589 ], [ -76.516191878181104, 3.354167221383688 ], [ -76.515866735017809, 3.354149232811296 ], [ -76.515728128660697, 3.354141564367905 ], [ -76.515591469001834, 3.354134003605622 ], [ -76.515631726334362, 3.352188798425305 ], [ -76.515742601180676, 3.351270583137109 ], [ -76.515646436585499, 3.350566974382567 ], [ -76.515324169663572, 3.349313370160404 ], [ -76.514984681788789, 3.347835297420305 ], [ -76.514238744638135, 3.347917973088537 ], [ -76.513726290340955, 3.346935078886403 ], [ -76.513096531562383, 3.345691282677797 ], [ -76.512450185220672, 3.344508094571367 ], [ -76.51297187343387, 3.344421138392025 ], [ -76.512792185401622, 3.343724102986838 ], [ -76.512788985180933, 3.343705246046923 ], [ -76.512432067999939, 3.341459034523523 ], [ -76.512424035769186, 3.341392934978352 ], [ -76.5124208658019, 3.341326420588843 ], [ -76.512422575290373, 3.34125985211539 ], [ -76.512475296290035, 3.340415021617095 ], [ -76.512486764613413, 3.337746532837321 ], [ -76.512486875718508, 3.337744137683853 ] ] ] } }
]
}
