{
"type": "FeatureCollection",
"name": "poligono_Barrio_Obrero",
"crs": { "type": "name", "properties": { "name": "urn:ogc:def:crs:OGC:1.3:CRS84" } },
"features": [
{ "type": "Feature", "properties": { "Id": 0, "area": 136572.15568900001 }, "geometry": { "type": "Polygon", "coordinates": [ [ [ -76.518422097127868, 3.446801683498784 ], [ -76.51865699971205, 3.444879336384462 ], [ -76.51995478146759, 3.444472436684119 ], [ -76.52130040490286, 3.44402231162382 ], [ -76.521647254870317, 3.445111332527431 ], [ -76.521729744510367, 3.445870948535066 ], [ -76.521738164483693, 3.446219875469316 ], [ -76.522926768718506, 3.45022649847862 ], [ -76.52309276980192, 3.451076345302841 ], [ -76.523094951208861, 3.451716112881555 ], [ -76.523119053222302, 3.45180206746284 ], [ -76.522463616548819, 3.452032347286468 ], [ -76.522064563579008, 3.452177240981882 ], [ -76.519941125639107, 3.452652417454305 ], [ -76.519061883760685, 3.452870802020159 ], [ -76.518204147883239, 3.448577749669016 ], [ -76.518422097127868, 3.446801683498784 ] ] ] } }
]
}
