{
"type": "FeatureCollection",
"name": "poligono_ciudad_de_cali_T5",
"crs": { "type": "name", "properties": { "name": "urn:ogc:def:crs:OGC:1.3:CRS84" } },
"features": [
{ "type": "Feature", "properties": { "tramo": "5", "distancia": 2230.2891767400001, "BUFF_DIST": 100.0, "ORIG_FID": 3, "proyecto": "TRAMO 05" }, "geometry": { "type": "Polygon", "coordinates": [ [ [ -76.500472114136727, 3.404137050930774 ], [ -76.501628255864247, 3.405517203825302 ], [ -76.501605056745873, 3.40553979613206 ], [ -76.50146520642312, 3.405648115164962 ], [ -76.500552668154924, 3.405938200582827 ], [ -76.500155516854107, 3.406280251847251 ], [ -76.499482599297295, 3.406889337713036 ], [ -76.498991396677937, 3.407334749744773 ], [ -76.498963045531937, 3.407427756573328 ], [ -76.498389560679541, 3.408020637343296 ], [ -76.498097589206182, 3.408321547707251 ], [ -76.498056972464397, 3.408360863813027 ], [ -76.498013984562974, 3.4083975456291 ], [ -76.497968794379062, 3.408431449051323 ], [ -76.497579157485404, 3.408705087278539 ], [ -76.497532968573594, 3.408735449852351 ], [ -76.49748501406485, 3.408762909328479 ], [ -76.497026967547939, 3.409006804284735 ], [ -76.496959314584402, 3.409039274866581 ], [ -76.49690782903896, 3.409059531279461 ], [ -76.496050791410738, 3.409366552446357 ], [ -76.495893783956845, 3.409456638705883 ], [ -76.495773095359922, 3.40952844080496 ], [ -76.495744518603885, 3.409547897327165 ], [ -76.495360587947147, 3.409268842224359 ], [ -76.493105673189035, 3.411453347243373 ], [ -76.491856078868167, 3.412653009045276 ], [ -76.492088754763486, 3.41286727782687 ], [ -76.492532934199687, 3.413360427629247 ], [ -76.492186423779756, 3.413698591838588 ], [ -76.49185456484301, 3.414010529950898 ], [ -76.491183109759461, 3.413316834807678 ], [ -76.49035498882877, 3.414047973885352 ], [ -76.489787382888068, 3.414612640701736 ], [ -76.487138919863312, 3.417186606011291 ], [ -76.487483409638713, 3.417589034916385 ], [ -76.487817379534661, 3.417924796326159 ], [ -76.487241564312384, 3.418393237881178 ], [ -76.487221507602541, 3.418469500156932 ], [ -76.487194913074518, 3.418543715566871 ], [ -76.487161983127407, 3.418615319286268 ], [ -76.487194128906324, 3.418766770633348 ], [ -76.487102766913367, 3.418697448623624 ], [ -76.486374546098418, 3.418144901279121 ], [ -76.486170980703591, 3.417990442961462 ], [ -76.486228896027413, 3.417693964239848 ], [ -76.486270373930083, 3.417324524429553 ], [ -76.485836618816407, 3.416856206075042 ], [ -76.486370313649942, 3.41634895153049 ], [ -76.487664006133343, 3.415111577929189 ], [ -76.488998441575546, 3.413823464527082 ], [ -76.489141666972742, 3.413966354497074 ], [ -76.48995952098646, 3.413190835052284 ], [ -76.490183699863465, 3.413357331474362 ], [ -76.491070164531394, 3.412503183347372 ], [ -76.490208423954584, 3.41151052788069 ], [ -76.490496420879907, 3.411236993943154 ], [ -76.490969165888743, 3.411737212501835 ], [ -76.494493807457118, 3.40832791845786 ], [ -76.494727345315411, 3.408561903040505 ], [ -76.495196632686273, 3.408106053663879 ], [ -76.495632777140443, 3.407693348917377 ], [ -76.495534907754092, 3.40759570812131 ], [ -76.495432229731634, 3.407483743679272 ], [ -76.495849312064308, 3.407061547994736 ], [ -76.496333760699358, 3.407576539642857 ], [ -76.496610764284313, 3.407322407491804 ], [ -76.496890441561987, 3.407051295304946 ], [ -76.49715112589881, 3.406789813269616 ], [ -76.497463945188713, 3.406475556893068 ], [ -76.497649693810828, 3.406297845726583 ], [ -76.497839405417039, 3.406141791161546 ], [ -76.498018455834071, 3.406326377149641 ], [ -76.498261260436479, 3.406053607196205 ], [ -76.499650618997478, 3.404727033430496 ], [ -76.500335009154355, 3.404037905355851 ], [ -76.500472114136727, 3.404137050930774 ] ] ] } }
]
}
