{
"type": "FeatureCollection",
"name": "poligono_ciudad_de_cali_T6",
"crs": { "type": "name", "properties": { "name": "urn:ogc:def:crs:OGC:1.3:CRS84" } },
"features": [
{ "type": "Feature", "properties": { "tramo": "6", "distancia": 1842.25972456, "BUFF_DIST": 100.0, "ORIG_FID": 7, "proyecto": "TRAMO 06" }, "geometry": { "type": "Polygon", "coordinates": [ [ [ -76.512548609540517, 3.393058261916742 ], [ -76.513648451978668, 3.394517977361545 ], [ -76.513533943895709, 3.394637721341942 ], [ -76.513506980791149, 3.394664748427604 ], [ -76.513491359612004, 3.394679404598107 ], [ -76.513030194980857, 3.395101891092652 ], [ -76.51221901544254, 3.395972763813531 ], [ -76.508506092049217, 3.399381246857775 ], [ -76.508332272682765, 3.399156083425381 ], [ -76.506826047351524, 3.400508920455463 ], [ -76.507232913594294, 3.40094722414851 ], [ -76.506690207508953, 3.40135457895446 ], [ -76.507103817426653, 3.401815922830518 ], [ -76.505859534072499, 3.402908903732157 ], [ -76.505218799145197, 3.402251811066805 ], [ -76.505156656503104, 3.402313488452752 ], [ -76.505142089733653, 3.402327176764083 ], [ -76.503611270115272, 3.403513824167194 ], [ -76.504333814181152, 3.404362682857045 ], [ -76.503330282804029, 3.405270731599005 ], [ -76.502370265791754, 3.406181809101497 ], [ -76.501676705443202, 3.405490067761784 ], [ -76.501646170066664, 3.405507170282551 ], [ -76.501628255864247, 3.405517203825302 ], [ -76.50105267449878, 3.404830100422259 ], [ -76.500472114136727, 3.404137050930774 ], [ -76.500394342273211, 3.404080811289162 ], [ -76.500335009154355, 3.404037905355851 ], [ -76.500404532933672, 3.403959948002722 ], [ -76.501310784775271, 3.402992202733059 ], [ -76.50151647340374, 3.403208648449958 ], [ -76.503914381999778, 3.401004905748118 ], [ -76.504028644513966, 3.40089112464945 ], [ -76.504040173854662, 3.400879847390992 ], [ -76.504055566888539, 3.400865400675726 ], [ -76.504623465357909, 3.400344790215189 ], [ -76.505686389327266, 3.399377777831018 ], [ -76.507174841923359, 3.398015366720649 ], [ -76.507654756127579, 3.398595603304717 ], [ -76.509000038561112, 3.397362745404129 ], [ -76.508876204242398, 3.397154656227749 ], [ -76.509596200742948, 3.39647979502899 ], [ -76.509284168010964, 3.396084653639064 ], [ -76.510086863508604, 3.395349927440267 ], [ -76.510240206963488, 3.3955638060608 ], [ -76.511050726167682, 3.394764925035978 ], [ -76.510913213620398, 3.394593548947704 ], [ -76.510699631067766, 3.39435749045757 ], [ -76.511080164016718, 3.394026260025118 ], [ -76.511310881764516, 3.39422955331724 ], [ -76.511818179488287, 3.39376521075508 ], [ -76.512257078399458, 3.393363122966515 ], [ -76.512548609540517, 3.393058261916742 ] ] ] } }
]
}
