{
"type": "FeatureCollection",
"name": "poligono_ciudad_de_cali_T3",
"crs": { "type": "name", "properties": { "name": "urn:ogc:def:crs:OGC:1.3:CRS84" } },
"features": [
{ "type": "Feature", "properties": { "tramo": "3", "distancia": 2317.3813944799999, "BUFF_DIST": 100.0, "ORIG_FID": 6, "proyecto": "TRAMO 03" }, "geometry": { "type": "Polygon", "coordinates": [ [ [ -76.484664687834254, 3.446881646808037 ], [ -76.484594471054038, 3.447216202398171 ], [ -76.48512145457363, 3.447057954159842 ], [ -76.484657955398575, 3.449018134307592 ], [ -76.4836474477259, 3.451728399450144 ], [ -76.48364555749572, 3.451737188932507 ], [ -76.485015370270503, 3.452090315898711 ], [ -76.482931391419584, 3.456214501497852 ], [ -76.483946199125171, 3.456274598077507 ], [ -76.483449486640154, 3.45731918145901 ], [ -76.482798109189787, 3.458767678346367 ], [ -76.482606860011344, 3.460012731317617 ], [ -76.482663967075496, 3.460721810697349 ], [ -76.482770566928593, 3.461511077913176 ], [ -76.481400572425628, 3.461928653490831 ], [ -76.48194308953498, 3.463651383259066 ], [ -76.480714018610058, 3.464072865118571 ], [ -76.481161357279177, 3.465438675735829 ], [ -76.481389785535725, 3.466233415711871 ], [ -76.480480424522682, 3.466506857323606 ], [ -76.47996014081474, 3.466676672145044 ], [ -76.479850026705435, 3.466746883495694 ], [ -76.479652801125383, 3.466809899473757 ], [ -76.479384172600533, 3.466895729563278 ], [ -76.479273711034409, 3.466584158178064 ], [ -76.479207443045368, 3.466029029925552 ], [ -76.478872919174535, 3.46477120391601 ], [ -76.479430160595541, 3.464554477940214 ], [ -76.47965668528326, 3.464466675829036 ], [ -76.479129396724431, 3.462299700691067 ], [ -76.479240041661171, 3.461061191237532 ], [ -76.479204746322807, 3.460540535426281 ], [ -76.479960225192315, 3.460695200391567 ], [ -76.480086296967897, 3.459317611442421 ], [ -76.480004205563205, 3.459317611442421 ], [ -76.480072020201931, 3.458393190841565 ], [ -76.480156491067589, 3.456912769519203 ], [ -76.48018504459958, 3.45643092866558 ], [ -76.480248774496943, 3.455773523247325 ], [ -76.48030318483859, 3.455130672198845 ], [ -76.480487355120374, 3.452864949429197 ], [ -76.480662800711855, 3.450946786596925 ], [ -76.47974123546436, 3.450400224403945 ], [ -76.479887572316215, 3.449850568911661 ], [ -76.481354510026392, 3.450318132999139 ], [ -76.482047122069844, 3.450590356674235 ], [ -76.482232061332581, 3.449709200869751 ], [ -76.481682875645163, 3.449597156314464 ], [ -76.482127239988074, 3.447857889292175 ], [ -76.482377083393715, 3.447800782228023 ], [ -76.482561491621595, 3.446401659156623 ], [ -76.482589484927928, 3.44621152974414 ], [ -76.482628013703106, 3.446216604541257 ], [ -76.482967941239735, 3.446261377915467 ], [ -76.483006838182007, 3.446266501205307 ], [ -76.483515655484894, 3.446338058146652 ], [ -76.483562994661213, 3.446328499274573 ], [ -76.483922574355404, 3.446255891836492 ], [ -76.484134315346523, 3.446213136444007 ], [ -76.484865025525323, 3.446022990096624 ], [ -76.485072719059758, 3.44593820134637 ], [ -76.485270666607619, 3.446523854393676 ], [ -76.48470257029237, 3.446729082905339 ], [ -76.484664687834254, 3.446881646808037 ] ] ] } }
]
}
