{
"type": "FeatureCollection",
"name": "poligono_ciudad_de_cali_T1",
"crs": { "type": "name", "properties": { "name": "urn:ogc:def:crs:OGC:1.3:CRS84" } },
"features": [
{ "type": "Feature", "properties": { "tramo": "1", "distancia": 1051.2929989500001, "BUFF_DIST": 100.0, "ORIG_FID": 5, "proyecto": "TRAMO 01" }, "geometry": { "type": "Polygon", "coordinates": [ [ [ -76.488123293150693, 3.491637197482946 ], [ -76.487861983635412, 3.491268135573729 ], [ -76.487225432309913, 3.491359506577306 ], [ -76.486918481840235, 3.490470777891617 ], [ -76.48707539306389, 3.490416323202507 ], [ -76.487018419202457, 3.490267333975736 ], [ -76.486961907003604, 3.490097797379071 ], [ -76.486869702889578, 3.489788467448324 ], [ -76.486349195794674, 3.489931235108617 ], [ -76.486096205440049, 3.488453351370938 ], [ -76.485794374888883, 3.48741269460718 ], [ -76.485623053696543, 3.486651267085285 ], [ -76.484406140291242, 3.482212496613027 ], [ -76.484610791326986, 3.482154085784466 ], [ -76.485330578281207, 3.481925062662571 ], [ -76.485860008355019, 3.481776346349756 ], [ -76.486720183508623, 3.481541374575439 ], [ -76.487434021810316, 3.483954148035345 ], [ -76.487412606661223, 3.484261098504956 ], [ -76.488402264151318, 3.485994535847764 ], [ -76.487244120993296, 3.48661882710019 ], [ -76.488672800404515, 3.489293867582921 ], [ -76.488971748169206, 3.489716087101803 ], [ -76.489003722492669, 3.489816196100559 ], [ -76.489402282211245, 3.490533008728498 ], [ -76.489122695543074, 3.490702545325165 ], [ -76.489286283487161, 3.49098213199344 ], [ -76.489786771695492, 3.490867187333076 ], [ -76.489818642113846, 3.490912199587092 ], [ -76.489861316875817, 3.490978406418415 ], [ -76.48989808677635, 3.491048098690075 ], [ -76.489928671973473, 3.49112074600262 ], [ -76.489952839694013, 3.491195795466833 ], [ -76.489970406005909, 3.491272675911223 ], [ -76.489981237217023, 3.49135080222961 ], [ -76.489985250893994, 3.491429579833967 ], [ -76.489985026292914, 3.491435826347147 ], [ -76.488123293150693, 3.491637197482946 ] ] ] } }
]
}
