{
"type": "FeatureCollection",
"name": "poligono_ciudad_de_cali_T2",
"crs": { "type": "name", "properties": { "name": "urn:ogc:def:crs:OGC:1.3:CRS84" } },
"features": [
{ "type": "Feature", "properties": { "tramo": "2", "distancia": 1860.79202676, "BUFF_DIST": 100.0, "ORIG_FID": 1, "proyecto": "TRAMO 02" }, "geometry": { "type": "Polygon", "coordinates": [ [ [ -76.481551787172464, 3.472546052392957 ], [ -76.481113371482252, 3.471049886970149 ], [ -76.480636884415787, 3.470619244185815 ], [ -76.480106661188245, 3.468917532989922 ], [ -76.479441279664684, 3.466895729563271 ], [ -76.479907133769586, 3.466746883495686 ], [ -76.47996111749012, 3.467010791570452 ], [ -76.480573828699164, 3.468724003494768 ], [ -76.480847466714863, 3.468837027892578 ], [ -76.481727867286963, 3.46855252367149 ], [ -76.482169257303497, 3.470082517098353 ], [ -76.482447654241184, 3.470835616506587 ], [ -76.482662136084286, 3.471308857564277 ], [ -76.48343275109761, 3.471103305869691 ], [ -76.484418680765373, 3.474227300224201 ], [ -76.485380776165471, 3.477356291446795 ], [ -76.486679793718451, 3.481552407747702 ], [ -76.486132636158743, 3.481701873332838 ], [ -76.485860008355019, 3.481776346349756 ], [ -76.485330578281207, 3.481925062662571 ], [ -76.485265893135875, 3.481945644299787 ], [ -76.484644254954389, 3.48214343826678 ], [ -76.484406140291242, 3.482212496613027 ], [ -76.482072095979163, 3.47394929986333 ], [ -76.481551787172464, 3.472546052392957 ] ] ] } }
]
}
