{
"type": "FeatureCollection",
"name": "poligono_ciudad_de_cali_T4",
"crs": { "type": "name", "properties": { "name": "urn:ogc:def:crs:OGC:1.3:CRS84" } },
"features": [
{ "type": "Feature", "properties": { "tramo": "4", "distancia": 3193.35367597, "BUFF_DIST": 100.0, "ORIG_FID": 2, "proyecto": "TRAMO 04" }, "geometry": { "type": "Polygon", "coordinates": [ [ [ -76.486170980703591, 3.417990442961462 ], [ -76.487194128906324, 3.418766770633348 ], [ -76.486958839737952, 3.420615657594615 ], [ -76.487459127949592, 3.420974154224589 ], [ -76.488477039096779, 3.421869232524147 ], [ -76.4882903981525, 3.422112425788654 ], [ -76.487948212718905, 3.421872265573235 ], [ -76.487372838508918, 3.422591433002325 ], [ -76.487626964439571, 3.422816378938204 ], [ -76.487582607442178, 3.422871076697024 ], [ -76.487180495458546, 3.423324796527435 ], [ -76.485820658904373, 3.424934450491245 ], [ -76.485976256111144, 3.425109419179092 ], [ -76.485680013215855, 3.425512737819626 ], [ -76.485955937553854, 3.425708364376841 ], [ -76.486251083857326, 3.425919625651616 ], [ -76.48599053287721, 3.426540664974144 ], [ -76.486565172710087, 3.4269356555012 ], [ -76.485876318748865, 3.428213426061292 ], [ -76.485587452182799, 3.428783069026059 ], [ -76.484509239085639, 3.430954327193937 ], [ -76.484098782062105, 3.430799662228608 ], [ -76.484122576672064, 3.431775241241036 ], [ -76.484191581041387, 3.433189830808932 ], [ -76.484210616729442, 3.434707926930741 ], [ -76.484324830857645, 3.440494776097005 ], [ -76.484860817610283, 3.440553885351579 ], [ -76.485086734271761, 3.441653097714622 ], [ -76.485598318388156, 3.442513272868234 ], [ -76.485869576942704, 3.442905883934215 ], [ -76.485410340968599, 3.443486472419577 ], [ -76.485524555096958, 3.44386718618051 ], [ -76.485954761646724, 3.445061675605558 ], [ -76.486070601740138, 3.445530826000479 ], [ -76.484865025525323, 3.446022990096639 ], [ -76.484134315346523, 3.446213136444043 ], [ -76.483515655484894, 3.446338058146652 ], [ -76.483006838182007, 3.446266501205325 ], [ -76.48242705207474, 3.446190134987614 ], [ -76.482585444862309, 3.444619095858469 ], [ -76.483778030718497, 3.444495363886098 ], [ -76.483801825328584, 3.442629866457651 ], [ -76.483734724528233, 3.439780937795175 ], [ -76.483049769118836, 3.439751174009217 ], [ -76.482994729107645, 3.435840516641428 ], [ -76.483382564299347, 3.434679373398604 ], [ -76.483487260583615, 3.43431769532567 ], [ -76.482821011501926, 3.433970294018859 ], [ -76.48261161893339, 3.433223143263037 ], [ -76.482806734735945, 3.433189830808932 ], [ -76.482768663359835, 3.431053074825632 ], [ -76.48277017035177, 3.428854452856222 ], [ -76.482781829710675, 3.42742986955199 ], [ -76.482763983753088, 3.426344835333291 ], [ -76.482763983753102, 3.425989819751234 ], [ -76.483555154537612, 3.425957102162408 ], [ -76.484407120550827, 3.426205874810584 ], [ -76.485156310758626, 3.424302864280082 ], [ -76.484705114239901, 3.423779621267901 ], [ -76.485882667808681, 3.422746866315504 ], [ -76.485284963398527, 3.422225592720925 ], [ -76.484450791183633, 3.421429111229822 ], [ -76.486141227976916, 3.419601906137718 ], [ -76.486096142669766, 3.41867192789498 ], [ -76.48617171503777, 3.4181936086895 ], [ -76.486170980703591, 3.417990442961462 ] ] ] } }
]
}
