{
"type": "FeatureCollection",
"name": "poligono_Oriente",
"crs": { "type": "name", "properties": { "name": "urn:ogc:def:crs:OGC:1.3:CRS84" } },
"features": [
{ "type": "Feature", "properties": { "id": null, "Name": "Perimetro Proyecto", "descriptio": null, "timestamp": null, "begin": null, "end": null, "altitudeMo": null, "tessellate": 1, "extrude": 0, "visibility": -1, "drawOrder": 0, "icon": null, "AREA": 5399917.233 }, "geometry": { "type": "Polygon", "coordinates": [ [ [ -76.483542093896929, 3.446536290814498, 0.0 ], [ -76.4824550726957, 3.44640332934829, 0.0 ], [ -76.481322662946937, 3.446249182076806, 0.0 ], [ -76.480993883263181, 3.446095780157559, 0.0 ], [ -76.480855842981853, 3.445788199177699, 0.0 ], [ -76.481211729130038, 3.444769055711149, 0.0 ], [ -76.481463757960981, 3.444179692516878, 0.0 ], [ -76.48180354234826, 3.44338951752738, 0.0 ], [ -76.481908368428066, 3.442886213225666, 0.0 ], [ -76.481241036579121, 3.441997075127669, 0.0 ], [ -76.480961672864353, 3.441873513912594, 0.0 ], [ -76.480663250987604, 3.441682262160886, 0.0 ], [ -76.4804536829444, 3.44172154098158, 0.0 ], [ -76.480346450550499, 3.441633582469736, 0.0 ], [ -76.480468063485176, 3.441289632593263, 0.0 ], [ -76.480592337694858, 3.441222645135639, 0.0 ], [ -76.480737680701665, 3.441119347718284, 0.0 ], [ -76.480867795163959, 3.440719840277965, 0.0 ], [ -76.481092219891551, 3.440290269916366, 0.0 ], [ -76.481100144607623, 3.439849389313428, 0.0 ], [ -76.479736941864928, 3.43579040315096, 0.0 ], [ -76.478116659873692, 3.431383416440287, 0.0 ], [ -76.477518156521782, 3.429535530205437, 0.0 ], [ -76.476956507697579, 3.427908608188059, 0.0 ], [ -76.47737345545508, 3.424942273449313, 0.0 ], [ -76.477832725220892, 3.422480487920044, 0.0 ], [ -76.478385411676925, 3.419249910837597, 0.0 ], [ -76.479224884139455, 3.414783313273865, 0.0 ], [ -76.479370328591457, 3.413774117098689, 0.0 ], [ -76.479261503666152, 3.413700620621282, 0.0 ], [ -76.479230890510053, 3.413402017843167, 0.0 ], [ -76.479417325024343, 3.4132263517508, 0.0 ], [ -76.479491413663126, 3.413076457367521, 0.0 ], [ -76.479537413801566, 3.412709708020633, 0.0 ], [ -76.479680559141727, 3.412200200500858, 0.0 ], [ -76.479692135788923, 3.412105941626099, 0.0 ], [ -76.480043038559842, 3.412055298152954, 0.0 ], [ -76.4800979772792, 3.412385935208222, 0.0 ], [ -76.480267522902494, 3.412536604955072, 0.0 ], [ -76.480508573102142, 3.412512448537304, 0.0 ], [ -76.481066923097003, 3.412838891881412, 0.0 ], [ -76.481651119018807, 3.413204209842613, 0.0 ], [ -76.482169671888954, 3.413558588833335, 0.0 ], [ -76.482341742708158, 3.413691823754232, 0.0 ], [ -76.482634347263101, 3.413871590873408, 0.0 ], [ -76.48291287217927, 3.414156265405619, 0.0 ], [ -76.483015667149061, 3.414382623911019, 0.0 ], [ -76.483255154511795, 3.414439968503459, 0.0 ], [ -76.483490472296978, 3.41450592866456, 0.0 ], [ -76.483595975434483, 3.414722282095082, 0.0 ], [ -76.484230248231569, 3.41547574917287, 0.0 ], [ -76.484863336882469, 3.416484915580084, 0.0 ], [ -76.485431617665554, 3.417196051070678, 0.0 ], [ -76.486179767835054, 3.417847927811738, 0.0 ], [ -76.486856872143264, 3.418434162119163, 0.0 ], [ -76.487526257037047, 3.418834057070411, 0.0 ], [ -76.488351658649151, 3.419447565621951, 0.0 ], [ -76.489278730091044, 3.420064316345234, 0.0 ], [ -76.489782785125854, 3.420606908352952, 0.0 ], [ -76.490401553615357, 3.420999742028389, 0.0 ], [ -76.491465241653259, 3.421972797503325, 0.0 ], [ -76.492260364794006, 3.422687522053543, 0.0 ], [ -76.493293480154946, 3.423543674756535, 0.0 ], [ -76.494044424932682, 3.424294982939576, 0.0 ], [ -76.494956321802206, 3.424945379222315, 0.0 ], [ -76.496008948118686, 3.426073323446929, 0.0 ], [ -76.496373025002484, 3.42643462418242, 0.0 ], [ -76.496937391543284, 3.426869608850163, 0.0 ], [ -76.497292229328039, 3.42739365591744, 0.0 ], [ -76.497564442289558, 3.427640770201347, 0.0 ], [ -76.498278847991315, 3.42793655284919, 0.0 ], [ -76.499277454254226, 3.428496796960617, 0.0 ], [ -76.498628591473178, 3.429526025250546, 0.0 ], [ -76.497741165551318, 3.431222745837096, 0.0 ], [ -76.49692502123527, 3.432970873526275, 0.0 ], [ -76.495928819257557, 3.434819390151664, 0.0 ], [ -76.495192662592217, 3.436246178021213, 0.0 ], [ -76.494281775243891, 3.438023102038025, 0.0 ], [ -76.49318734754975, 3.440037304961382, 0.0 ], [ -76.492506827344087, 3.441246010272428, 0.0 ], [ -76.491785634315406, 3.442480719583604, 0.0 ], [ -76.491431074017115, 3.443305932097584, 0.0 ], [ -76.491095481005942, 3.443898211490057, 0.0 ], [ -76.489792929776641, 3.444337552578407, 0.0 ], [ -76.488583348621191, 3.444837562377754, 0.0 ], [ -76.484326317728815, 3.446329642222789, 0.0 ], [ -76.484174121932753, 3.446466085135634, 0.0 ], [ -76.48405208783845, 3.446593027285059, 0.0 ], [ -76.483542093896929, 3.446536290814498, 0.0 ] ] ] } }
]
}
