{
"type": "FeatureCollection",
"name": "poligono_ciudad_de_cali_T7",
"crs": { "type": "name", "properties": { "name": "urn:ogc:def:crs:OGC:1.3:CRS84" } },
"features": [
{ "type": "Feature", "properties": { "tramo": "7", "distancia": 4523.7849515799999, "BUFF_DIST": 100.0, "ORIG_FID": 0, "proyecto": "TRAMO 07" }, "geometry": { "type": "Polygon", "coordinates": [ [ [ -76.515866735017809, 3.354149232811296 ], [ -76.517522474647308, 3.354240835535589 ], [ -76.517386693524273, 3.356172558505981 ], [ -76.517233910842663, 3.358668416329115 ], [ -76.517947573238331, 3.358718416323962 ], [ -76.517707482419098, 3.362729936703335 ], [ -76.517774058933966, 3.364713509640054 ], [ -76.517456671017186, 3.36474528410682 ], [ -76.517463048686949, 3.368176304525073 ], [ -76.517432700784241, 3.372138068859945 ], [ -76.517426241356262, 3.375299050076472 ], [ -76.517432268041233, 3.380205105174647 ], [ -76.517298580873117, 3.380450787502411 ], [ -76.517320972697334, 3.383441843421855 ], [ -76.51711215944789, 3.383768772845527 ], [ -76.517326261428735, 3.384148113202979 ], [ -76.517359029175879, 3.388522391699499 ], [ -76.517359054656737, 3.388529199603711 ], [ -76.517358507609458, 3.38856072235263 ], [ -76.517351011304186, 3.388776658553466 ], [ -76.517347794251037, 3.388827739903129 ], [ -76.517292399982367, 3.389423263070475 ], [ -76.517252269616932, 3.38985461321607 ], [ -76.517209234338509, 3.390294586377672 ], [ -76.517658439195316, 3.390474342515999 ], [ -76.517629899099717, 3.390803090645969 ], [ -76.517609769752454, 3.390991387499713 ], [ -76.517581002782862, 3.391257395385412 ], [ -76.51746797847494, 3.392064479822546 ], [ -76.517423503762444, 3.3920975067728 ], [ -76.516986660954217, 3.391818859599332 ], [ -76.516603455835707, 3.392396283552373 ], [ -76.515908941700445, 3.393044757170443 ], [ -76.515094069696758, 3.3937886792886 ], [ -76.514835575220687, 3.393530589358509 ], [ -76.514260590436209, 3.394057389537872 ], [ -76.513648451978668, 3.394517977361559 ], [ -76.513098530090616, 3.393788120055096 ], [ -76.512599228052622, 3.393125443244945 ], [ -76.512548609540517, 3.39305826191676 ], [ -76.51271411567626, 3.392901326427897 ], [ -76.51479322497471, 3.391123959027258 ], [ -76.51502319416997, 3.390903988649667 ], [ -76.515184806956327, 3.3906479076518 ], [ -76.515285126315817, 3.390473506560459 ], [ -76.515329358012409, 3.390341364702082 ], [ -76.515427415511326, 3.390025402576037 ], [ -76.515461010866829, 3.389681986582717 ], [ -76.515500736382577, 3.389254941509742 ], [ -76.51555354644583, 3.3886872389585 ], [ -76.515493884741417, 3.388513667219345 ], [ -76.515442455887211, 3.383739006697805 ], [ -76.515499175392279, 3.380464745820144 ], [ -76.515292597484162, 3.380435179537097 ], [ -76.51525858842264, 3.376606293310868 ], [ -76.515202024872039, 3.364739115466021 ], [ -76.515029101696797, 3.358628590201209 ], [ -76.514869433520531, 3.358538342144267 ], [ -76.514908896224583, 3.356939192343004 ], [ -76.514954708452123, 3.355784586684241 ], [ -76.514443540792541, 3.35516499563904 ], [ -76.515348824148617, 3.354336425974369 ], [ -76.515591469001834, 3.354134003605622 ], [ -76.515866735017809, 3.354149232811296 ] ] ] } }
]
}
