{
"type": "FeatureCollection",
"name": "Mzn_ics_filtrado_tramos_Roosevelt_Buffer_100",
"crs": { "type": "name", "properties": { "name": "urn:ogc:def:crs:OGC:1.3:CRS84" } },
"features": [
{ "type": "Feature", "properties": { "COD_MZN": "7600110000000019320110", "CLASE": 1.0, "ZONA": "Urbana", "cod_dane_a": "7600110000000019320110", "ics": 45.943821, "OBJECTID": 1, "OID_": 0, "Name": "Roosevelt", "FolderPath": "Roosevelt.kmz", "SymbolID": 0, "AltMode": 0, "Clamped": -1, "Shape_Leng": 1641.93268188, "BUFF_DIST": 100.0, "Shape_Area": 42.917556573799999 }, "geometry": { "type": "MultiPolygon", "coordinates": [ [ [ [ -76.541651807120843, 3.426700422393004 ], [ -76.54177382622953, 3.426611587571097 ], [ -76.541838939603963, 3.426699535604503 ], [ -76.541882221335271, 3.426757993692887 ], [ -76.541925345582271, 3.426816241072204 ], [ -76.541966039994719, 3.426871202143463 ], [ -76.542017286217074, 3.426940420752188 ], [ -76.542064585306164, 3.427004309284966 ], [ -76.542102298230105, 3.427055243404797 ], [ -76.542140240643164, 3.42710649403582 ], [ -76.542164520153875, 3.427139288361769 ], [ -76.542232262362006, 3.427232285220613 ], [ -76.542238567366667, 3.427241507505636 ], [ -76.542240711958584, 3.427245815718154 ], [ -76.542241650641529, 3.4272490450841 ], [ -76.542242857520094, 3.427253218571729 ], [ -76.542242989898384, 3.427257258241903 ], [ -76.542243124049179, 3.427260084291847 ], [ -76.542242721863389, 3.42726344933882 ], [ -76.542242052400141, 3.42726668145431 ], [ -76.542240845691211, 3.427270045615234 ], [ -76.54223977304521, 3.427272331803434 ], [ -76.542238296337857, 3.427274619809503 ], [ -76.54223642007176, 3.427277044379535 ], [ -76.542233658301399, 3.427279962737652 ], [ -76.542185293238887, 3.427316260303518 ], [ -76.54213254296846, 3.427355993542226 ], [ -76.542079990671425, 3.427395576653611 ], [ -76.542027800129446, 3.427434885739848 ], [ -76.541876156328712, 3.427549217227551 ], [ -76.541827460979292, 3.427585908169197 ], [ -76.541778771025477, 3.427622590969198 ], [ -76.541639289329467, 3.427728723429674 ], [ -76.541609671252672, 3.427724439335358 ], [ -76.541528344480227, 3.427613871464808 ], [ -76.541429734365096, 3.427479806578112 ], [ -76.54138039961974, 3.427412731175367 ], [ -76.541332423791403, 3.427347505109435 ], [ -76.541310525541235, 3.427317733004632 ], [ -76.541260318770526, 3.42724947745458 ], [ -76.541239016285246, 3.427220514716692 ], [ -76.541185370852745, 3.427147541311095 ], [ -76.541152926214266, 3.427103404942084 ], [ -76.541154610148141, 3.427070437301577 ], [ -76.541204052423623, 3.427033641474648 ], [ -76.541239844122003, 3.427007003453984 ], [ -76.541290801821418, 3.426969082594497 ], [ -76.541343250649788, 3.426930049365327 ], [ -76.541394672688966, 3.42689178032043 ], [ -76.541446319698892, 3.426853346678497 ], [ -76.541555718620629, 3.426771934958607 ], [ -76.541651268081537, 3.426700826643552 ], [ -76.541651807120843, 3.426700422393004 ] ] ] ] } },
{ "type": "Feature", "properties": { "COD_MZN": "7600110000000019320111", "CLASE": 1.0, "ZONA": "Urbana", "cod_dane_a": "7600110000000019320111", "ics": 37.746033, "OBJECTID": 1, "OID_": 0, "Name": "Roosevelt", "FolderPath": "Roosevelt.kmz", "SymbolID": 0, "AltMode": 0, "Clamped": -1, "Shape_Leng": 1641.93268188, "BUFF_DIST": 100.0, "Shape_Area": 42.917556573799999 }, "geometry": { "type": "MultiPolygon", "coordinates": [ [ [ [ -76.540920751624427, 3.427253798450668 ], [ -76.541016431673256, 3.427182952454292 ], [ -76.54105005881766, 3.427185841089143 ], [ -76.541134008002985, 3.42730364544985 ], [ -76.541155476995854, 3.427333766642081 ], [ -76.541222275126671, 3.427427500627806 ], [ -76.541275148442992, 3.427500087895692 ], [ -76.541274397026555, 3.427500642270569 ], [ -76.541310932847864, 3.427551910147211 ], [ -76.541374577613496, 3.427641217460852 ], [ -76.541408268729754, 3.427688494556654 ], [ -76.541491934521133, 3.427805899173333 ], [ -76.541478293475578, 3.427840804165953 ], [ -76.541277338577032, 3.427990160704347 ], [ -76.541178916476866, 3.428063310131583 ], [ -76.541126099519943, 3.428102565826043 ], [ -76.54105650211288, 3.428154294493563 ], [ -76.54101852540748, 3.428182521473887 ], [ -76.540902540804296, 3.428268725352988 ], [ -76.540865207892054, 3.428271489802391 ], [ -76.540822838664212, 3.428212884243427 ], [ -76.540770916568491, 3.428141066522181 ], [ -76.540719891721579, 3.428070494050942 ], [ -76.540678631238336, 3.428013418599914 ], [ -76.540640901220527, 3.427960920826337 ], [ -76.540590012274961, 3.427890114121646 ], [ -76.540537061573346, 3.427816442517816 ], [ -76.540485106213737, 3.427744150003936 ], [ -76.540418808483224, 3.427650350844215 ], [ -76.540418096608207, 3.427648275405716 ], [ -76.540417451318817, 3.427645812005278 ], [ -76.54041680601874, 3.427642828611076 ], [ -76.540416805054647, 3.427639715883275 ], [ -76.540416547620296, 3.427636861801183 ], [ -76.540417065004206, 3.427633619742405 ], [ -76.540418227634731, 3.427630768343768 ], [ -76.540420164175487, 3.427627137390532 ], [ -76.540422102534791, 3.427624414391587 ], [ -76.540424813915109, 3.427621430023145 ], [ -76.540428561096846, 3.427618450154795 ], [ -76.540432307378595, 3.427615466669125 ], [ -76.540660246752495, 3.427446687294068 ], [ -76.540710442286624, 3.427409521603085 ], [ -76.540760880789847, 3.427372173228248 ], [ -76.540810773949786, 3.427335230909598 ], [ -76.540869680504017, 3.427291618007016 ], [ -76.540920751624427, 3.427253798450668 ] ] ] ] } },
{ "type": "Feature", "properties": { "COD_MZN": "7600110000000019320113", "CLASE": 1.0, "ZONA": "Urbana", "cod_dane_a": "7600110000000019320113", "ics": 60.860466, "OBJECTID": 1, "OID_": 0, "Name": "Roosevelt", "FolderPath": "Roosevelt.kmz", "SymbolID": 0, "AltMode": 0, "Clamped": -1, "Shape_Leng": 1641.93268188, "BUFF_DIST": 100.0, "Shape_Area": 42.917556573799999 }, "geometry": { "type": "MultiPolygon", "coordinates": [ [ [ [ -76.539772876398388, 3.427125845015442 ], [ -76.539803218794034, 3.427125847116827 ], [ -76.539955804542913, 3.427347052084327 ], [ -76.540002072278654, 3.427414124006626 ], [ -76.54004810603638, 3.427480860422314 ], [ -76.54009452857494, 3.427548162942626 ], [ -76.540169561140374, 3.427656936861518 ], [ -76.540059141462464, 3.4277366193508 ], [ -76.539986691306282, 3.4277889050707 ], [ -76.539922002792423, 3.427835588260085 ], [ -76.539859971681452, 3.427880349675257 ], [ -76.539793056798601, 3.427928639003369 ], [ -76.539720417634157, 3.427981062166023 ], [ -76.53955969156452, 3.428097048405255 ], [ -76.539394416450591, 3.428216318354669 ], [ -76.539288212765342, 3.428111916553344 ], [ -76.539437257907196, 3.427808674962449 ], [ -76.539477657954123, 3.42772647716664 ], [ -76.53951629873221, 3.427647865100043 ], [ -76.539556409904904, 3.427566259647139 ], [ -76.539604847641826, 3.427467707655786 ], [ -76.539653834294484, 3.427368046933691 ], [ -76.539772876398388, 3.427125845015442 ] ] ] ] } },
{ "type": "Feature", "properties": { "COD_MZN": "7600110000000019320114", "CLASE": 1.0, "ZONA": "Urbana", "cod_dane_a": "7600110000000019320114", "ics": 50.577465, "OBJECTID": 1, "OID_": 0, "Name": "Roosevelt", "FolderPath": "Roosevelt.kmz", "SymbolID": 0, "AltMode": 0, "Clamped": -1, "Shape_Leng": 1641.93268188, "BUFF_DIST": 100.0, "Shape_Area": 42.917556573799999 }, "geometry": { "type": "MultiPolygon", "coordinates": [ [ [ [ -76.541144032472928, 3.426097524679948 ], [ -76.541292038805949, 3.425988753248883 ], [ -76.541353837552293, 3.426069158314286 ], [ -76.541408300912082, 3.426140019163293 ], [ -76.541461814844837, 3.426209641992489 ], [ -76.541516744388744, 3.42628111144357 ], [ -76.541570905393101, 3.426351576189862 ], [ -76.541625256292633, 3.426422295047428 ], [ -76.541688247513719, 3.426504249193022 ], [ -76.541543458351214, 3.426613660884408 ], [ -76.541471422367167, 3.426668092699899 ], [ -76.541417373551283, 3.426708935549467 ], [ -76.541365483588066, 3.426748146925015 ], [ -76.541310771537724, 3.426789491690021 ], [ -76.541256636317854, 3.426830398740276 ], [ -76.541201762276245, 3.426871861970691 ], [ -76.541150250253125, 3.426910791173163 ], [ -76.541095893644382, 3.426951863712723 ], [ -76.541043083957845, 3.426991768716947 ], [ -76.540986130230436, 3.427034803717208 ], [ -76.540929312382772, 3.427077738329775 ], [ -76.540870562445818, 3.427122134388624 ], [ -76.540813023768195, 3.427165610707443 ], [ -76.540524034446349, 3.427383986142738 ], [ -76.540383772416803, 3.427489974647482 ], [ -76.540357429637638, 3.427509879651204 ], [ -76.540185733043657, 3.427281150154888 ], [ -76.540141983439526, 3.427222869249355 ], [ -76.540123697593231, 3.427198508595246 ], [ -76.540113683980252, 3.427185171638919 ], [ -76.53995383428385, 3.426972220727287 ], [ -76.540392053236076, 3.426650165563649 ], [ -76.540421003011986, 3.426628891338298 ], [ -76.540485392636384, 3.426581571467506 ], [ -76.540548545792419, 3.426535161381272 ], [ -76.540611727739019, 3.426488724160127 ], [ -76.540674115968329, 3.426442873866222 ], [ -76.540736659874355, 3.426396913235825 ], [ -76.540798616140137, 3.426351382173862 ], [ -76.540859122662411, 3.426306911021642 ], [ -76.540930937310833, 3.426254134193357 ], [ -76.541001706268773, 3.426202125164151 ], [ -76.541074540486917, 3.426148596799153 ], [ -76.541144032472928, 3.426097524679948 ] ] ] ] } },
{ "type": "Feature", "properties": { "COD_MZN": "7600110000000019330114", "CLASE": 1.0, "ZONA": "Urbana", "cod_dane_a": "7600110000000019330114", "ics": 56.39394, "OBJECTID": 1, "OID_": 0, "Name": "Roosevelt", "FolderPath": "Roosevelt.kmz", "SymbolID": 0, "AltMode": 0, "Clamped": -1, "Shape_Leng": 1641.93268188, "BUFF_DIST": 100.0, "Shape_Area": 42.917556573799999 }, "geometry": { "type": "MultiPolygon", "coordinates": [ [ [ [ -76.540689600260862, 3.425255073924309 ], [ -76.540733488955908, 3.425254193077727 ], [ -76.540781237012538, 3.4253218744573 ], [ -76.540820625541969, 3.425377701962427 ], [ -76.540836819945383, 3.425400659117607 ], [ -76.540850725800098, 3.425420168084168 ], [ -76.540864211384005, 3.425439091953435 ], [ -76.540878369222824, 3.425458959935996 ], [ -76.540908024911275, 3.425500569658178 ], [ -76.540919626924961, 3.425516846572363 ], [ -76.540935599043124, 3.425539254797963 ], [ -76.540957531458929, 3.425570031630477 ], [ -76.540993101562833, 3.425620322858598 ], [ -76.54105049610456, 3.425701475925559 ], [ -76.541078353735301, 3.42574086282041 ], [ -76.54110736059188, 3.425781899200342 ], [ -76.541195264917775, 3.4259062698655 ], [ -76.541148438684331, 3.425940183514078 ], [ -76.541132089322275, 3.425952019829216 ], [ -76.541087250961027, 3.42598449282311 ], [ -76.541068999211234, 3.425997711909336 ], [ -76.541053313972725, 3.426009071623238 ], [ -76.540989351852019, 3.426055394039696 ], [ -76.540902879200772, 3.425926320772992 ], [ -76.540889743660955, 3.425906717739981 ], [ -76.540876570323874, 3.425887045977968 ], [ -76.540847584125018, 3.425843784017299 ], [ -76.54083322826753, 3.425822356057354 ], [ -76.540828224596169, 3.425814886340086 ], [ -76.540822100498985, 3.425805768040229 ], [ -76.540792502347117, 3.4257616777181 ], [ -76.540777432840073, 3.425739233297604 ], [ -76.540764639283594, 3.42572017647506 ], [ -76.5407457360309, 3.425692021247085 ], [ -76.540737470078454, 3.425679794785706 ], [ -76.540724337248804, 3.425660368095937 ], [ -76.540699006628856, 3.425622890192653 ], [ -76.540681838468629, 3.42559748682419 ], [ -76.540667750804587, 3.425576643057648 ], [ -76.540662207173028, 3.42556843902919 ], [ -76.540657045115424, 3.425560763125467 ], [ -76.540625471611079, 3.425513793430418 ], [ -76.540590434240258, 3.425461669990395 ], [ -76.540562078028103, 3.425419487785677 ], [ -76.54052627297736, 3.425364387281832 ], [ -76.54062319487177, 3.425299518060321 ], [ -76.540689600260862, 3.425255073924309 ] ] ] ] } },
{ "type": "Feature", "properties": { "COD_MZN": "7600110000000019330115", "CLASE": 1.0, "ZONA": "Urbana", "cod_dane_a": "7600110000000019330115", "ics": 47.581394, "OBJECTID": 1, "OID_": 0, "Name": "Roosevelt", "FolderPath": "Roosevelt.kmz", "SymbolID": 0, "AltMode": 0, "Clamped": -1, "Shape_Leng": 1641.93268188, "BUFF_DIST": 100.0, "Shape_Area": 42.917556573799999 }, "geometry": { "type": "MultiPolygon", "coordinates": [ [ [ [ -76.540459720703041, 3.425661395551411 ], [ -76.540550228675357, 3.425583003015732 ], [ -76.540589903292528, 3.425634892136478 ], [ -76.54063133279125, 3.425689080043233 ], [ -76.540661710223404, 3.425731520843396 ], [ -76.540671873232256, 3.425745722337435 ], [ -76.540686994904362, 3.425766850043842 ], [ -76.540717390340248, 3.425809317067533 ], [ -76.540743231187477, 3.425845418558452 ], [ -76.540770897113191, 3.425884075666306 ], [ -76.540784371001152, 3.425902900059651 ], [ -76.540800466412364, 3.425925388770689 ], [ -76.540807711822524, 3.425935513573929 ], [ -76.54082984403972, 3.425967038291555 ], [ -76.540841243576523, 3.425983274515647 ], [ -76.540855514821715, 3.42600360551641 ], [ -76.540923158803977, 3.426099960277027 ], [ -76.540828444424065, 3.426169006613943 ], [ -76.540734404055215, 3.426237565489536 ], [ -76.540661527894855, 3.426136736166604 ], [ -76.540648824357419, 3.426119157027427 ], [ -76.540620820060624, 3.426080408585298 ], [ -76.540604753453664, 3.426058183032759 ], [ -76.54059217500982, 3.426040778427204 ], [ -76.540579067402504, 3.426022643128283 ], [ -76.540576127302799, 3.426018574577829 ], [ -76.540548163514643, 3.42598014988525 ], [ -76.540534710335152, 3.425961660997173 ], [ -76.540522650260897, 3.425945091082842 ], [ -76.540491679783116, 3.425902531822685 ], [ -76.540435394047122, 3.425825187766571 ], [ -76.54042517974932, 3.425811152669083 ], [ -76.540371809817401, 3.425737539842751 ], [ -76.540404395070027, 3.42570931661668 ], [ -76.540421943951031, 3.425694115250995 ], [ -76.540459720703041, 3.425661395551411 ] ] ] ] } },
{ "type": "Feature", "properties": { "COD_MZN": "7600110000000019330116", "CLASE": 1.0, "ZONA": "Urbana", "cod_dane_a": "7600110000000019330116", "ics": 46.75, "OBJECTID": 1, "OID_": 0, "Name": "Roosevelt", "FolderPath": "Roosevelt.kmz", "SymbolID": 0, "AltMode": 0, "Clamped": -1, "Shape_Leng": 1641.93268188, "BUFF_DIST": 100.0, "Shape_Area": 42.917556573799999 }, "geometry": { "type": "MultiPolygon", "coordinates": [ [ [ [ -76.540236393882964, 3.426629101352463 ], [ -76.539927558878091, 3.426851608029744 ], [ -76.53986573347531, 3.4268746409371 ], [ -76.539851508557391, 3.426875477736568 ], [ -76.539841463733339, 3.426876069376036 ], [ -76.539815765428827, 3.426857508378606 ], [ -76.539824331892689, 3.426821817642432 ], [ -76.53984003545591, 3.426780414065224 ], [ -76.540018496262022, 3.426372098676541 ], [ -76.54005860021681, 3.426383215776727 ], [ -76.54006552612779, 3.426392070902933 ], [ -76.540144675881592, 3.426332572046809 ], [ -76.540211658987573, 3.426282219899092 ], [ -76.540222689054318, 3.426274000152963 ], [ -76.540302763895639, 3.42621432401459 ], [ -76.540380376602954, 3.426156485533383 ], [ -76.540392203077573, 3.426147672523678 ], [ -76.5404604433256, 3.426096815712275 ], [ -76.540541889583352, 3.426036116720027 ], [ -76.540563124539389, 3.426065632025804 ], [ -76.540599524367238, 3.426116226203578 ], [ -76.540620990611117, 3.426146062542763 ], [ -76.540699508496317, 3.426255195371939 ], [ -76.540657327512619, 3.426285893075995 ], [ -76.540617212695352, 3.426315085918002 ], [ -76.540598091631281, 3.426329003161623 ], [ -76.540559410350397, 3.426357153270546 ], [ -76.540538732458373, 3.426372201871191 ], [ -76.540459923748699, 3.426429558378393 ], [ -76.540414420319834, 3.426462673433722 ], [ -76.540379432215957, 3.426488086934757 ], [ -76.540359060283592, 3.426502882310779 ], [ -76.54032224627997, 3.426529625222965 ], [ -76.54030100954202, 3.426545049129854 ], [ -76.540281762482195, 3.426559027864656 ], [ -76.540219883559161, 3.426603977402812 ], [ -76.540236393882964, 3.426629101352463 ] ] ] ] } },
{ "type": "Feature", "properties": { "COD_MZN": "7600110000000019330214", "CLASE": 1.0, "ZONA": "Urbana", "cod_dane_a": "7600110000000019330214", "ics": 56.91111, "OBJECTID": 1, "OID_": 0, "Name": "Roosevelt", "FolderPath": "Roosevelt.kmz", "SymbolID": 0, "AltMode": 0, "Clamped": -1, "Shape_Leng": 1641.93268188, "BUFF_DIST": 100.0, "Shape_Area": 42.917556573799999 }, "geometry": { "type": "MultiPolygon", "coordinates": [ [ [ [ -76.540027142535052, 3.425298381896285 ], [ -76.540231682344682, 3.425282541857 ], [ -76.540168905626672, 3.425427655777785 ], [ -76.540167930166717, 3.425429865093131 ], [ -76.540134580950735, 3.425505337222366 ], [ -76.540133155554102, 3.425508514187486 ], [ -76.540104997669786, 3.425571282082908 ], [ -76.540103295113497, 3.425575127358712 ], [ -76.540075747355473, 3.425637377055614 ], [ -76.54007370015006, 3.425642091406255 ], [ -76.540046955996615, 3.425703672780775 ], [ -76.540044192493824, 3.425710033039331 ], [ -76.540018162834073, 3.425769973026746 ], [ -76.540014383372181, 3.425778443124128 ], [ -76.539986884186121, 3.425840105902552 ], [ -76.539982446916909, 3.425850034708765 ], [ -76.539936452649826, 3.425952939246314 ], [ -76.539750805571231, 3.425883907720321 ], [ -76.539749868755095, 3.425883555047724 ], [ -76.539683429501977, 3.425858444751743 ], [ -76.53968265827109, 3.425858156283698 ], [ -76.53961172033199, 3.425831725740798 ], [ -76.539540182140257, 3.425804543700493 ], [ -76.539468845522563, 3.425776832613635 ], [ -76.539397956137663, 3.425747697181809 ], [ -76.539395557851378, 3.425746711501807 ], [ -76.539302334234534, 3.42570694511759 ], [ -76.539344429820289, 3.425587779802818 ], [ -76.539370989377645, 3.425518211346808 ], [ -76.539396568076754, 3.425451200374383 ], [ -76.539444850743394, 3.425342612962543 ], [ -76.539600951974563, 3.425330564996345 ], [ -76.53968169197212, 3.425324336117459 ], [ -76.53976243466829, 3.425318105423005 ], [ -76.539763082604139, 3.425318059288792 ], [ -76.539843192665742, 3.425312067345225 ], [ -76.539926210338095, 3.425305856486371 ], [ -76.539928433117822, 3.425305691851939 ], [ -76.540025925855687, 3.425298474163471 ], [ -76.540027142535052, 3.425298381896285 ] ] ] ] } },
{ "type": "Feature", "properties": { "COD_MZN": "7600110000000019330216", "CLASE": 1.0, "ZONA": "Urbana", "cod_dane_a": "7600110000000019330216", "ics": 50.396553, "OBJECTID": 1, "OID_": 0, "Name": "Roosevelt", "FolderPath": "Roosevelt.kmz", "SymbolID": 0, "AltMode": 0, "Clamped": -1, "Shape_Leng": 1641.93268188, "BUFF_DIST": 100.0, "Shape_Area": 42.917556573799999 }, "geometry": { "type": "MultiPolygon", "coordinates": [ [ [ [ -76.539073568393732, 3.426317187146653 ], [ -76.539106563343537, 3.426298260541259 ], [ -76.539205609938946, 3.426409916194866 ], [ -76.539247435219124, 3.426457070220256 ], [ -76.539258299211198, 3.426469408781283 ], [ -76.539306153155621, 3.426523754877901 ], [ -76.539333030560996, 3.426554279340092 ], [ -76.539350858240681, 3.426574616623633 ], [ -76.539405006334789, 3.426636370919707 ], [ -76.539417866384426, 3.426651038107158 ], [ -76.539462025225191, 3.42670145944617 ], [ -76.539487739029298, 3.426730811906178 ], [ -76.5395124458027, 3.426758687603161 ], [ -76.539534346584745, 3.426783397271525 ], [ -76.539553198378002, 3.426803909067797 ], [ -76.539557910151331, 3.426840716393447 ], [ -76.539538528765291, 3.42688909066865 ], [ -76.539504644172069, 3.426973243515428 ], [ -76.539490261552942, 3.427008958781236 ], [ -76.53946474853565, 3.427077109217475 ], [ -76.539459358334526, 3.427091515412308 ], [ -76.539440419681924, 3.427139161685271 ], [ -76.539417894139248, 3.427195423647101 ], [ -76.539408467103954, 3.427219086714713 ], [ -76.539397516644456, 3.427249428340836 ], [ -76.539352408133652, 3.427232888003006 ], [ -76.539220857775902, 3.427184639686306 ], [ -76.539143762505049, 3.427156368000173 ], [ -76.539135388748974, 3.427153395607627 ], [ -76.539038196488235, 3.427118948586826 ], [ -76.53900622143199, 3.427107617863339 ], [ -76.538987833351044, 3.427100230689963 ], [ -76.538939214286117, 3.427083468837719 ], [ -76.538938553745055, 3.427083242766197 ], [ -76.538841468596999, 3.427049265978381 ], [ -76.538835555234115, 3.427047717866781 ], [ -76.538832341622651, 3.42704670054925 ], [ -76.538829046095387, 3.427044435248224 ], [ -76.538826617181812, 3.427041995393565 ], [ -76.538825746909041, 3.427039034610964 ], [ -76.538825923206261, 3.427034505687984 ], [ -76.538826790643782, 3.427030320399828 ], [ -76.538849702021452, 3.426960427372863 ], [ -76.538853485963017, 3.426950127806428 ], [ -76.538869606183454, 3.426906268057842 ], [ -76.538875915115199, 3.426887179191692 ], [ -76.538881191905332, 3.426871222064277 ], [ -76.538901096013703, 3.426814433840889 ], [ -76.538917858651843, 3.426764479752102 ], [ -76.538926237335701, 3.426742921101434 ], [ -76.538940718834766, 3.426700517365573 ], [ -76.538951380413707, 3.426669305777684 ], [ -76.53895556658496, 3.426657467021475 ], [ -76.538970306370473, 3.426615789462737 ], [ -76.538972937574982, 3.426608346718539 ], [ -76.538985311611484, 3.426573187666215 ], [ -76.539003840719275, 3.426520534095668 ], [ -76.539009289388218, 3.426504549834025 ], [ -76.539017459241535, 3.426480569372027 ], [ -76.539029779282814, 3.426445557727011 ], [ -76.539047377026108, 3.426395535794188 ], [ -76.539049776956858, 3.426388359833646 ], [ -76.539073568393732, 3.426317187146653 ] ] ] ] } },
{ "type": "Feature", "properties": { "COD_MZN": "7600110000000019330217", "CLASE": 1.0, "ZONA": "Urbana", "cod_dane_a": "7600110000000019330217", "ics": 74.533333, "OBJECTID": 1, "OID_": 0, "Name": "Roosevelt", "FolderPath": "Roosevelt.kmz", "SymbolID": 0, "AltMode": 0, "Clamped": -1, "Shape_Leng": 1641.93268188, "BUFF_DIST": 100.0, "Shape_Area": 42.917556573799999 }, "geometry": { "type": "MultiPolygon", "coordinates": [ [ [ [ -76.538771425833175, 3.427156448432659 ], [ -76.538776126075305, 3.427156017878517 ], [ -76.538781252009258, 3.427157308269482 ], [ -76.538896410392198, 3.427204666190301 ], [ -76.538897040336906, 3.4272049257229 ], [ -76.538972172953109, 3.427236386159039 ], [ -76.539057246993465, 3.42727145741402 ], [ -76.539143615126633, 3.427307061290623 ], [ -76.5392084706491, 3.42733381573855 ], [ -76.53932436163025, 3.427382521055059 ], [ -76.539266032793705, 3.42752132526505 ], [ -76.539232924631719, 3.427597792126215 ], [ -76.53919981554894, 3.427673450508899 ], [ -76.539166291614578, 3.427749842315697 ], [ -76.539165789484414, 3.427750985407431 ], [ -76.539127938945484, 3.42783722190938 ], [ -76.539093421520818, 3.427915003698686 ], [ -76.539077220165325, 3.427951773449958 ], [ -76.539061192507262, 3.427989330875066 ], [ -76.539053755027908, 3.428005755587214 ], [ -76.539046054760433, 3.428021513808073 ], [ -76.538950082654452, 3.427890460055291 ], [ -76.538888581794936, 3.42780653786452 ], [ -76.53884511749834, 3.427747231376217 ], [ -76.538803499899544, 3.427691520494301 ], [ -76.538756977648248, 3.427629237887304 ], [ -76.53875684355765, 3.427629059735478 ], [ -76.538724619511356, 3.427585915337209 ], [ -76.538680823179263, 3.427527287100082 ], [ -76.538644485473185, 3.42747568451341 ], [ -76.538694403771956, 3.427335392866445 ], [ -76.538723566648613, 3.427253816594608 ], [ -76.538752627020756, 3.427177036022708 ], [ -76.538755618164501, 3.427168030578009 ], [ -76.538759461599497, 3.427162881209936 ], [ -76.538765444129822, 3.427157733609694 ], [ -76.538771425833175, 3.427156448432659 ] ] ] ] } },
{ "type": "Feature", "properties": { "COD_MZN": "7600110000000019330218", "CLASE": 1.0, "ZONA": "Urbana", "cod_dane_a": "7600110000000019330218", "ics": 28.4, "OBJECTID": 1, "OID_": 0, "Name": "Roosevelt", "FolderPath": "Roosevelt.kmz", "SymbolID": 0, "AltMode": 0, "Clamped": -1, "Shape_Leng": 1641.93268188, "BUFF_DIST": 100.0, "Shape_Area": 42.917556573799999 }, "geometry": { "type": "MultiPolygon", "coordinates": [ [ [ [ -76.538466917070423, 3.425924514799932 ], [ -76.538494766453582, 3.425912879077013 ], [ -76.538621044196773, 3.425970959547965 ], [ -76.538637018691432, 3.425978571050009 ], [ -76.538714992335215, 3.426015711594646 ], [ -76.538739206507373, 3.426027250473768 ], [ -76.538792972283503, 3.426052806915873 ], [ -76.538871547984911, 3.4260901554336 ], [ -76.538978183232572, 3.426140842374286 ], [ -76.538991269338723, 3.426165520573888 ], [ -76.538953501998904, 3.426270680321542 ], [ -76.538923939626031, 3.426353116634015 ], [ -76.538905362805451, 3.426404919223005 ], [ -76.538890396243204, 3.426446651949843 ], [ -76.538886141680237, 3.426458574810464 ], [ -76.538856860961502, 3.426540627676295 ], [ -76.538818998897185, 3.426635002296845 ], [ -76.538788034337088, 3.426712181720514 ], [ -76.538757965300007, 3.42679539395804 ], [ -76.538757342592305, 3.426797113114521 ], [ -76.538727300578046, 3.426881952252679 ], [ -76.53870276577004, 3.426952963068231 ], [ -76.538675461992327, 3.427027619318034 ], [ -76.538609956133698, 3.427207182093231 ], [ -76.538565162409014, 3.427324427515957 ], [ -76.53853559490075, 3.427328061699606 ], [ -76.538455953383348, 3.427229924548291 ], [ -76.538390188856823, 3.427148142969383 ], [ -76.538355798775342, 3.427106344251965 ], [ -76.538167979242289, 3.426843024702658 ], [ -76.538196117955806, 3.42675644838563 ], [ -76.538212779821592, 3.426705528478931 ], [ -76.538227744544116, 3.426659801306335 ], [ -76.538231987380072, 3.426645850925327 ], [ -76.538250109641936, 3.42658624212101 ], [ -76.538260777470313, 3.426551159073863 ], [ -76.538269187589847, 3.426525563467867 ], [ -76.538294579021169, 3.426448284687091 ], [ -76.53831499420771, 3.426386148216808 ], [ -76.538320600363988, 3.426369720830933 ], [ -76.538367000973722, 3.426233769176641 ], [ -76.538374127886811, 3.42621223406666 ], [ -76.538405731063264, 3.426116740010658 ], [ -76.538409509577747, 3.426104869612517 ], [ -76.538435799901137, 3.426022270596014 ], [ -76.538466917070423, 3.425924514799932 ] ] ] ] } },
{ "type": "Feature", "properties": { "COD_MZN": "7600110000000019330219", "CLASE": 1.0, "ZONA": "Urbana", "cod_dane_a": "7600110000000019330219", "ics": 55.630138, "OBJECTID": 1, "OID_": 0, "Name": "Roosevelt", "FolderPath": "Roosevelt.kmz", "SymbolID": 0, "AltMode": 0, "Clamped": -1, "Shape_Leng": 1641.93268188, "BUFF_DIST": 100.0, "Shape_Area": 42.917556573799999 }, "geometry": { "type": "MultiPolygon", "coordinates": [ [ [ [ -76.537866727188003, 3.425708719412058 ], [ -76.537890846937444, 3.42562495023697 ], [ -76.538053219586928, 3.4257044493497 ], [ -76.538076379942183, 3.425715788406622 ], [ -76.538125621803985, 3.42574030226916 ], [ -76.538186421351014, 3.425770571116415 ], [ -76.538292288939147, 3.425823272107169 ], [ -76.538367906604179, 3.425861409303577 ], [ -76.538345910324992, 3.425925695414132 ], [ -76.538329483302959, 3.425973697024 ], [ -76.538324618646172, 3.425988438712074 ], [ -76.538305654942036, 3.426045906968431 ], [ -76.538302967950031, 3.426053933009302 ], [ -76.538282138811326, 3.426116158112442 ], [ -76.538260428688588, 3.426180203661791 ], [ -76.538238868840494, 3.426243815126029 ], [ -76.538217623053768, 3.426307127248353 ], [ -76.538196570734954, 3.426369857877865 ], [ -76.538175364509115, 3.426431542191774 ], [ -76.538142774081962, 3.426526337205394 ], [ -76.538119917495635, 3.426592820864755 ], [ -76.538080480008247, 3.426709177204517 ], [ -76.537982288101745, 3.426579403026977 ], [ -76.537964835665278, 3.426556335517484 ], [ -76.537886297450243, 3.42645189325872 ], [ -76.537835437640851, 3.426384260625624 ], [ -76.537814213583061, 3.426356036651945 ], [ -76.537715061485386, 3.426223119891873 ], [ -76.537722060576783, 3.426198858212919 ], [ -76.537728828404539, 3.426175401397994 ], [ -76.537736264826194, 3.426149638511629 ], [ -76.537745167114977, 3.426118794129179 ], [ -76.537753686981674, 3.426090272090927 ], [ -76.537771313421658, 3.426031263783627 ], [ -76.537789162124781, 3.425971519341592 ], [ -76.537801468594935, 3.425930317525304 ], [ -76.537806971242915, 3.425912520977902 ], [ -76.537820227989272, 3.425869638885983 ], [ -76.537824906346856, 3.425853534367916 ], [ -76.537838917122642, 3.425805310343351 ], [ -76.537842566941009, 3.425792636898414 ], [ -76.537866727188003, 3.425708719412058 ] ] ] ] } },
{ "type": "Feature", "properties": { "COD_MZN": "7600110000000019370101", "CLASE": 1.0, "ZONA": "Urbana", "cod_dane_a": "7600110000000019370101", "ics": 44.4375, "OBJECTID": 1, "OID_": 0, "Name": "Roosevelt", "FolderPath": "Roosevelt.kmz", "SymbolID": 0, "AltMode": 0, "Clamped": -1, "Shape_Leng": 1641.93268188, "BUFF_DIST": 100.0, "Shape_Area": 42.917556573799999 }, "geometry": { "type": "MultiPolygon", "coordinates": [ [ [ [ -76.537161255632299, 3.427251637577947 ], [ -76.537261573875185, 3.426907376439667 ], [ -76.537298658885604, 3.426778932806738 ], [ -76.537446609667441, 3.42665314596695 ], [ -76.537552915861426, 3.426569268631799 ], [ -76.537600560130144, 3.426578099537102 ], [ -76.537652555388462, 3.426632447451706 ], [ -76.53772607638787, 3.426726371476107 ], [ -76.537776668004966, 3.426792404347222 ], [ -76.537964985682606, 3.427039611393295 ], [ -76.53796956222736, 3.427066344415389 ], [ -76.537958303385224, 3.42711504135872 ], [ -76.537964131254526, 3.427116544260482 ], [ -76.537947923840733, 3.427168329604707 ], [ -76.537854351661224, 3.427467334050241 ], [ -76.53747650719977, 3.427354010220341 ], [ -76.537161255632299, 3.427251637577947 ] ] ] ] } },
{ "type": "Feature", "properties": { "COD_MZN": "7600110000000019370102", "CLASE": 1.0, "ZONA": "Urbana", "cod_dane_a": "7600110000000019370102", "ics": 40.904762, "OBJECTID": 1, "OID_": 0, "Name": "Roosevelt", "FolderPath": "Roosevelt.kmz", "SymbolID": 0, "AltMode": 0, "Clamped": -1, "Shape_Leng": 1641.93268188, "BUFF_DIST": 100.0, "Shape_Area": 42.917556573799999 }, "geometry": { "type": "MultiPolygon", "coordinates": [ [ [ [ -76.537132177390049, 3.427343384879273 ], [ -76.53713394302136, 3.427343378518248 ], [ -76.537135705954583, 3.427343468921311 ], [ -76.537137460790248, 3.427343656088571 ], [ -76.537139203028815, 3.427343940924445 ], [ -76.537140929070517, 3.427344318907299 ], [ -76.537142629916261, 3.427344791845963 ], [ -76.537321147729472, 3.427399836622175 ], [ -76.537413754810458, 3.427429425800696 ], [ -76.537505633854636, 3.427458340347727 ], [ -76.537598553199203, 3.427486921166943 ], [ -76.537691439254559, 3.427515620445788 ], [ -76.537795359219501, 3.427547414157349 ], [ -76.53779702047116, 3.427547968485896 ], [ -76.537798650227501, 3.4275486177704 ], [ -76.537800236789536, 3.427549353872018 ], [ -76.537801787356557, 3.427550177694973 ], [ -76.537803289329645, 3.427551081100458 ], [ -76.537804741808912, 3.427552066801512 ], [ -76.537806134895291, 3.427553132085273 ], [ -76.537807470388401, 3.42755426881271 ], [ -76.53780874378873, 3.427555476079549 ], [ -76.537809949696722, 3.427556752981537 ], [ -76.537811080912959, 3.427558093188474 ], [ -76.537812141936996, 3.427559494891606 ], [ -76.537813123769482, 3.427560947239021 ], [ -76.537814028210349, 3.427562455656734 ], [ -76.537814848960068, 3.427564012910158 ], [ -76.537815581518885, 3.427565609051668 ], [ -76.537816230386369, 3.427567243176847 ], [ -76.537816787463186, 3.427568910764149 ], [ -76.53781725274925, 3.42757060638756 ], [ -76.537817628944197, 3.427572324621019 ], [ -76.537817909748554, 3.427574060038594 ], [ -76.537818096962098, 3.427575810831581 ], [ -76.537818188784826, 3.427577567052325 ], [ -76.53781818521675, 3.427579329605159 ], [ -76.537818088057392, 3.427581081307644 ], [ -76.537817894607201, 3.427582833011854 ], [ -76.537817608465545, 3.427584568439688 ], [ -76.537817227832591, 3.42758628668684 ], [ -76.537816755407889, 3.427587978709858 ], [ -76.537768997922498, 3.427742810201746 ], [ -76.537747688281485, 3.427811902835003 ], [ -76.53767689975156, 3.42804512356919 ], [ -76.537676540704808, 3.428046206066981 ], [ -76.537676122263278, 3.428047264148748 ], [ -76.537675644426884, 3.428048296005803 ], [ -76.537675117094722, 3.428049301637968 ], [ -76.537674533967262, 3.428050274715007 ], [ -76.537673895944494, 3.428051217949929 ], [ -76.537673211125437, 3.428052121394847 ], [ -76.537672478610247, 3.428052988667135 ], [ -76.537671696599006, 3.428053814340814 ], [ -76.537670873190876, 3.42805459389406 ], [ -76.537670010185693, 3.428055329135495 ], [ -76.537669107583369, 3.428056013734773 ], [ -76.537668168083712, 3.428056651309185 ], [ -76.537667196186121, 3.428057232815295 ], [ -76.537666193690512, 3.428057762774751 ], [ -76.537665164196426, 3.428058233952768 ], [ -76.537664109503737, 3.42805864996669 ], [ -76.537663034112015, 3.428059009912085 ], [ -76.537661939820921, 3.428059304745566 ], [ -76.537660833829975, 3.428059545319028 ], [ -76.537659716138961, 3.42805971987611 ], [ -76.537658588547842, 3.428059835651466 ], [ -76.537657457355976, 3.428059889931957 ], [ -76.537656326162988, 3.428059880908866 ], [ -76.537655195868865, 3.428059813103853 ], [ -76.537654070973034, 3.428059678377819 ], [ -76.537652955975204, 3.428059483061015 ], [ -76.537651851775294, 3.428059228057776 ], [ -76.5376507628729, 3.42805891517671 ], [ -76.537551577310509, 3.42802722626872 ], [ -76.537463103508685, 3.427999502678174 ], [ -76.537374013278466, 3.427972242110763 ], [ -76.537285081403468, 3.427942980234508 ], [ -76.537164800864545, 3.427905372770333 ], [ -76.537079208608688, 3.427877492643513 ], [ -76.536990634022388, 3.427848525547304 ], [ -76.536989004267213, 3.427847943182381 ], [ -76.536987406007555, 3.427847274000543 ], [ -76.536985848242537, 3.427846516192996 ], [ -76.536984330972373, 3.42784568061175 ], [ -76.536982862296142, 3.427844760926352 ], [ -76.536981445813666, 3.427843764371388 ], [ -76.536980080625042, 3.427842693659916 ], [ -76.536978775729494, 3.42784155240912 ], [ -76.536977535626576, 3.427840339714591 ], [ -76.536976359416514, 3.427839061906691 ], [ -76.536975256098444, 3.427837722602624 ], [ -76.536974224772607, 3.427836327228417 ], [ -76.536973269938557, 3.427834876688348 ], [ -76.536972391596407, 3.427833376408428 ], [ -76.536971597845522, 3.427831834527536 ], [ -76.536970886885953, 3.42783024561971 ], [ -76.536970262317666, 3.427828625962924 ], [ -76.536969722340828, 3.427826974652908 ], [ -76.536969274154728, 3.427825292593841 ], [ -76.536968914159957, 3.42782359244653 ], [ -76.536968647755984, 3.427821874210865 ], [ -76.536968471343272, 3.427820145121594 ], [ -76.536968389421432, 3.427818406987343 ], [ -76.536968400190801, 3.427816668851496 ], [ -76.536968501851575, 3.427814933427093 ], [ -76.536968698003477, 3.427813204331411 ], [ -76.536968985046997, 3.427811489703566 ], [ -76.536969365681955, 3.427809794065189 ], [ -76.536969834508866, 3.427808119225043 ], [ -76.537005682424095, 3.427692209737356 ], [ -76.537037708588826, 3.427587645221515 ], [ -76.537068782648589, 3.427483731843513 ], [ -76.537102201654506, 3.427366813153486 ], [ -76.537102737974251, 3.427365122034035 ], [ -76.537103361586219, 3.42736346166051 ], [ -76.537104076990062, 3.427361839267549 ], [ -76.537104876986561, 3.427360260281305 ], [ -76.537105764275509, 3.42735872560605 ], [ -76.537106732557604, 3.427357243380946 ], [ -76.537107780932985, 3.427355815414663 ], [ -76.5371089058021, 3.427354448037628 ], [ -76.537110102665437, 3.427353143962941 ], [ -76.537111368823346, 3.427351909520981 ], [ -76.53711270157612, 3.427350746520499 ], [ -76.537114095524288, 3.427349655865906 ], [ -76.537115547968227, 3.427348643887614 ], [ -76.537117049908858, 3.427347715107457 ], [ -76.53711860134618, 3.427346868621116 ], [ -76.537120196880835, 3.427346111663351 ], [ -76.537121831113282, 3.427345441521282 ], [ -76.537123501343871, 3.427344863620953 ], [ -76.537125198573463, 3.427344377058183 ], [ -76.537126920102367, 3.427343986354698 ], [ -76.537128660531053, 3.427343687893265 ], [ -76.53713041625997, 3.427343488004296 ], [ -76.537132177390049, 3.427343384879273 ] ] ] ] } },
{ "type": "Feature", "properties": { "COD_MZN": "7600110000000019370103", "CLASE": 1.0, "ZONA": "Urbana", "cod_dane_a": "7600110000000019370103", "ics": 38.256756, "OBJECTID": 1, "OID_": 0, "Name": "Roosevelt", "FolderPath": "Roosevelt.kmz", "SymbolID": 0, "AltMode": 0, "Clamped": -1, "Shape_Leng": 1641.93268188, "BUFF_DIST": 100.0, "Shape_Area": 42.917556573799999 }, "geometry": { "type": "MultiPolygon", "coordinates": [ [ [ [ -76.538031250562156, 3.427322305922531 ], [ -76.538075990828474, 3.427181496216797 ], [ -76.538126028121312, 3.427246147251772 ], [ -76.538187616990768, 3.427325730482785 ], [ -76.538248933189877, 3.427404956501587 ], [ -76.538291190562788, 3.427459556870575 ], [ -76.53833151397879, 3.427511663112272 ], [ -76.538371838299042, 3.427563766639161 ], [ -76.53846108327663, 3.427686369548914 ], [ -76.538519784396215, 3.427767010885908 ], [ -76.538578218244197, 3.427847286871997 ], [ -76.538615936433843, 3.427899102858133 ], [ -76.538654183791081, 3.427951648632581 ], [ -76.538692963915736, 3.428004924195222 ], [ -76.538730679417952, 3.428056737463612 ], [ -76.538881850261518, 3.428270466472508 ], [ -76.538612037659519, 3.428312806344445 ], [ -76.538534252836826, 3.428325027214781 ], [ -76.538470782490052, 3.428311982444076 ], [ -76.538410166541354, 3.428291713772087 ], [ -76.538348446392675, 3.42827107162565 ], [ -76.538243560681508, 3.428237027098553 ], [ -76.538139954664473, 3.428203409383293 ], [ -76.538036350454448, 3.428169792561033 ], [ -76.537930602641936, 3.428135478522692 ], [ -76.537809360893093, 3.42809496552306 ], [ -76.537808362882529, 3.428094681579297 ], [ -76.53780737836982, 3.428094348801093 ], [ -76.53780640915474, 3.428093965379759 ], [ -76.537805466036303, 3.428093533123739 ], [ -76.537804542715136, 3.428093052033177 ], [ -76.537803644590809, 3.428092527533976 ], [ -76.537802772563168, 3.42809195691311 ], [ -76.537801932931671, 3.428091341979155 ], [ -76.537801122996669, 3.428090688158171 ], [ -76.537800349957394, 3.42808999092835 ], [ -76.537799610214364, 3.428089259333114 ], [ -76.537798910066869, 3.428088488850672 ], [ -76.53779824861509, 3.42808768219406 ], [ -76.537797626758987, 3.428086844789278 ], [ -76.537797048998172, 3.428085976636227 ], [ -76.537796517132492, 3.428085079543579 ], [ -76.537796028462296, 3.428084158937376 ], [ -76.53779558838707, 3.42808321481754 ], [ -76.537795196006911, 3.428082246279736 ], [ -76.537794853121781, 3.428081262367318 ], [ -76.537794559731566, 3.428080257654239 ], [ -76.537794315836535, 3.428079243896912 ], [ -76.53779412413634, 3.428078218382264 ], [ -76.537793983731191, 3.428077187440659 ], [ -76.537793897320682, 3.428076142933013 ], [ -76.537793859505626, 3.428075101137513 ], [ -76.537793874785464, 3.428074055723711 ], [ -76.537793944960171, 3.428073013926259 ], [ -76.537794067329997, 3.428071975745205 ], [ -76.537840475071576, 3.427923612095538 ], [ -76.537857472582758, 3.427869271083251 ], [ -76.537880461398899, 3.427796915569356 ], [ -76.537910838090141, 3.427701305799531 ], [ -76.537940943016793, 3.427606556057997 ], [ -76.537971047037672, 3.427511806315373 ], [ -76.538001149252807, 3.427417055667338 ], [ -76.538029192576289, 3.427328788247695 ], [ -76.538031250562156, 3.427322305922531 ] ] ] ] } },
{ "type": "Feature", "properties": { "COD_MZN": "7600110000000019370104", "CLASE": 1.0, "ZONA": "Urbana", "cod_dane_a": "7600110000000019370104", "ics": 30.021738, "OBJECTID": 1, "OID_": 0, "Name": "Roosevelt", "FolderPath": "Roosevelt.kmz", "SymbolID": 0, "AltMode": 0, "Clamped": -1, "Shape_Leng": 1641.93268188, "BUFF_DIST": 100.0, "Shape_Area": 42.917556573799999 }, "geometry": { "type": "MultiPolygon", "coordinates": [ [ [ [ -76.538788620974614, 3.428418393368174 ], [ -76.538873805754918, 3.428403641095862 ], [ -76.538923298448395, 3.428359858479014 ], [ -76.538970887962762, 3.428323690413515 ], [ -76.539007054500175, 3.428316077006054 ], [ -76.539016573265727, 3.428335112210445 ], [ -76.53899944109412, 3.42854450452876 ], [ -76.538957563718682, 3.429260247334368 ], [ -76.538908221042178, 3.429245034625023 ], [ -76.538331194478019, 3.42907042713589 ], [ -76.538461206541555, 3.428604942580716 ], [ -76.538508796453144, 3.428540221907655 ], [ -76.538527831897369, 3.428515476177062 ], [ -76.538568863789749, 3.42848128332708 ], [ -76.538619203355609, 3.428439332896691 ], [ -76.538680117206852, 3.428412682739686 ], [ -76.538720092334117, 3.428412682883542 ], [ -76.538788620974614, 3.428418393368174 ] ] ] ] } },
{ "type": "Feature", "properties": { "COD_MZN": "7600110000000019370110", "CLASE": 1.0, "ZONA": "Urbana", "cod_dane_a": "7600110000000019370110", "ics": 41.666668, "OBJECTID": 1, "OID_": 0, "Name": "Roosevelt", "FolderPath": "Roosevelt.kmz", "SymbolID": 0, "AltMode": 0, "Clamped": -1, "Shape_Leng": 1641.93268188, "BUFF_DIST": 100.0, "Shape_Area": 42.917556573799999 }, "geometry": { "type": "MultiPolygon", "coordinates": [ [ [ [ -76.538292916931766, 3.429236945218698 ], [ -76.538318068382637, 3.429220846648625 ], [ -76.538415356130699, 3.429250389519298 ], [ -76.538504071237455, 3.429277328051016 ], [ -76.53861889484763, 3.429311641852284 ], [ -76.538730743314815, 3.429344418323554 ], [ -76.538799848243471, 3.429364670533885 ], [ -76.538903505641784, 3.429395044318239 ], [ -76.538896583645794, 3.429545060383784 ], [ -76.538887836472909, 3.429734740701656 ], [ -76.538877837128652, 3.42995151407273 ], [ -76.538877739050008, 3.429952157962508 ], [ -76.538877619373309, 3.429952798235341 ], [ -76.53887747629868, 3.429953434891282 ], [ -76.538877312525898, 3.42995406612161 ], [ -76.538877125355128, 3.429954689213351 ], [ -76.538876916586261, 3.429955307783814 ], [ -76.538876688918975, 3.42995591640695 ], [ -76.538876435153938, 3.429956516891536 ], [ -76.538876164290357, 3.429957110141767 ], [ -76.538875872728497, 3.429957692540354 ], [ -76.53887555956841, 3.429958263182963 ], [ -76.538875226609932, 3.429958822069591 ], [ -76.538874874753034, 3.429959371913196 ], [ -76.538874503997533, 3.429959902766103 ], [ -76.538874112543795, 3.429960425480355 ], [ -76.538873704891259, 3.429960931916865 ], [ -76.538873281939871, 3.429961424788622 ], [ -76.538872839190006, 3.429961901382687 ], [ -76.53887237934147, 3.429962363507697 ], [ -76.538871905093899, 3.429962806641892 ], [ -76.538871415547433, 3.429963233498324 ], [ -76.538870911601975, 3.429963643172645 ], [ -76.538870394157428, 3.429964034760466 ], [ -76.538869860514012, 3.429964407357538 ], [ -76.53886931517134, 3.429964761868093 ], [ -76.538868758129411, 3.429965097387779 ], [ -76.538868189388126, 3.429965410299288 ], [ -76.538867610747403, 3.429965705124244 ], [ -76.538867022207157, 3.429965975532285 ], [ -76.538707870072798, 3.429960779542933 ], [ -76.53845357114389, 3.429884409480063 ], [ -76.538338932852156, 3.4298500034138 ], [ -76.538250226702985, 3.429823432932247 ], [ -76.538142453070279, 3.429793552016803 ], [ -76.53813737093013, 3.429776441151453 ], [ -76.538160929213333, 3.42969294690503 ], [ -76.538175223456321, 3.429642293824956 ], [ -76.538194237451449, 3.429574900476307 ], [ -76.538213263142239, 3.429507473666501 ], [ -76.538231431266126, 3.429443081826898 ], [ -76.538249351026977, 3.429379570815664 ], [ -76.538292916931766, 3.429236945218698 ] ] ] ] } },
{ "type": "Feature", "properties": { "COD_MZN": "7600110000000019370111", "CLASE": 1.0, "ZONA": "Urbana", "cod_dane_a": "7600110000000019370111", "ics": 35.242424, "OBJECTID": 1, "OID_": 0, "Name": "Roosevelt", "FolderPath": "Roosevelt.kmz", "SymbolID": 0, "AltMode": 0, "Clamped": -1, "Shape_Leng": 1641.93268188, "BUFF_DIST": 100.0, "Shape_Area": 42.917556573799999 }, "geometry": { "type": "MultiPolygon", "coordinates": [ [ [ [ -76.538075109974443, 3.429960889049324 ], [ -76.538094905971093, 3.429891350601456 ], [ -76.53819733412891, 3.429922295121322 ], [ -76.538268169648646, 3.429943694941324 ], [ -76.538334761141527, 3.429963813389768 ], [ -76.538420295086553, 3.429989653218501 ], [ -76.538506502177498, 3.430015695598308 ], [ -76.538541835801141, 3.430026370629754 ], [ -76.538627332860386, 3.430052198684131 ], [ -76.538706194801136, 3.430076021942195 ], [ -76.538724153986323, 3.430099816513216 ], [ -76.538720761265566, 3.430193345815402 ], [ -76.53871711489893, 3.430293833090496 ], [ -76.538694467157697, 3.430318540006363 ], [ -76.538584154360521, 3.430313747304698 ], [ -76.538493808935328, 3.430309816952162 ], [ -76.53843701873717, 3.430307348275006 ], [ -76.53837728760864, 3.430304747616248 ], [ -76.538286569619274, 3.430300807303313 ], [ -76.538214595113175, 3.430297672398898 ], [ -76.538142297537277, 3.430294532068974 ], [ -76.538007186617577, 3.430288656362027 ], [ -76.537991606634066, 3.430254236679473 ], [ -76.53801461244116, 3.43017342109347 ], [ -76.53803578523106, 3.430099040801978 ], [ -76.538054288135697, 3.430034040341545 ], [ -76.538064623917194, 3.429997726502409 ], [ -76.538075109974443, 3.429960889049324 ] ] ] ] } },
{ "type": "Feature", "properties": { "COD_MZN": "7600110000000019370201", "CLASE": 1.0, "ZONA": "Urbana", "cod_dane_a": "7600110000000019370201", "ics": 61.918919, "OBJECTID": 1, "OID_": 0, "Name": "Roosevelt", "FolderPath": "Roosevelt.kmz", "SymbolID": 0, "AltMode": 0, "Clamped": -1, "Shape_Leng": 1641.93268188, "BUFF_DIST": 100.0, "Shape_Area": 42.917556573799999 }, "geometry": { "type": "MultiPolygon", "coordinates": [ [ [ [ -76.537607477175769, 3.43198262318141 ], [ -76.537614580173624, 3.431827060830337 ], [ -76.537701962283393, 3.431829650187148 ], [ -76.53774233533801, 3.431830844993156 ], [ -76.537772907385303, 3.431832179242497 ], [ -76.537834172069196, 3.431834845927361 ], [ -76.537836995115043, 3.431834969770312 ], [ -76.537902773793988, 3.431837895913568 ], [ -76.53791783843802, 3.43183856665717 ], [ -76.537965933706346, 3.431840556225099 ], [ -76.537987066503121, 3.431841433045507 ], [ -76.53802719209321, 3.431843300670632 ], [ -76.538119458993052, 3.431847600904939 ], [ -76.538123380839721, 3.431847754569902 ], [ -76.538219256403394, 3.431851548299336 ], [ -76.538306615134886, 3.431855005764493 ], [ -76.538309196102531, 3.431855113332501 ], [ -76.538379366384802, 3.43185800680485 ], [ -76.538439037312713, 3.431860469100473 ], [ -76.538440739959327, 3.431860534180762 ], [ -76.538504523513794, 3.431862977404 ], [ -76.53851562311398, 3.431863402233187 ], [ -76.538594444321419, 3.431866798337898 ], [ -76.538629981223878, 3.431868329611154 ], [ -76.538673905367318, 3.431869983713443 ], [ -76.538798386655102, 3.431874666707665 ], [ -76.538792120749193, 3.432028992821889 ], [ -76.538786849687483, 3.432158838517081 ], [ -76.538783234765972, 3.432256551282136 ], [ -76.538779676509165, 3.43235270768214 ], [ -76.538775352811811, 3.432469511011833 ], [ -76.538560723796508, 3.43246061641757 ], [ -76.538538216808476, 3.432459681758354 ], [ -76.53848936287676, 3.432457702181503 ], [ -76.53841720282928, 3.432454777103028 ], [ -76.538381563316335, 3.432453335353251 ], [ -76.53834081135922, 3.432451605214117 ], [ -76.5382525202522, 3.432447860190614 ], [ -76.538164350634943, 3.432444117869697 ], [ -76.53815587159302, 3.432443757195956 ], [ -76.538075063318999, 3.432440369230805 ], [ -76.537999198303467, 3.432437190070097 ], [ -76.537976964888927, 3.432436097133644 ], [ -76.537877902635984, 3.432431235416243 ], [ -76.537828470961102, 3.432429372475439 ], [ -76.537813681685108, 3.432428817480617 ], [ -76.537778924993844, 3.432427350370845 ], [ -76.537688972639955, 3.432423555586571 ], [ -76.537683644216614, 3.432423331406846 ], [ -76.537600875927026, 3.432420193937971 ], [ -76.537589576538636, 3.432419760962696 ], [ -76.537598357508415, 3.432191820884601 ], [ -76.537599862380787, 3.432152788773196 ], [ -76.537600372432664, 3.432141387788894 ], [ -76.537604280132172, 3.432054097504916 ], [ -76.537607138941027, 3.431990216904357 ], [ -76.537607477175769, 3.43198262318141 ] ] ] ] } },
{ "type": "Feature", "properties": { "COD_MZN": "7600110000000019370206", "CLASE": 1.0, "ZONA": "Urbana", "cod_dane_a": "7600110000000019370206", "ics": 45.071426, "OBJECTID": 1, "OID_": 0, "Name": "Roosevelt", "FolderPath": "Roosevelt.kmz", "SymbolID": 0, "AltMode": 0, "Clamped": -1, "Shape_Leng": 1641.93268188, "BUFF_DIST": 100.0, "Shape_Area": 42.917556573799999 }, "geometry": { "type": "MultiPolygon", "coordinates": [ [ [ [ -76.537583356465262, 3.432632489143217 ], [ -76.537586096894259, 3.432540736882877 ], [ -76.537664697687376, 3.432544874624408 ], [ -76.537700741274492, 3.432546772179515 ], [ -76.537788967610666, 3.432551417974843 ], [ -76.537870152975131, 3.432555693111856 ], [ -76.53795168030679, 3.432559819020133 ], [ -76.538037032298163, 3.432564136570645 ], [ -76.538121328684326, 3.432568400777098 ], [ -76.538211488948676, 3.432572965107279 ], [ -76.53830741590545, 3.43257811985345 ], [ -76.538361972647039, 3.432581047982396 ], [ -76.538415473782948, 3.432583920963464 ], [ -76.538529416237793, 3.432590041181113 ], [ -76.538768868734522, 3.432603560086752 ], [ -76.538760055773238, 3.432790889116977 ], [ -76.538753596951096, 3.432928186568474 ], [ -76.538750386429868, 3.432996422463913 ], [ -76.538747250572541, 3.433063125506841 ], [ -76.538738643602869, 3.433246115522897 ], [ -76.538629770331184, 3.433240800094411 ], [ -76.538520542491938, 3.43323546566908 ], [ -76.538373689882334, 3.433228295227634 ], [ -76.538283804034478, 3.43322390363644 ], [ -76.538211679015973, 3.433220383488423 ], [ -76.53821131364829, 3.433220365408455 ], [ -76.538141415928933, 3.43321672131968 ], [ -76.538015766340692, 3.433210171710712 ], [ -76.537837159138476, 3.433200859394021 ], [ -76.537747792544195, 3.433196200963395 ], [ -76.537655454413652, 3.433191387936116 ], [ -76.537583084617097, 3.43318761724354 ], [ -76.537552202949726, 3.433186007171133 ], [ -76.53756738425524, 3.432963411613609 ], [ -76.537572695152676, 3.432888436565753 ], [ -76.537577910680369, 3.432814731208432 ], [ -76.537580665502261, 3.432722597318041 ], [ -76.537583356465262, 3.432632489143217 ] ] ] ] } },
{ "type": "Feature", "properties": { "COD_MZN": "7600110000000019370207", "CLASE": 1.0, "ZONA": "Urbana", "cod_dane_a": "7600110000000019370207", "ics": 48.766666, "OBJECTID": 1, "OID_": 0, "Name": "Roosevelt", "FolderPath": "Roosevelt.kmz", "SymbolID": 0, "AltMode": 0, "Clamped": -1, "Shape_Leng": 1641.93268188, "BUFF_DIST": 100.0, "Shape_Area": 42.917556573799999 }, "geometry": { "type": "MultiPolygon", "coordinates": [ [ [ [ -76.538212073391477, 3.43342794868701 ], [ -76.538215713840799, 3.433344843679091 ], [ -76.538446736012446, 3.433355062895629 ], [ -76.53852493999824, 3.433358522320531 ], [ -76.538734384783282, 3.433367785990018 ], [ -76.538727260491385, 3.433530383180384 ], [ -76.538722514561968, 3.433638786130018 ], [ -76.538717291878484, 3.43375802123533 ], [ -76.538713334835748, 3.433848355519062 ], [ -76.538710960069821, 3.433902554280536 ], [ -76.538708586203526, 3.433956753041944 ], [ -76.538704629159255, 3.434047086420937 ], [ -76.538692837181088, 3.434316275168603 ], [ -76.538405186327026, 3.434303552967764 ], [ -76.538353948406865, 3.434301284945783 ], [ -76.538293722072908, 3.434298620988977 ], [ -76.538174165727568, 3.434293331933828 ], [ -76.538180772879031, 3.434142477573259 ], [ -76.538187381828351, 3.433991622307808 ], [ -76.538190548222488, 3.433919354882579 ], [ -76.538193714616213, 3.433847090170238 ], [ -76.538197710387806, 3.433755855168179 ], [ -76.538202498656688, 3.433646554213822 ], [ -76.538206139107515, 3.433563446493307 ], [ -76.538209777757999, 3.433480343294363 ], [ -76.538212073391477, 3.43342794868701 ] ] ] ] } },
{ "type": "Feature", "properties": { "COD_MZN": "7600110000000019370208", "CLASE": 1.0, "ZONA": "Urbana", "cod_dane_a": "7600110000000019370208", "ics": 44.717949, "OBJECTID": 1, "OID_": 0, "Name": "Roosevelt", "FolderPath": "Roosevelt.kmz", "SymbolID": 0, "AltMode": 0, "Clamped": -1, "Shape_Leng": 1641.93268188, "BUFF_DIST": 100.0, "Shape_Area": 42.917556573799999 }, "geometry": { "type": "MultiPolygon", "coordinates": [ [ [ [ -76.537860987758393, 3.434281643697474 ], [ -76.537771116211729, 3.434277189658962 ], [ -76.537771029851712, 3.434278996525544 ], [ -76.53769014582025, 3.434274989963583 ], [ -76.537608365467776, 3.434270940002619 ], [ -76.537496029186997, 3.434265380336202 ], [ -76.537504887520939, 3.434084758787777 ], [ -76.53750856327413, 3.434009800953492 ], [ -76.53751210588635, 3.433937552514667 ], [ -76.537515871598657, 3.433860789622142 ], [ -76.537519637310325, 3.433784023112156 ], [ -76.537523622522286, 3.433702743957174 ], [ -76.537530439662575, 3.433563730077567 ], [ -76.537531506583932, 3.433541995226366 ], [ -76.537536202475465, 3.433446262946468 ], [ -76.537541692708231, 3.4333342824317 ], [ -76.537541767384241, 3.433333302129219 ], [ -76.537541895155712, 3.433332331773479 ], [ -76.537542073322825, 3.43333137046021 ], [ -76.537542302785567, 3.433330420902402 ], [ -76.53754258624366, 3.433329480387001 ], [ -76.537542917397829, 3.433328559766161 ], [ -76.537543297148005, 3.433327658135529 ], [ -76.537543726394162, 3.433326779112448 ], [ -76.537544202436592, 3.433325924505621 ], [ -76.537544722575504, 3.433325095219428 ], [ -76.537545286811081, 3.433324299392924 ], [ -76.537545893343363, 3.433323530695759 ], [ -76.537546540372674, 3.433322799075686 ], [ -76.537547226999095, 3.433322103628388 ], [ -76.537547946923212, 3.433321446162647 ], [ -76.537548707344385, 3.433320826678316 ], [ -76.537549494763937, 3.43332025150602 ], [ -76.537550314581381, 3.433319721549994 ], [ -76.537551159597356, 3.433319235906017 ], [ -76.537552030711794, 3.43331879457409 ], [ -76.537552925225057, 3.43331840569326 ], [ -76.5375538359377, 3.433318062933343 ], [ -76.537554767349377, 3.433317769911567 ], [ -76.537555712260783, 3.433317530245435 ], [ -76.537556668872028, 3.433317340317621 ], [ -76.537557631783642, 3.433317203745561 ], [ -76.537558603695345, 3.433317116911867 ], [ -76.537559578307807, 3.433317087051352 ], [ -76.537560552921164, 3.433317107833698 ], [ -76.537645928374545, 3.433321337697789 ], [ -76.537733101869676, 3.433325654338137 ], [ -76.537819375445153, 3.433329930291636 ], [ -76.537901155718259, 3.43333397571326 ], [ -76.537981139750826, 3.433337937961733 ], [ -76.538078198875453, 3.433342744540122 ], [ -76.538079168990194, 3.433342816869218 ], [ -76.538080136406222, 3.433342947075925 ], [ -76.538081094823951, 3.433343126116987 ], [ -76.538082041543689, 3.433343358514151 ], [ -76.538082975665503, 3.433343642458725 ], [ -76.538083890889851, 3.43334397433352 ], [ -76.53808478721686, 3.433344358660196 ], [ -76.538085662846626, 3.433344791821426 ], [ -76.538086513279382, 3.43334526658263 ], [ -76.538087336715421, 3.433345789274186 ], [ -76.538088132254799, 3.433346358991759 ], [ -76.538088894497847, 3.433346965787777 ], [ -76.538089624344607, 3.433347619609878 ], [ -76.538090314595536, 3.433348305988864 ], [ -76.538090970650202, 3.43334903125495 ], [ -76.538091583509441, 3.43334979450398 ], [ -76.538092158572525, 3.433350584883816 ], [ -76.538092686840386, 3.43335140782062 ], [ -76.538093169212843, 3.433352257888395 ], [ -76.538093607489714, 3.433353134182757 ], [ -76.538093996271371, 3.43335403127776 ], [ -76.538094336457746, 3.433354948269086 ], [ -76.538094627148851, 3.433355883348046 ], [ -76.538094868344643, 3.433356832897316 ], [ -76.538095057345302, 3.433357793299571 ], [ -76.538095192350923, 3.433358761841873 ], [ -76.538095276061284, 3.433359740332825 ], [ -76.538095306676354, 3.433360716111731 ], [ -76.538095286896009, 3.433361696413259 ], [ -76.538085099991179, 3.433569410117458 ], [ -76.538080668631423, 3.433659718182196 ], [ -76.538075443837627, 3.433766288046694 ], [ -76.538071768129441, 3.433841243170317 ], [ -76.538068090620897, 3.433916200102514 ], [ -76.538064415811576, 3.433991157034531 ], [ -76.53806073920191, 3.434066116679477 ], [ -76.538057196630476, 3.434138363311273 ], [ -76.538050596362581, 3.434272925138327 ], [ -76.538050523486774, 3.43427390182347 ], [ -76.538050395715729, 3.434274873083576 ], [ -76.538050216649054, 3.434275835301289 ], [ -76.538049987186639, 3.434276787572204 ], [ -76.538049705528564, 3.434277726279016 ], [ -76.538049373474635, 3.434278646900029 ], [ -76.538048993724544, 3.434279546722174 ], [ -76.538048564478501, 3.434280430267159 ], [ -76.538048090235847, 3.434281281256848 ], [ -76.538047568297031, 3.43428211144765 ], [ -76.538047002261493, 3.434282909083157 ], [ -76.538046397528817, 3.434283675067571 ], [ -76.538045749599334, 3.434284407592322 ], [ -76.538045062972586, 3.434285102135632 ], [ -76.538044339448405, 3.434285759601804 ], [ -76.538043585326221, 3.434286378182069 ], [ -76.538042794306463, 3.434286951546162 ], [ -76.538041978088231, 3.434287486024213 ], [ -76.538041130371866, 3.434287969859998 ], [ -76.53804025835683, 3.434288410288065 ], [ -76.538039367442636, 3.434288803690942 ], [ -76.538038454029461, 3.434289144642716 ], [ -76.538037523516934, 3.434289438569265 ], [ -76.538036579504606, 3.434289677331524 ], [ -76.538035621992563, 3.434289867259854 ], [ -76.538034656380248, 3.434290002928096 ], [ -76.538033685367523, 3.434290088857927 ], [ -76.538032712553971, 3.43429012052757 ], [ -76.538031738839493, 3.434290097937025 ], [ -76.537932882476397, 3.434285200953601 ], [ -76.537860987758393, 3.434281643697474 ] ] ] ] } },
{ "type": "Feature", "properties": { "COD_MZN": "7600110000000019370215", "CLASE": 1.0, "ZONA": "Urbana", "cod_dane_a": "7600110000000019370215", "ics": 51.307693, "OBJECTID": 1, "OID_": 0, "Name": "Roosevelt", "FolderPath": "Roosevelt.kmz", "SymbolID": 0, "AltMode": 0, "Clamped": -1, "Shape_Leng": 1641.93268188, "BUFF_DIST": 100.0, "Shape_Area": 42.917556573799999 }, "geometry": { "type": "MultiPolygon", "coordinates": [ [ [ [ -76.537458315849406, 3.434500457944123 ], [ -76.537465764051163, 3.434372961690122 ], [ -76.537591250883537, 3.434378446064892 ], [ -76.537660277551126, 3.434381460790768 ], [ -76.537700747014554, 3.434383227137101 ], [ -76.537746096751704, 3.434385208625788 ], [ -76.537826454330173, 3.434388720520229 ], [ -76.537849447321165, 3.434389723916797 ], [ -76.537944887582654, 3.434393895693055 ], [ -76.538049399949074, 3.434398278907948 ], [ -76.538290977540427, 3.434408411150423 ], [ -76.538366659128457, 3.434411583960008 ], [ -76.538441000734082, 3.434414704337212 ], [ -76.538703826377485, 3.4344257277516 ], [ -76.538696422870927, 3.434576287315863 ], [ -76.538691829637244, 3.434669699068357 ], [ -76.53868870451025, 3.434733231503649 ], [ -76.5386872166128, 3.434763553041746 ], [ -76.538680727969236, 3.434895448883861 ], [ -76.538676105946834, 3.434989478298286 ], [ -76.538666800725409, 3.435178630470894 ], [ -76.538525987198597, 3.4351719021606 ], [ -76.538455372103854, 3.435168525793018 ], [ -76.538386165387834, 3.435165219027732 ], [ -76.538293320416415, 3.435160782277147 ], [ -76.538226743274052, 3.435157601154082 ], [ -76.538142290078156, 3.435153563949791 ], [ -76.538072734194373, 3.435150239985759 ], [ -76.538001735730816, 3.435146569682074 ], [ -76.537934321657914, 3.435143084696694 ], [ -76.537867693217564, 3.435139639483086 ], [ -76.537797879053173, 3.43513603515922 ], [ -76.537705532637389, 3.435131259215897 ], [ -76.537600427125838, 3.435125826039274 ], [ -76.537531961946627, 3.435122287688325 ], [ -76.537422310030152, 3.435116616732497 ], [ -76.537437142575797, 3.434862770023782 ], [ -76.537443309681521, 3.434757253700552 ], [ -76.537447777345434, 3.434680768428549 ], [ -76.537452998916152, 3.434591413525391 ], [ -76.537458315849406, 3.434500457944123 ] ] ] ] } },
{ "type": "Feature", "properties": { "COD_MZN": "7600110000000019370216", "CLASE": 1.0, "ZONA": "Urbana", "cod_dane_a": "7600110000000019370216", "ics": 43.892857, "OBJECTID": 1, "OID_": 0, "Name": "Roosevelt", "FolderPath": "Roosevelt.kmz", "SymbolID": 0, "AltMode": 0, "Clamped": -1, "Shape_Leng": 1641.93268188, "BUFF_DIST": 100.0, "Shape_Area": 42.917556573799999 }, "geometry": { "type": "MultiPolygon", "coordinates": [ [ [ [ -76.537457689253515, 3.435253987582961 ], [ -76.537458585561239, 3.435253187228945 ], [ -76.537459514266772, 3.435252423952167 ], [ -76.537460471770544, 3.435251703178704 ], [ -76.537461463472042, 3.435251022195451 ], [ -76.537462483971822, 3.435250387332871 ], [ -76.537463531470024, 3.435249796782324 ], [ -76.537464599667288, 3.435249255065582 ], [ -76.537465693963043, 3.435248757660889 ], [ -76.537466806258053, 3.435248307281393 ], [ -76.537467938352265, 3.435247909353076 ], [ -76.537469087545801, 3.435247558449958 ], [ -76.537588506323743, 3.435253145122277 ], [ -76.537589886809187, 3.435253477893518 ], [ -76.537589897603496, 3.435253210209622 ], [ -76.537720316132251, 3.435259314853489 ], [ -76.537792554699735, 3.43526325012637 ], [ -76.537861042391384, 3.435266982890517 ], [ -76.537927492659364, 3.435270608070832 ], [ -76.53797145836711, 3.435273005568711 ], [ -76.538033140822648, 3.435275028343996 ], [ -76.538125597943093, 3.435279749993187 ], [ -76.538213757035336, 3.435284255576607 ], [ -76.538285727425148, 3.435287932176669 ], [ -76.538356554914174, 3.435291554532454 ], [ -76.538447617157985, 3.43529620654247 ], [ -76.538519552452513, 3.435299880412488 ], [ -76.538621768335858, 3.435305104640484 ], [ -76.53864484918472, 3.435334953647715 ], [ -76.538639317958783, 3.435462077284415 ], [ -76.538639236111564, 3.435464504526004 ], [ -76.538637074793186, 3.435527942890749 ], [ -76.538632944056019, 3.435618511397417 ], [ -76.538629665193412, 3.435690428845191 ], [ -76.538629622013161, 3.435691279826943 ], [ -76.538625753817783, 3.435769398323349 ], [ -76.53862416785681, 3.435801388363991 ], [ -76.5386227834029, 3.435829371284358 ], [ -76.538618367362147, 3.435918567916863 ], [ -76.538611718559849, 3.436052796043075 ], [ -76.538586391601299, 3.436076906142661 ], [ -76.538557387076594, 3.436075256277066 ], [ -76.538523502268504, 3.436073329775691 ], [ -76.538434179492356, 3.436068247276394 ], [ -76.538356639411262, 3.436063835566301 ], [ -76.538282495640857, 3.436059615506025 ], [ -76.538253263436587, 3.436057952974699 ], [ -76.538183016334443, 3.436053959822735 ], [ -76.538109650999047, 3.436049784951408 ], [ -76.538043050386491, 3.436045992484604 ], [ -76.537963004927605, 3.436041701969569 ], [ -76.537855240038908, 3.436035929744045 ], [ -76.537775667032065, 3.436031154480113 ], [ -76.537686272264807, 3.436025799706475 ], [ -76.537633068806741, 3.436022547763129 ], [ -76.537579867148906, 3.436019297625443 ], [ -76.537524867427891, 3.436014972260373 ], [ -76.537415855217404, 3.436007204135914 ], [ -76.537417220769854, 3.43597702820078 ], [ -76.537424875237761, 3.43580783478518 ], [ -76.53742813439024, 3.435735779882422 ], [ -76.537430536249872, 3.435682700694331 ], [ -76.537433985245414, 3.435608389467633 ], [ -76.537436939472116, 3.435544817249399 ], [ -76.537439904492501, 3.435480960164777 ], [ -76.537442338758396, 3.435428467890402 ], [ -76.537445694195895, 3.435356177857751 ], [ -76.537448919856686, 3.435273216652678 ], [ -76.537448994529029, 3.435272013883354 ], [ -76.537449118697111, 3.435270814730511 ], [ -76.537449295060782, 3.435269622811441 ], [ -76.537449520920262, 3.435268439030527 ], [ -76.537449800775263, 3.435267267005029 ], [ -76.537450130126146, 3.435266107639365 ], [ -76.537450508073036, 3.435264962742218 ], [ -76.537450936415908, 3.43526383864394 ], [ -76.537451412454928, 3.435262731727204 ], [ -76.537451934390333, 3.435261647418083 ], [ -76.53745250582179, 3.435260584812166 ], [ -76.537453119550094, 3.435259552048612 ], [ -76.537453778274894, 3.435258543701347 ], [ -76.537454479296542, 3.435257567005114 ], [ -76.537455224414884, 3.435256620151232 ], [ -76.537456007330505, 3.435255706757134 ], [ -76.537456832543072, 3.435254829535748 ], [ -76.537457689253515, 3.435253987582961 ] ] ] ] } },
{ "type": "Feature", "properties": { "COD_MZN": "7600110000000019370218", "CLASE": 1.0, "ZONA": "Urbana", "cod_dane_a": "7600110000000019370218", "ics": 57.011765, "OBJECTID": 1, "OID_": 0, "Name": "Roosevelt", "FolderPath": "Roosevelt.kmz", "SymbolID": 0, "AltMode": 0, "Clamped": -1, "Shape_Leng": 1641.93268188, "BUFF_DIST": 100.0, "Shape_Area": 42.917556573799999 }, "geometry": { "type": "MultiPolygon", "coordinates": [ [ [ [ -76.538571785709905, 3.436692717279679 ], [ -76.538568546148241, 3.436749280894755 ], [ -76.538549478910298, 3.436910945022991 ], [ -76.538511407553599, 3.437097495049038 ], [ -76.53846458473852, 3.437155902523281 ], [ -76.538326761972954, 3.437327826766184 ], [ -76.538277268336202, 3.437346863074525 ], [ -76.538192059772754, 3.437335248451969 ], [ -76.538134071295715, 3.43727997103463 ], [ -76.538069152397739, 3.437218212359486 ], [ -76.538068608834294, 3.43721767609776 ], [ -76.538020530470604, 3.437170331333173 ], [ -76.537937439974769, 3.437088503035731 ], [ -76.537936623729848, 3.437087696382227 ], [ -76.537910849487602, 3.437063224594731 ], [ -76.537885942787511, 3.437039580258892 ], [ -76.537852587465849, 3.437007909182602 ], [ -76.537814628061383, 3.436971867528894 ], [ -76.537760062991637, 3.436919740735411 ], [ -76.537743942394769, 3.436904337458081 ], [ -76.537709364062806, 3.436871302658822 ], [ -76.537709008587285, 3.436870969869282 ], [ -76.537685970173854, 3.436849379243248 ], [ -76.537632067490065, 3.436798871193163 ], [ -76.53755535675738, 3.436725231516631 ], [ -76.537511046515519, 3.436683274696877 ], [ -76.537491761747674, 3.436665013767235 ], [ -76.53749125058107, 3.436664419627052 ], [ -76.537490347975165, 3.436665365579407 ], [ -76.537411374843614, 3.436590890324007 ], [ -76.537295003885404, 3.436478933672745 ], [ -76.537359728711309, 3.436306879740717 ], [ -76.537363762908939, 3.436298031638088 ], [ -76.537395894023163, 3.436211468854622 ], [ -76.537403192923492, 3.43619036240852 ], [ -76.537418022988831, 3.436153031122168 ], [ -76.537421460613473, 3.436148551881001 ], [ -76.537424743461358, 3.43614463694874 ], [ -76.537429706481845, 3.436141730322232 ], [ -76.537436051818062, 3.436140821351196 ], [ -76.537447164071082, 3.436141525632404 ], [ -76.537516292553391, 3.436144383915923 ], [ -76.537528396517246, 3.436144882894045 ], [ -76.53757771231227, 3.436147845524972 ], [ -76.537640487360051, 3.436151616388911 ], [ -76.537705343921701, 3.436154998346387 ], [ -76.537793362706068, 3.436159583552448 ], [ -76.537798503967082, 3.436159851143005 ], [ -76.537859407175105, 3.436163460150118 ], [ -76.537943603098242, 3.436168454172025 ], [ -76.537982020823719, 3.436170729685067 ], [ -76.538007698333899, 3.43617217796209 ], [ -76.538081681924908, 3.436176353734173 ], [ -76.538085678484123, 3.436176579744768 ], [ -76.538132343096592, 3.436178748388021 ], [ -76.538158814347014, 3.436180650623386 ], [ -76.538216034184785, 3.436184767913078 ], [ -76.538277096675259, 3.436188007016706 ], [ -76.538341497879543, 3.436191327444347 ], [ -76.538379532227466, 3.436192933739243 ], [ -76.53838558512615, 3.436194063142531 ], [ -76.538385578828056, 3.436194136393941 ], [ -76.538585386087917, 3.436204802899343 ], [ -76.538590539978358, 3.436206672970192 ], [ -76.538595688482133, 3.436209226719759 ], [ -76.538600134188812, 3.436214030472588 ], [ -76.538604296504772, 3.436223347775794 ], [ -76.538605127239478, 3.436229010717126 ], [ -76.538598593609123, 3.43631454572925 ], [ -76.538593508595099, 3.436386344741998 ], [ -76.538593011968942, 3.436393328040215 ], [ -76.538587106419058, 3.436475483533433 ], [ -76.538586525220751, 3.436483568315477 ], [ -76.538581764970445, 3.436549682660616 ], [ -76.53858072313183, 3.436564175581944 ], [ -76.538576695264297, 3.436622100239008 ], [ -76.538571785709905, 3.436692717279679 ] ] ] ] } },
{ "type": "Feature", "properties": { "COD_MZN": "7600110000000019380101", "CLASE": 1.0, "ZONA": "Urbana", "cod_dane_a": "7600110000000019380101", "ics": 38.5, "OBJECTID": 1, "OID_": 0, "Name": "Roosevelt", "FolderPath": "Roosevelt.kmz", "SymbolID": 0, "AltMode": 0, "Clamped": -1, "Shape_Leng": 1641.93268188, "BUFF_DIST": 100.0, "Shape_Area": 42.917556573799999 }, "geometry": { "type": "MultiPolygon", "coordinates": [ [ [ [ -76.539157944559179, 3.428663721999087 ], [ -76.539159175642226, 3.428663665906177 ], [ -76.539160404927685, 3.428663725568435 ], [ -76.539161625216067, 3.428663893751302 ], [ -76.539162823908654, 3.42866417316803 ], [ -76.53916399290614, 3.428664562010104 ], [ -76.539165120509509, 3.428665053947409 ], [ -76.539166200419373, 3.428665648980048 ], [ -76.539167223636454, 3.42866634077785 ], [ -76.539168176661803, 3.428667119393355 ], [ -76.539169058595547, 3.428667985730949 ], [ -76.539169855938681, 3.428668926225816 ], [ -76.539170566891286, 3.428669936356295 ], [ -76.539275509592343, 3.42880767476681 ], [ -76.539336031354253, 3.428887107821024 ], [ -76.539367336617758, 3.42892819665733 ], [ -76.539427017852091, 3.42900652914399 ], [ -76.53955483077776, 3.429174283821103 ], [ -76.539388391222289, 3.429213513641817 ], [ -76.539327211626713, 3.429227931787619 ], [ -76.539230595305312, 3.429250704888818 ], [ -76.539108533073687, 3.42927947422956 ], [ -76.539118429958279, 3.429119183027619 ], [ -76.539119384470737, 3.429103717943017 ], [ -76.539124015790279, 3.429028697677587 ], [ -76.53912897997354, 3.428948267661917 ], [ -76.539134147474186, 3.42886458655083 ], [ -76.539145656494526, 3.428678164499748 ], [ -76.539145632172961, 3.42867692917596 ], [ -76.539145717641091, 3.428675694754351 ], [ -76.539145915598894, 3.428674473895614 ], [ -76.539146223346805, 3.428673275643157 ], [ -76.539146637285384, 3.428672111753441 ], [ -76.539147155614927, 3.428670989461188 ], [ -76.539147772936161, 3.428669918714206 ], [ -76.539148485649562, 3.428668907651603 ], [ -76.539149286556082, 3.428667969838566 ], [ -76.539150167556457, 3.428667104370934 ], [ -76.539151125051305, 3.428666325718144 ], [ -76.539152147341781, 3.428665636593465 ], [ -76.539153229028571, 3.428665046040338 ], [ -76.539154356612954, 3.428664554059059 ], [ -76.539155525595447, 3.428664166980048 ], [ -76.539156726977012, 3.428663889325173 ], [ -76.539157944559179, 3.428663721999087 ] ] ] ] } },
{ "type": "Feature", "properties": { "COD_MZN": "7600110000000019380103", "CLASE": 1.0, "ZONA": "Urbana", "cod_dane_a": "7600110000000019380103", "ics": 45.549999, "OBJECTID": 1, "OID_": 0, "Name": "Roosevelt", "FolderPath": "Roosevelt.kmz", "SymbolID": 0, "AltMode": 0, "Clamped": -1, "Shape_Leng": 1641.93268188, "BUFF_DIST": 100.0, "Shape_Area": 42.917556573799999 }, "geometry": { "type": "MultiPolygon", "coordinates": [ [ [ [ -76.539068387755492, 3.430492583309372 ], [ -76.539088539161298, 3.43046994736483 ], [ -76.539189536047687, 3.430475246618792 ], [ -76.53926331221804, 3.430479120257374 ], [ -76.539337830821211, 3.43048303095343 ], [ -76.539430381980466, 3.43048788993616 ], [ -76.539553483554855, 3.430494351690836 ], [ -76.539575171088842, 3.430516313984568 ], [ -76.539570948626789, 3.430604822426548 ], [ -76.53956742596057, 3.43067616744423 ], [ -76.539563548022841, 3.430757452035831 ], [ -76.539560020056598, 3.430833887565802 ], [ -76.539556485743503, 3.430907948307067 ], [ -76.539552995507947, 3.430981101093071 ], [ -76.539549291180762, 3.431058776472061 ], [ -76.539545507692267, 3.431138073328559 ], [ -76.539541801564056, 3.4312157459943 ], [ -76.539538332015638, 3.431288449323945 ], [ -76.53953574672083, 3.43134264176396 ], [ -76.539532298760705, 3.431414894733183 ], [ -76.539528444206326, 3.431495727154498 ], [ -76.539524586951572, 3.431576558671368 ], [ -76.539520386069952, 3.431664619464039 ], [ -76.539514933917459, 3.431778869877701 ], [ -76.539381048448007, 3.431771844930362 ], [ -76.539278598955008, 3.431766466144496 ], [ -76.539207601636051, 3.431762738051577 ], [ -76.539135833086988, 3.431758971081932 ], [ -76.539031423572823, 3.431753491021952 ], [ -76.539009398952842, 3.431752334801867 ], [ -76.539015740776975, 3.431616854160574 ], [ -76.539019972258416, 3.431526531622622 ], [ -76.539024201039425, 3.431436212701896 ], [ -76.539028432519359, 3.431345889259239 ], [ -76.539030545559342, 3.431300730250908 ], [ -76.53903265859914, 3.43125557124253 ], [ -76.539036891877444, 3.431165249608137 ], [ -76.539041118855607, 3.431074929782352 ], [ -76.539043233694215, 3.431029766252031 ], [ -76.539045346732905, 3.430984608147711 ], [ -76.539049580008921, 3.430894284704093 ], [ -76.539053807884756, 3.430803964877734 ], [ -76.5390580114735, 3.43071423920103 ], [ -76.53906301835633, 3.430607289507705 ], [ -76.539068387755492, 3.430492583309372 ] ] ] ] } },
{ "type": "Feature", "properties": { "COD_MZN": "7600110000000019380108", "CLASE": 1.0, "ZONA": "Urbana", "cod_dane_a": "7600110000000019380108", "ics": 41.900826, "OBJECTID": 1, "OID_": 0, "Name": "Roosevelt", "FolderPath": "Roosevelt.kmz", "SymbolID": 0, "AltMode": 0, "Clamped": -1, "Shape_Leng": 1641.93268188, "BUFF_DIST": 100.0, "Shape_Area": 42.917556573799999 }, "geometry": { "type": "MultiPolygon", "coordinates": [ [ [ [ -76.538991123713359, 3.431908855071415 ], [ -76.538991914295693, 3.431885583754977 ], [ -76.539033750639319, 3.431887725318639 ], [ -76.539136054358849, 3.431893186428276 ], [ -76.539182241814473, 3.431895652557481 ], [ -76.539184578004893, 3.431895779118976 ], [ -76.539241445702473, 3.431898813864344 ], [ -76.539307475434697, 3.4319000940125 ], [ -76.539375974543958, 3.43190142475015 ], [ -76.539449268419958, 3.431902843108486 ], [ -76.539619574429182, 3.431906143258791 ], [ -76.539630112487686, 3.431906892743166 ], [ -76.539901149375524, 3.431926042942425 ], [ -76.54002746029559, 3.431934971600441 ], [ -76.540132542113099, 3.431942394957233 ], [ -76.540193729450579, 3.431946719141333 ], [ -76.540204768156002, 3.431961739949333 ], [ -76.540396875525872, 3.432223258436507 ], [ -76.540400380807412, 3.432228035070872 ], [ -76.540476640182973, 3.432328046807108 ], [ -76.540476110317883, 3.432337079334865 ], [ -76.540470744189875, 3.432428243838353 ], [ -76.540470475208195, 3.432432787232409 ], [ -76.540468271341723, 3.432521415909008 ], [ -76.540455039177928, 3.43253319788623 ], [ -76.540443085775081, 3.432543843085121 ], [ -76.540261654753436, 3.43253567255461 ], [ -76.540204715931395, 3.432533111744421 ], [ -76.540184336348958, 3.432532195166969 ], [ -76.540180655677233, 3.43253202974915 ], [ -76.540071902177047, 3.432527132286241 ], [ -76.540026957485992, 3.43252510749138 ], [ -76.539931877367451, 3.432520824681964 ], [ -76.539783640792294, 3.432514150062099 ], [ -76.539693754112406, 3.432510102251628 ], [ -76.539638516141352, 3.432507614624675 ], [ -76.539630829927276, 3.432507271130612 ], [ -76.539573757920181, 3.432504699433285 ], [ -76.539567909342139, 3.432504438196676 ], [ -76.539484627174531, 3.432500687761453 ], [ -76.539472411664676, 3.43250013454993 ], [ -76.539391513384999, 3.432496492579661 ], [ -76.539310613306014, 3.432492847889529 ], [ -76.539225219928767, 3.432489002517807 ], [ -76.5391537582084, 3.432485786285017 ], [ -76.538997614049379, 3.432478751770987 ], [ -76.538969084798666, 3.432477564928525 ], [ -76.538969745867249, 3.43245814156831 ], [ -76.538973067633762, 3.432372799232887 ], [ -76.5389761546367, 3.432293502393896 ], [ -76.538979073435954, 3.43221846498474 ], [ -76.538986112735302, 3.432037644497384 ], [ -76.538988220205653, 3.431983432173304 ], [ -76.538990271010519, 3.431930763553345 ], [ -76.538991123713359, 3.431908855071415 ] ] ] ] } },
{ "type": "Feature", "properties": { "COD_MZN": "7600110000000019380109", "CLASE": 1.0, "ZONA": "Urbana", "cod_dane_a": "7600110000000019380109", "ics": 40.905659, "OBJECTID": 1, "OID_": 0, "Name": "Roosevelt", "FolderPath": "Roosevelt.kmz", "SymbolID": 0, "AltMode": 0, "Clamped": -1, "Shape_Leng": 1641.93268188, "BUFF_DIST": 100.0, "Shape_Area": 42.917556573799999 }, "geometry": { "type": "MultiPolygon", "coordinates": [ [ [ [ -76.538962507107556, 3.432891221402181 ], [ -76.538965563329171, 3.432802186665241 ], [ -76.538972438276588, 3.432638447298207 ], [ -76.538993541924143, 3.432620011078461 ], [ -76.539128189738051, 3.432626905840133 ], [ -76.539195523535938, 3.432629896071352 ], [ -76.539260423951035, 3.432632774207808 ], [ -76.539324523416298, 3.432634510178169 ], [ -76.539353328039297, 3.432635289148573 ], [ -76.539353423430711, 3.432635289146691 ], [ -76.539459388078228, 3.432639541954753 ], [ -76.539549267561284, 3.432643148471015 ], [ -76.53976025374503, 3.432651641390037 ], [ -76.539906305343948, 3.432658619914986 ], [ -76.540023263434108, 3.432664208142445 ], [ -76.540201810246018, 3.432672785729305 ], [ -76.540310050813744, 3.432677893898404 ], [ -76.540432146554593, 3.432683888920643 ], [ -76.540448819698071, 3.432700483154059 ], [ -76.540444051644812, 3.432860942456341 ], [ -76.540441144199804, 3.432957385521603 ], [ -76.540439401593034, 3.43302689108033 ], [ -76.540437662585646, 3.43309639392589 ], [ -76.540431494440469, 3.433309419644345 ], [ -76.540340260520551, 3.433306169548644 ], [ -76.540267879931321, 3.433303590976452 ], [ -76.540196197680572, 3.433301037705776 ], [ -76.540106346039721, 3.43329783910634 ], [ -76.54001651419766, 3.433294640498017 ], [ -76.539962449682051, 3.433292453106025 ], [ -76.539908342870405, 3.433290263903134 ], [ -76.539817902674812, 3.433286610406982 ], [ -76.539737827762309, 3.433283371784147 ], [ -76.539624804965342, 3.43327872124066 ], [ -76.539516352864766, 3.433274256886162 ], [ -76.539381673486886, 3.433268710546852 ], [ -76.539306478843969, 3.433265616485147 ], [ -76.53921599187116, 3.433262699967264 ], [ -76.539152481805502, 3.433260652886465 ], [ -76.539125503099001, 3.43325978253646 ], [ -76.538948702039022, 3.433251646935453 ], [ -76.538952594115884, 3.433153607700917 ], [ -76.538955786390673, 3.433073130701622 ], [ -76.538959342957327, 3.432983509040746 ], [ -76.538962507107556, 3.432891221402181 ] ] ] ] } },
{ "type": "Feature", "properties": { "COD_MZN": "7600110000000019380116", "CLASE": 1.0, "ZONA": "Urbana", "cod_dane_a": "7600110000000019380116", "ics": 51.229507, "OBJECTID": 1, "OID_": 0, "Name": "Roosevelt", "FolderPath": "Roosevelt.kmz", "SymbolID": 0, "AltMode": 0, "Clamped": -1, "Shape_Leng": 1641.93268188, "BUFF_DIST": 100.0, "Shape_Area": 42.917556573799999 }, "geometry": { "type": "MultiPolygon", "coordinates": [ [ [ [ -76.539744981174977, 3.433596664674024 ], [ -76.539755849798738, 3.43343093568321 ], [ -76.539856583301926, 3.433435187647611 ], [ -76.53993613987609, 3.433438548356391 ], [ -76.540067255598032, 3.433444084742406 ], [ -76.540168578551729, 3.433448361078788 ], [ -76.54024218125349, 3.433451466861581 ], [ -76.540312673830329, 3.433454444287388 ], [ -76.540426584874908, 3.433459252989478 ], [ -76.540420939302521, 3.433571767080764 ], [ -76.540416597177099, 3.433658336624767 ], [ -76.540412679637654, 3.433736404489066 ], [ -76.54040877019203, 3.43381423722547 ], [ -76.540405148603909, 3.433886432319867 ], [ -76.540401753700863, 3.433954057795356 ], [ -76.540398136609511, 3.434026164264398 ], [ -76.540394949502115, 3.434089668672374 ], [ -76.540391400775064, 3.434160385174051 ], [ -76.540387243051953, 3.434243251453704 ], [ -76.540380472131488, 3.434378137955326 ], [ -76.540211963650506, 3.434371246785115 ], [ -76.540153007100827, 3.43436883522977 ], [ -76.540097247972085, 3.43436655563834 ], [ -76.539973285602613, 3.434361485749244 ], [ -76.539855439099895, 3.434356664412653 ], [ -76.53978194342244, 3.434353658075294 ], [ -76.539738463722173, 3.434351880121746 ], [ -76.539695560871678, 3.4343501265717 ], [ -76.539702442275271, 3.434245211603649 ], [ -76.539710075782068, 3.43412881063799 ], [ -76.539714183570851, 3.434066183420324 ], [ -76.53971849018096, 3.434000518531104 ], [ -76.539723024401709, 3.433931411731163 ], [ -76.539727482151648, 3.433863458866455 ], [ -76.53973258314744, 3.433785657760403 ], [ -76.539738456939659, 3.433696121963662 ], [ -76.539744981174977, 3.433596664674024 ] ] ] ] } },
{ "type": "Feature", "properties": { "COD_MZN": "7600110000000019380117", "CLASE": 1.0, "ZONA": "Urbana", "cod_dane_a": "7600110000000019380117", "ics": 55.38961, "OBJECTID": 1, "OID_": 0, "Name": "Roosevelt", "FolderPath": "Roosevelt.kmz", "SymbolID": 0, "AltMode": 0, "Clamped": -1, "Shape_Leng": 1641.93268188, "BUFF_DIST": 100.0, "Shape_Area": 42.917556573799999 }, "geometry": { "type": "MultiPolygon", "coordinates": [ [ [ [ -76.538929470794585, 3.433489127974852 ], [ -76.538933835253204, 3.433386960433973 ], [ -76.539092981659564, 3.433392335440972 ], [ -76.539204546580606, 3.433396103443298 ], [ -76.539300187412323, 3.433399332761331 ], [ -76.53930036739645, 3.433399341801158 ], [ -76.539361087720422, 3.433401392544464 ], [ -76.539425367229569, 3.433403563490185 ], [ -76.539489322767665, 3.433405724490299 ], [ -76.539635956687277, 3.433410676425512 ], [ -76.539624828342838, 3.433640784256513 ], [ -76.539621575566088, 3.433708060653008 ], [ -76.539618327285865, 3.433775204111783 ], [ -76.539614980054409, 3.433844385947698 ], [ -76.539611470005156, 3.433917009692798 ], [ -76.539607997735672, 3.433988806873133 ], [ -76.53960450477588, 3.434061025474761 ], [ -76.539600094272402, 3.434152209846849 ], [ -76.539596272975146, 3.43423122725913 ], [ -76.539591168829233, 3.43433240366247 ], [ -76.539562802780139, 3.434350017093429 ], [ -76.53934259026245, 3.434342725274446 ], [ -76.539311336899317, 3.434341690424919 ], [ -76.539246328392338, 3.434339538477271 ], [ -76.539162530431156, 3.434336761995799 ], [ -76.538894200033965, 3.434327875761947 ], [ -76.538903173570631, 3.434114514493035 ], [ -76.538906674470638, 3.434031190637143 ], [ -76.538909369408387, 3.433967085763369 ], [ -76.538911810684525, 3.433909070698723 ], [ -76.538914349107088, 3.433848714304022 ], [ -76.538916863240928, 3.433788851677634 ], [ -76.538921433660661, 3.433680238924723 ], [ -76.538924807727014, 3.433599951833628 ], [ -76.538927159948614, 3.433543991423577 ], [ -76.538929470794585, 3.433489127974852 ] ] ] ] } },
{ "type": "Feature", "properties": { "COD_MZN": "7600110000000019380118", "CLASE": 1.0, "ZONA": "Urbana", "cod_dane_a": "7600110000000019380118", "ics": 44.16346, "OBJECTID": 1, "OID_": 0, "Name": "Roosevelt", "FolderPath": "Roosevelt.kmz", "SymbolID": 0, "AltMode": 0, "Clamped": -1, "Shape_Leng": 1641.93268188, "BUFF_DIST": 100.0, "Shape_Area": 42.917556573799999 }, "geometry": { "type": "MultiPolygon", "coordinates": [ [ [ [ -76.538879075091401, 3.434470745900313 ], [ -76.538903775663542, 3.434447051799425 ], [ -76.539027075688153, 3.434451633498743 ], [ -76.539154512652274, 3.434456363412518 ], [ -76.539156262099411, 3.434456429394936 ], [ -76.539247229758757, 3.4344602005067 ], [ -76.539358645433992, 3.434464816761076 ], [ -76.539446187993633, 3.434468441418879 ], [ -76.539448274011633, 3.434468530002499 ], [ -76.539544574602701, 3.434472267519518 ], [ -76.539624648711168, 3.434475375029156 ], [ -76.539704276459105, 3.434478465358611 ], [ -76.539807376858391, 3.434482464969933 ], [ -76.539830557034861, 3.434483365220421 ], [ -76.539904777139256, 3.434485410229181 ], [ -76.54000520295051, 3.434488173644959 ], [ -76.540097413381218, 3.434490712038921 ], [ -76.540139001442014, 3.43449185697917 ], [ -76.540253049382741, 3.434495980211085 ], [ -76.540350703455786, 3.434499510525361 ], [ -76.540358425734325, 3.434502353599773 ], [ -76.540362836349104, 3.434507360821057 ], [ -76.540365656829422, 3.434513604303847 ], [ -76.5403666765569, 3.434519294369972 ], [ -76.540366462531409, 3.434526848299979 ], [ -76.540365489446856, 3.434557410383416 ], [ -76.540364063962727, 3.434600624148495 ], [ -76.540361004342785, 3.434693376614649 ], [ -76.540358263095598, 3.434776481608731 ], [ -76.540358256800005, 3.434776668806586 ], [ -76.54035216363873, 3.434961372495026 ], [ -76.540347695956527, 3.435069504141691 ], [ -76.540344539704407, 3.435145849226006 ], [ -76.54034070254886, 3.435238595376856 ], [ -76.540337741483285, 3.435310305730636 ], [ -76.540334692265304, 3.435383975784 ], [ -76.540331750986226, 3.435455154387084 ], [ -76.540304598364656, 3.435489920370976 ], [ -76.540215651535377, 3.43560381348622 ], [ -76.540123323484977, 3.435531394288279 ], [ -76.54005087053433, 3.435474560919332 ], [ -76.539975787079854, 3.435415672945165 ], [ -76.539877405197842, 3.435338503365061 ], [ -76.539778167492912, 3.43526066548695 ], [ -76.539725439369278, 3.435219307610148 ], [ -76.539674115908184, 3.435217198824572 ], [ -76.539596245643395, 3.435213994511365 ], [ -76.539515490228766, 3.435210676302838 ], [ -76.539462256233804, 3.435208487962226 ], [ -76.539407637258847, 3.435206241768505 ], [ -76.539286950500284, 3.435201282054893 ], [ -76.539205882814628, 3.435197949356824 ], [ -76.539122911789988, 3.435194320066477 ], [ -76.539056093468886, 3.435191397646502 ], [ -76.538851878633182, 3.435182467650085 ], [ -76.538857217959944, 3.435045553664731 ], [ -76.53886088694766, 3.434951488998829 ], [ -76.538864366143088, 3.434862240834356 ], [ -76.538868409313906, 3.434758582955727 ], [ -76.538873877121603, 3.434610994174601 ], [ -76.538879075091401, 3.434470745900313 ] ] ] ] } },
{ "type": "Feature", "properties": { "COD_MZN": "7600110000000019320112", "CLASE": 1.0, "ZONA": "Urbana", "cod_dane_a": null, "ics": 0.0, "OBJECTID": 1, "OID_": 0, "Name": "Roosevelt", "FolderPath": "Roosevelt.kmz", "SymbolID": 0, "AltMode": 0, "Clamped": -1, "Shape_Leng": 1641.93268188, "BUFF_DIST": 100.0, "Shape_Area": 42.917556573799999 }, "geometry": { "type": "MultiPolygon", "coordinates": [ [ [ [ -76.540026866737549, 3.427949640198227 ], [ -76.540280745017981, 3.427762375736952 ], [ -76.540478877566841, 3.428032330670132 ], [ -76.540718688277281, 3.428359077944364 ], [ -76.53983546735769, 3.429021727399038 ], [ -76.539431617768912, 3.428478418885237 ], [ -76.539388541298322, 3.428420466207617 ], [ -76.540026866737549, 3.427949640198227 ] ] ] ] } },
{ "type": "Feature", "properties": { "COD_MZN": "7600110000000019330220", "CLASE": 1.0, "ZONA": "Urbana", "cod_dane_a": null, "ics": 0.0, "OBJECTID": 1, "OID_": 0, "Name": "Roosevelt", "FolderPath": "Roosevelt.kmz", "SymbolID": 0, "AltMode": 0, "Clamped": -1, "Shape_Leng": 1641.93268188, "BUFF_DIST": 100.0, "Shape_Area": 42.917556573799999 }, "geometry": { "type": "MultiPolygon", "coordinates": [ [ [ [ -76.539652236511458, 3.426619563422982 ], [ -76.53916961025935, 3.426060344528263 ], [ -76.539169304281899, 3.426059977373411 ], [ -76.539169011802798, 3.426059593940222 ], [ -76.539168733722207, 3.426059205080739 ], [ -76.539168469140037, 3.426058801751593 ], [ -76.539168222556015, 3.426058392091747 ], [ -76.539167991270276, 3.426057970675225 ], [ -76.539167772583156, 3.42605754202374 ], [ -76.539167572794156, 3.426057109754561 ], [ -76.539167389203328, 3.426056663920002 ], [ -76.539167223610633, 3.42605621265906 ], [ -76.53916707241649, 3.426055757780496 ], [ -76.539166939220451, 3.426055294762563 ], [ -76.539166824022587, 3.426054828126919 ], [ -76.53916672502308, 3.426054356969265 ], [ -76.539166644921693, 3.426053883098238 ], [ -76.53916658281851, 3.426053407418187 ], [ -76.539166537813642, 3.426052929929133 ], [ -76.539166509907062, 3.426052448822403 ], [ -76.539166503598437, 3.426051970428242 ], [ -76.539166513488183, 3.426051489320774 ], [ -76.539166539576399, 3.426051010021662 ], [ -76.539166584562793, 3.426050530722165 ], [ -76.539166647547503, 3.426050055039676 ], [ -76.539166729430448, 3.426049582069842 ], [ -76.539166827511849, 3.426049110908345 ], [ -76.539166945391443, 3.426048645172492 ], [ -76.53916707946955, 3.426048183958017 ], [ -76.539167227946365, 3.426047728169274 ], [ -76.539167396221373, 3.426047277806158 ], [ -76.539259843824567, 3.425838878772115 ], [ -76.539279202522039, 3.425827363469528 ], [ -76.539354942258001, 3.425847239308044 ], [ -76.539363999689428, 3.425883642311211 ], [ -76.539502986034961, 3.42594103421424 ], [ -76.539523499005298, 3.425913547388078 ], [ -76.539590624011751, 3.425939676869291 ], [ -76.539592839356331, 3.42597305680801 ], [ -76.539663746801523, 3.426004189905165 ], [ -76.539686962288869, 3.425980843980548 ], [ -76.5398976146748, 3.426065549885418 ], [ -76.53989872967658, 3.426066035491786 ], [ -76.539899814982434, 3.426066579880662 ], [ -76.539900870592376, 3.426067184860714 ], [ -76.539901887507256, 3.426067849527791 ], [ -76.539902867526777, 3.426068566647173 ], [ -76.539903810650941, 3.426069338027496 ], [ -76.539904703381083, 3.42607016276475 ], [ -76.539905553816197, 3.426071032719683 ], [ -76.539906355657024, 3.426071951509817 ], [ -76.539907102604005, 3.426072912804897 ], [ -76.539907796456916, 3.426073912987545 ], [ -76.539908432716175, 3.426074951153518 ], [ -76.539909013181472, 3.426076021876747 ], [ -76.539909532453393, 3.426077126966016 ], [ -76.539909992331559, 3.426078256473596 ], [ -76.539910388316358, 3.426079408590892 ], [ -76.539910716808123, 3.426080581509306 ], [ -76.539910983206298, 3.42608177432441 ], [ -76.539911182111183, 3.426082977088572 ], [ -76.539911315322641, 3.426084189801774 ], [ -76.539911381940655, 3.42608540703802 ], [ -76.539911379265405, 3.426086626988677 ], [ -76.539911310896471, 3.42608784422766 ], [ -76.539911175933895, 3.4260890569463 ], [ -76.539910975277508, 3.426090261527253 ], [ -76.539910707127333, 3.426091449831485 ], [ -76.539910373283206, 3.426092622763349 ], [ -76.53990997824458, 3.426093774896685 ], [ -76.539909517511887, 3.42609490532727 ], [ -76.539680520703797, 3.426615258212495 ], [ -76.53968000597439, 3.426616318105742 ], [ -76.539679421050934, 3.42661733911392 ], [ -76.539678765933374, 3.426618315811 ], [ -76.539678046921068, 3.426619247292504 ], [ -76.53967726581368, 3.426620126323711 ], [ -76.539676425310915, 3.426620949287209 ], [ -76.53967553081209, 3.426621709852524 ], [ -76.539674585916899, 3.426622408923953 ], [ -76.539673594224851, 3.42662303926669 ], [ -76.539672564735056, 3.426623599976253 ], [ -76.53967149834736, 3.426624088339583 ], [ -76.539670399561302, 3.426624500739265 ], [ -76.539669274676186, 3.426624834462133 ], [ -76.539668129991497, 3.426625094029772 ], [ -76.53966696910669, 3.426625269494402 ], [ -76.539665801920918, 3.426625364473168 ], [ -76.539664628434181, 3.426625380774722 ], [ -76.539663456745572, 3.426625312068573 ], [ -76.53966229315462, 3.426625164684958 ], [ -76.539661143060741, 3.426624934102042 ], [ -76.539660010963573, 3.426624625745797 ], [ -76.539658904962394, 3.426624240520381 ], [ -76.539657825057162, 3.42662377842581 ], [ -76.539656779347212, 3.426623244887919 ], [ -76.53965577413193, 3.426622638097927 ], [ -76.539654812111166, 3.426621964386127 ], [ -76.539653901384099, 3.426621221943688 ], [ -76.539653040151137, 3.426620421622689 ], [ -76.539652236511458, 3.426619563422982 ] ] ] ] } },
{ "type": "Feature", "properties": { "COD_MZN": null, "CLASE": 0.0, "ZONA": null, "cod_dane_a": null, "ics": 0.0, "OBJECTID": 1, "OID_": 0, "Name": "Roosevelt", "FolderPath": "Roosevelt.kmz", "SymbolID": 0, "AltMode": 0, "Clamped": -1, "Shape_Leng": 1641.93268188, "BUFF_DIST": 100.0, "Shape_Area": 42.917556573799999 }, "geometry": { "type": "MultiPolygon", "coordinates": [ [ [ [ -76.540027898048081, 3.426347026646119 ], [ -76.540281418717839, 3.425767715823343 ], [ -76.540467669935836, 3.426024688356162 ], [ -76.540027898048081, 3.426347026646119 ] ] ] ] } },
{ "type": "Feature", "properties": { "COD_MZN": null, "CLASE": 0.0, "ZONA": null, "cod_dane_a": null, "ics": 0.0, "OBJECTID": 1, "OID_": 0, "Name": "Roosevelt", "FolderPath": "Roosevelt.kmz", "SymbolID": 0, "AltMode": 0, "Clamped": -1, "Shape_Leng": 1641.93268188, "BUFF_DIST": 100.0, "Shape_Area": 42.917556573799999 }, "geometry": { "type": "MultiPolygon", "coordinates": [ [ [ [ -76.53866104422265, 3.425768803296215 ], [ -76.538598915559106, 3.42574222058203 ], [ -76.538597502789273, 3.425747183610218 ], [ -76.538509959506911, 3.425710319058487 ], [ -76.538512431421452, 3.425702524531321 ], [ -76.538446974840681, 3.425673296684007 ], [ -76.538442517651475, 3.425677471187171 ], [ -76.538358615389456, 3.42563856184721 ], [ -76.538346538460658, 3.425632963321942 ], [ -76.538222682457018, 3.42557567225533 ], [ -76.538172241011594, 3.42555080934576 ], [ -76.538157108858556, 3.425543904107465 ], [ -76.538150230668506, 3.425535156582347 ], [ -76.538146103502257, 3.425525945985933 ], [ -76.538141979019088, 3.425515819296062 ], [ -76.538140142996326, 3.425504770140264 ], [ -76.53814014370306, 3.425494179449489 ], [ -76.538143355204667, 3.425478528933958 ], [ -76.538150691937787, 3.425464715955208 ], [ -76.538163075429381, 3.425453668345917 ], [ -76.538175457179761, 3.425445841080609 ], [ -76.53818738098407, 3.425444001438972 ], [ -76.5382096438681, 3.425441474309894 ], [ -76.538458415163078, 3.425416727016162 ], [ -76.538613952110353, 3.425401256306283 ], [ -76.538777385764973, 3.425384862996621 ], [ -76.538875341025459, 3.425375039117522 ], [ -76.53913691081047, 3.42534893308717 ], [ -76.539330602147189, 3.425330119991903 ], [ -76.53923988338039, 3.425587071046049 ], [ -76.539141992653626, 3.425864352630269 ], [ -76.539100834593796, 3.425975917869256 ], [ -76.538658217743617, 3.425776600543481 ], [ -76.53866104422265, 3.425768803296215 ] ] ] ] } },
{ "type": "Feature", "properties": { "COD_MZN": null, "CLASE": 0.0, "ZONA": null, "cod_dane_a": null, "ics": 0.0, "OBJECTID": 1, "OID_": 0, "Name": "Roosevelt", "FolderPath": "Roosevelt.kmz", "SymbolID": 0, "AltMode": 0, "Clamped": -1, "Shape_Leng": 1641.93268188, "BUFF_DIST": 100.0, "Shape_Area": 42.917556573799999 }, "geometry": { "type": "MultiPolygon", "coordinates": [ [ [ [ -76.537951456182356, 3.430466488905988 ], [ -76.538000495633042, 3.430431953191467 ], [ -76.5382508310757, 3.430439717735727 ], [ -76.538260626679232, 3.430440117270765 ], [ -76.538386247983738, 3.430445271458332 ], [ -76.538827070854396, 3.430463354370487 ], [ -76.538864362304736, 3.430499649217054 ], [ -76.538848411950966, 3.430913998609288 ], [ -76.538846680770547, 3.430975068513815 ], [ -76.53884040715586, 3.431196637506068 ], [ -76.538836923212742, 3.431319711494762 ], [ -76.538826063992047, 3.431703493290651 ], [ -76.538794331642379, 3.431733246582334 ], [ -76.537813889948396, 3.431697546249985 ], [ -76.537811084001632, 3.431697435067366 ], [ -76.537660011036849, 3.431691460124204 ], [ -76.537658237296981, 3.431691391426436 ], [ -76.537629379901716, 3.431656436609784 ], [ -76.537627118358898, 3.431653695605169 ], [ -76.537624839724643, 3.431549881387176 ], [ -76.537625203892929, 3.431533052575258 ], [ -76.537627530063688, 3.431424987891078 ], [ -76.537631219825059, 3.431278355926195 ], [ -76.53765658485986, 3.43117442093496 ], [ -76.537677255727914, 3.431110317546398 ], [ -76.537726520480078, 3.430990563462089 ], [ -76.537764295633067, 3.430902019153713 ], [ -76.537800621968756, 3.430816629197098 ], [ -76.537804685824227, 3.430807079325747 ], [ -76.537864423389479, 3.43066552328975 ], [ -76.537951456182356, 3.430466488905988 ] ] ] ] } },
{ "type": "Feature", "properties": { "COD_MZN": null, "CLASE": 0.0, "ZONA": null, "cod_dane_a": null, "ics": 0.0, "OBJECTID": 1, "OID_": 0, "Name": "Roosevelt", "FolderPath": "Roosevelt.kmz", "SymbolID": 0, "AltMode": 0, "Clamped": -1, "Shape_Leng": 1641.93268188, "BUFF_DIST": 100.0, "Shape_Area": 42.917556573799999 }, "geometry": { "type": "MultiPolygon", "coordinates": [ [ [ [ -76.538760729668752, 3.430357324849286 ], [ -76.538777905886036, 3.430045853703044 ], [ -76.53888122272005, 3.430051609635795 ], [ -76.538864043836341, 3.430363078975064 ], [ -76.538760729668752, 3.430357324849286 ] ] ] ] } },
{ "type": "Feature", "properties": { "COD_MZN": "7600110000000019380119", "CLASE": 1.0, "ZONA": "Urbana", "cod_dane_a": "7600110000000019380119", "ics": 59.222221, "OBJECTID": 0, "OID_": 0, "Name": null, "FolderPath": null, "SymbolID": 0, "AltMode": 0, "Clamped": 0, "Shape_Leng": 0.0, "BUFF_DIST": 0.0, "Shape_Area": 0.0 }, "geometry": { "type": "MultiPolygon", "coordinates": [ [ [ [ -76.538871938774079, 3.435276555258935 ], [ -76.539697135934389, 3.435309390866079 ], [ -76.540183974143943, 3.435684869735339 ], [ -76.54012411832116, 3.435762478439894 ], [ -76.539662053614066, 3.43636159739689 ], [ -76.539338065181568, 3.436723098917077 ], [ -76.53919877214598, 3.436847893803832 ], [ -76.539177462340362, 3.436866987483867 ], [ -76.539107504679222, 3.43689553966742 ], [ -76.539054680943721, 3.436892684800374 ], [ -76.539000429820987, 3.436884118166872 ], [ -76.538914768877845, 3.436838432728816 ], [ -76.538850524555727, 3.436758483358877 ], [ -76.538811073125743, 3.436678964877681 ], [ -76.538788683989893, 3.436633837092046 ], [ -76.538759151896798, 3.436574312400648 ], [ -76.538753441354146, 3.436498645745384 ], [ -76.538766291303659, 3.436258795483679 ], [ -76.538791989092573, 3.435716278816705 ], [ -76.538823398505784, 3.435307963809626 ], [ -76.53883767448059, 3.435287975883066 ], [ -76.538871938774079, 3.435276555258935 ] ] ] ] } },
{ "type": "Feature", "properties": { "COD_MZN": "7600110000000019380102", "CLASE": 1.0, "ZONA": "Urbana", "cod_dane_a": "7600110000000019380102", "ics": 56.356323, "OBJECTID": 0, "OID_": 0, "Name": null, "FolderPath": null, "SymbolID": 0, "AltMode": 0, "Clamped": 0, "Shape_Leng": 0.0, "BUFF_DIST": 0.0, "Shape_Area": 0.0 }, "geometry": { "type": "MultiPolygon", "coordinates": [ [ [ [ -76.539554690260147, 3.42930448743003 ], [ -76.539628263403955, 3.429285288696795 ], [ -76.539640156729888, 3.429287189375067 ], [ -76.5396493449974, 3.429293562053475 ], [ -76.539712856508785, 3.429381397217189 ], [ -76.539754402211742, 3.429435676492841 ], [ -76.53979503085823, 3.429487618978466 ], [ -76.539862631605629, 3.429575000072006 ], [ -76.539906962643855, 3.429633150750678 ], [ -76.539952494193614, 3.429692188557258 ], [ -76.540039027018864, 3.429804727001241 ], [ -76.54008234839948, 3.429864225153984 ], [ -76.540125206315636, 3.429923091182666 ], [ -76.540172457752448, 3.42998799085484 ], [ -76.540166106785762, 3.430019614743175 ], [ -76.540067741995585, 3.430093112222829 ], [ -76.540012888409663, 3.430134295942837 ], [ -76.539957609166194, 3.430175864915871 ], [ -76.539902657482742, 3.430217189708072 ], [ -76.539848000070634, 3.430258679080465 ], [ -76.539745633357754, 3.430335003564953 ], [ -76.539730065007859, 3.43034563616735 ], [ -76.539702782573528, 3.430363000888828 ], [ -76.53967331140403, 3.430373505353596 ], [ -76.539641100790348, 3.430379144539729 ], [ -76.539616799434697, 3.430379163112712 ], [ -76.539572048306979, 3.430376124530175 ], [ -76.539438079394216, 3.430371856010152 ], [ -76.53937304236517, 3.430370068517845 ], [ -76.53930916533136, 3.430368390423025 ], [ -76.539244729459469, 3.430367232328614 ], [ -76.539070308361929, 3.430361762685379 ], [ -76.539075547065352, 3.430236362704894 ], [ -76.539078468419618, 3.430154485792089 ], [ -76.539082651402651, 3.430069809931863 ], [ -76.539085677396031, 3.43000091296459 ], [ -76.539089127256204, 3.429932355115316 ], [ -76.539095571654798, 3.429797179228018 ], [ -76.53909896808004, 3.429711045591243 ], [ -76.539102496800709, 3.429625343320474 ], [ -76.539105964360829, 3.429541423498811 ], [ -76.539110008036658, 3.429419624608955 ], [ -76.539115334436332, 3.429409084458338 ], [ -76.539121720146099, 3.429404200914565 ], [ -76.539238346036768, 3.429377286473708 ], [ -76.539319013246015, 3.429358909667549 ], [ -76.539400984420112, 3.429340010122059 ], [ -76.539479386536456, 3.429321721972132 ], [ -76.539554690260147, 3.42930448743003 ] ] ] ] } }
]
}
