{
"type": "FeatureCollection",
"name": "Mzn_ipm_filtrado_tramos_Roosevelt_Buffer_100",
"crs": { "type": "name", "properties": { "name": "urn:ogc:def:crs:OGC:1.3:CRS84" } },
"features": [
{ "type": "Feature", "properties": { "COD_DPTO": "76", "COD_MPIO": "76001", "COD_DANE": "7600110000000019320110", "ipm": 3.4, "OBJECTID": 1, "OID_": 0, "Name": "Roosevelt", "FolderPath": "Roosevelt.kmz", "SymbolID": 0, "AltMode": 0, "Base": 0.0, "Clamped": -1, "Extruded": 0, "Snippet": null, "PopupInfo": null, "Shape_Leng": 1641.93268188, "BUFF_DIST": 100.0, "ORIG_FID": 0, "Shape_Le_1": 0.028019003091599999, "Shape_Area": 42.917556573799999 }, "geometry": { "type": "Polygon", "coordinates": [ [ [ -76.541651806999937, 3.426700422000067 ], [ -76.54177382599994, 3.426611587000082 ], [ -76.541838939999934, 3.426699536000058 ], [ -76.541882221999913, 3.426757993000081 ], [ -76.541925345999914, 3.42681624100004 ], [ -76.54196603999992, 3.426871202000086 ], [ -76.542017285999918, 3.42694042100004 ], [ -76.542064584999935, 3.427004310000086 ], [ -76.542102297999918, 3.427055244000087 ], [ -76.542140240999913, 3.427106494000043 ], [ -76.542164519999915, 3.427139288000092 ], [ -76.542232261999914, 3.427232285000059 ], [ -76.542238566999913, 3.427241508000066 ], [ -76.542240711999909, 3.427245815000049 ], [ -76.542241650999927, 3.427249045000053 ], [ -76.542242857999952, 3.427253219000079 ], [ -76.54224298999992, 3.427257258000054 ], [ -76.542243123999924, 3.427260084000068 ], [ -76.542242721999912, 3.427263449000066 ], [ -76.542242051999949, 3.427266681000049 ], [ -76.542240845999913, 3.427270046000046 ], [ -76.542239772999949, 3.427272332000086 ], [ -76.542238296999926, 3.427274620000048 ], [ -76.542236419999938, 3.42727704400005 ], [ -76.54223365799993, 3.427279963000046 ], [ -76.542185292999932, 3.427316260000055 ], [ -76.542132542999923, 3.427355994000038 ], [ -76.542079990999923, 3.427395577000084 ], [ -76.542027799999914, 3.427434886000071 ], [ -76.541876156999933, 3.427549217000092 ], [ -76.541827460999912, 3.427585908000083 ], [ -76.54177877099994, 3.427622591000045 ], [ -76.541639289999921, 3.427728723000087 ], [ -76.541609670999947, 3.427724439000087 ], [ -76.541528344999904, 3.427613872000052 ], [ -76.541429733999905, 3.427479806000065 ], [ -76.541380399999923, 3.427412731000061 ], [ -76.541332423999904, 3.427347505000057 ], [ -76.541310524999915, 3.427317733000052 ], [ -76.541260318999946, 3.427249477000089 ], [ -76.541239016999953, 3.427220515000045 ], [ -76.541185370999926, 3.427147541000068 ], [ -76.541152925999938, 3.427103405000082 ], [ -76.541154609999921, 3.427070438000044 ], [ -76.541204052999944, 3.427033642000083 ], [ -76.541239843999904, 3.427007003000085 ], [ -76.541290800999946, 3.426969082000085 ], [ -76.541343250999944, 3.426930049000077 ], [ -76.5413946729999, 3.426891780000062 ], [ -76.541446318999931, 3.426853347000076 ], [ -76.541555717999927, 3.42677193500009 ], [ -76.541651267999953, 3.426700827000047 ], [ -76.541651806999937, 3.426700422000067 ] ] ] } },
{ "type": "Feature", "properties": { "COD_DPTO": "76", "COD_MPIO": "76001", "COD_DANE": "7600110000000019320111", "ipm": 7.1, "OBJECTID": 1, "OID_": 0, "Name": "Roosevelt", "FolderPath": "Roosevelt.kmz", "SymbolID": 0, "AltMode": 0, "Base": 0.0, "Clamped": -1, "Extruded": 0, "Snippet": null, "PopupInfo": null, "Shape_Leng": 1641.93268188, "BUFF_DIST": 100.0, "ORIG_FID": 0, "Shape_Le_1": 0.028019003091599999, "Shape_Area": 42.917556573799999 }, "geometry": { "type": "Polygon", "coordinates": [ [ [ -76.54092075199992, 3.427253799000084 ], [ -76.541016431999935, 3.427182953000056 ], [ -76.541050058999929, 3.427185841000039 ], [ -76.541134007999915, 3.427303645000052 ], [ -76.541155476999904, 3.427333766000061 ], [ -76.541222274999939, 3.427427501000068 ], [ -76.541275148999944, 3.427500088000045 ], [ -76.541274396999938, 3.427500642000041 ], [ -76.54131093299992, 3.427551910000091 ], [ -76.541374577999932, 3.427641218000076 ], [ -76.54140826899993, 3.427688495000041 ], [ -76.541491934999897, 3.427805900000067 ], [ -76.541478293999944, 3.427840804000084 ], [ -76.541277338999919, 3.427990161000082 ], [ -76.541178916999911, 3.428063310000084 ], [ -76.541126099999929, 3.428102566000064 ], [ -76.541056501999947, 3.42815429400008 ], [ -76.541018524999913, 3.428182521000053 ], [ -76.540902540999923, 3.428268725000066 ], [ -76.5408652079999, 3.428271489000053 ], [ -76.54082283799994, 3.428212884000061 ], [ -76.540770916999918, 3.42814106600008 ], [ -76.540719891999913, 3.428070494000053 ], [ -76.540678630999935, 3.428013418000091 ], [ -76.540640900999904, 3.427960921000079 ], [ -76.540590011999939, 3.427890114000093 ], [ -76.540537061999942, 3.427816442000051 ], [ -76.540485105999949, 3.42774415000008 ], [ -76.540418808999902, 3.427650351000068 ], [ -76.540418096999929, 3.427648275000081 ], [ -76.540417450999939, 3.427645812000094 ], [ -76.540416805999939, 3.427642828000046 ], [ -76.54041680499995, 3.427639716000044 ], [ -76.540416547999939, 3.427636862000043 ], [ -76.540417064999929, 3.427633620000051 ], [ -76.540418227999908, 3.427630768000085 ], [ -76.540420163999897, 3.427627138000048 ], [ -76.540422101999923, 3.427624415000082 ], [ -76.540424813999948, 3.427621430000045 ], [ -76.540428560999942, 3.427618450000068 ], [ -76.540432307999936, 3.427615466000077 ], [ -76.540660246999948, 3.427446687000042 ], [ -76.54071044199992, 3.427409522000062 ], [ -76.540760879999937, 3.427372173000037 ], [ -76.540810773999908, 3.427335231000086 ], [ -76.540869679999901, 3.427291618000083 ], [ -76.54092075199992, 3.427253799000084 ] ] ] } },
{ "type": "Feature", "properties": { "COD_DPTO": "76", "COD_MPIO": "76001", "COD_DANE": "7600110000000019320113", "ipm": 9.5, "OBJECTID": 1, "OID_": 0, "Name": "Roosevelt", "FolderPath": "Roosevelt.kmz", "SymbolID": 0, "AltMode": 0, "Base": 0.0, "Clamped": -1, "Extruded": 0, "Snippet": null, "PopupInfo": null, "Shape_Leng": 1641.93268188, "BUFF_DIST": 100.0, "ORIG_FID": 0, "Shape_Le_1": 0.028019003091599999, "Shape_Area": 42.917556573799999 }, "geometry": { "type": "Polygon", "coordinates": [ [ [ -76.539772875999915, 3.427125845000091 ], [ -76.539803217999918, 3.42712584700007 ], [ -76.53995580499992, 3.427347052000073 ], [ -76.540002071999936, 3.427414124000052 ], [ -76.540048105999915, 3.42748086000006 ], [ -76.54009452899993, 3.42754816300004 ], [ -76.540169560999914, 3.427656937000052 ], [ -76.540059140999915, 3.427736619000086 ], [ -76.53998669099991, 3.427788905000057 ], [ -76.539922002999901, 3.42783558800005 ], [ -76.539859971999931, 3.427880350000066 ], [ -76.53979305699994, 3.427928639000072 ], [ -76.539720417999945, 3.427981062000072 ], [ -76.539559691999898, 3.428097049000087 ], [ -76.539394415999936, 3.428216319000057 ], [ -76.539288212999907, 3.428111916000091 ], [ -76.539437257999907, 3.427808675000051 ], [ -76.539477657999953, 3.427726477000078 ], [ -76.539516298999899, 3.42764786500004 ], [ -76.539556409999932, 3.427566260000049 ], [ -76.539604847999897, 3.427467708000052 ], [ -76.539653833999921, 3.427368047000073 ], [ -76.539772875999915, 3.427125845000091 ] ] ] } },
{ "type": "Feature", "properties": { "COD_DPTO": "76", "COD_MPIO": "76001", "COD_DANE": "7600110000000019320114", "ipm": 4.2, "OBJECTID": 1, "OID_": 0, "Name": "Roosevelt", "FolderPath": "Roosevelt.kmz", "SymbolID": 0, "AltMode": 0, "Base": 0.0, "Clamped": -1, "Extruded": 0, "Snippet": null, "PopupInfo": null, "Shape_Leng": 1641.93268188, "BUFF_DIST": 100.0, "ORIG_FID": 0, "Shape_Le_1": 0.028019003091599999, "Shape_Area": 42.917556573799999 }, "geometry": { "type": "Polygon", "coordinates": [ [ [ -76.54114403199992, 3.426097525000046 ], [ -76.541292038999927, 3.42598875300007 ], [ -76.541353837999907, 3.426069159000065 ], [ -76.541408300999933, 3.426140019000059 ], [ -76.541461814999934, 3.42620964200006 ], [ -76.541516743999921, 3.426281112000083 ], [ -76.541570904999901, 3.426351576000059 ], [ -76.541625256999907, 3.426422295000066 ], [ -76.5416882479999, 3.426504249000061 ], [ -76.541543458999911, 3.42661366100009 ], [ -76.541471421999915, 3.426668093000046 ], [ -76.541417373999934, 3.426708935000079 ], [ -76.541365483999925, 3.426748147000069 ], [ -76.541310771999918, 3.426789492000069 ], [ -76.5412566359999, 3.426830399000039 ], [ -76.541201761999901, 3.426871862000041 ], [ -76.54115024999993, 3.426910791000068 ], [ -76.541095893999909, 3.426951864000046 ], [ -76.541043083999909, 3.42699176900004 ], [ -76.540986129999908, 3.427034804000073 ], [ -76.540929312999936, 3.427077738000094 ], [ -76.540870562999942, 3.427122134000058 ], [ -76.540813023999931, 3.427165611000078 ], [ -76.54052403399993, 3.427383986000052 ], [ -76.540383771999927, 3.427489975000071 ], [ -76.540357428999926, 3.427509880000059 ], [ -76.54018573299993, 3.427281150000056 ], [ -76.540141982999899, 3.427222869000047 ], [ -76.540123696999899, 3.42719850800006 ], [ -76.540113683999948, 3.427185171000076 ], [ -76.539953833999903, 3.426972221000085 ], [ -76.540392052999948, 3.426650166000059 ], [ -76.540421002999949, 3.426628891000064 ], [ -76.540485392999926, 3.426581572000089 ], [ -76.540548545999911, 3.426535161000061 ], [ -76.540611727999931, 3.42648872400008 ], [ -76.540674115999934, 3.426442874000088 ], [ -76.540736659999936, 3.426396913000076 ], [ -76.540798615999904, 3.426351382000064 ], [ -76.540859121999915, 3.42630691100004 ], [ -76.540930937999917, 3.426254134000089 ], [ -76.541001705999918, 3.426202125000088 ], [ -76.541074540999944, 3.426148597000065 ], [ -76.54114403199992, 3.426097525000046 ] ] ] } },
{ "type": "Feature", "properties": { "COD_DPTO": "76", "COD_MPIO": "76001", "COD_DANE": "7600110000000019330114", "ipm": 0.0, "OBJECTID": 1, "OID_": 0, "Name": "Roosevelt", "FolderPath": "Roosevelt.kmz", "SymbolID": 0, "AltMode": 0, "Base": 0.0, "Clamped": -1, "Extruded": 0, "Snippet": null, "PopupInfo": null, "Shape_Leng": 1641.93268188, "BUFF_DIST": 100.0, "ORIG_FID": 0, "Shape_Le_1": 0.028019003091599999, "Shape_Area": 42.917556573799999 }, "geometry": { "type": "Polygon", "coordinates": [ [ [ -76.540689599999951, 3.425255074000063 ], [ -76.540733488999933, 3.425254193000058 ], [ -76.540781236999919, 3.425321874000076 ], [ -76.540820625999913, 3.425377702000048 ], [ -76.540836819999925, 3.425400659000047 ], [ -76.540850724999927, 3.425420168000073 ], [ -76.540864211999917, 3.42543909200009 ], [ -76.540878369999916, 3.425458960000071 ], [ -76.540908024999908, 3.425500569000064 ], [ -76.540919626999937, 3.42551684600005 ], [ -76.540935598999909, 3.425539255000047 ], [ -76.540957531999936, 3.425570031000063 ], [ -76.540993101999902, 3.425620323000089 ], [ -76.541050495999912, 3.425701476000086 ], [ -76.541078353999922, 3.425740863000044 ], [ -76.541107359999899, 3.425781899000071 ], [ -76.541195264999942, 3.425906270000041 ], [ -76.541148438999926, 3.42594018300008 ], [ -76.541132088999916, 3.425952020000068 ], [ -76.541087250999908, 3.425984493000044 ], [ -76.541068998999947, 3.425997712000083 ], [ -76.541053313999953, 3.426009071000067 ], [ -76.54098935199994, 3.426055394000059 ], [ -76.54090287899993, 3.425926321000077 ], [ -76.540889742999923, 3.425906718000078 ], [ -76.540876569999909, 3.425887046000071 ], [ -76.540847583999948, 3.425843784000051 ], [ -76.54083322799994, 3.425822356000083 ], [ -76.540828223999938, 3.425814886000069 ], [ -76.540822100999947, 3.425805768000089 ], [ -76.540792501999931, 3.425761678000072 ], [ -76.540777431999913, 3.425739233000058 ], [ -76.540764639999907, 3.425720177000073 ], [ -76.540745735999906, 3.425692022000078 ], [ -76.540737469999897, 3.425679794000075 ], [ -76.540724336999915, 3.425660368000081 ], [ -76.540699006999944, 3.425622890000056 ], [ -76.540681837999898, 3.425597487000061 ], [ -76.540667750999944, 3.425576643000056 ], [ -76.540662206999912, 3.425568439000074 ], [ -76.540657044999932, 3.425560763000078 ], [ -76.540625470999942, 3.42551379300005 ], [ -76.540590434999899, 3.425461670000061 ], [ -76.540562077999937, 3.425419487000056 ], [ -76.540526272999898, 3.425364387000059 ], [ -76.54062319499991, 3.425299518000088 ], [ -76.540689599999951, 3.425255074000063 ] ] ] } },
{ "type": "Feature", "properties": { "COD_DPTO": "76", "COD_MPIO": "76001", "COD_DANE": "7600110000000019330115", "ipm": 0.0, "OBJECTID": 1, "OID_": 0, "Name": "Roosevelt", "FolderPath": "Roosevelt.kmz", "SymbolID": 0, "AltMode": 0, "Base": 0.0, "Clamped": -1, "Extruded": 0, "Snippet": null, "PopupInfo": null, "Shape_Leng": 1641.93268188, "BUFF_DIST": 100.0, "ORIG_FID": 0, "Shape_Le_1": 0.028019003091599999, "Shape_Area": 42.917556573799999 }, "geometry": { "type": "Polygon", "coordinates": [ [ [ -76.540459720999934, 3.425661395000077 ], [ -76.540550228999905, 3.425583003000042 ], [ -76.540589902999898, 3.425634892000062 ], [ -76.540631332999908, 3.425689080000041 ], [ -76.540661709999938, 3.425731521000046 ], [ -76.540671873999941, 3.425745722000045 ], [ -76.54068699499993, 3.425766850000059 ], [ -76.540717389999941, 3.425809317000073 ], [ -76.540743230999908, 3.425845419000041 ], [ -76.540770896999902, 3.425884075000056 ], [ -76.540784370999916, 3.42590290000004 ], [ -76.54080046699994, 3.425925388000053 ], [ -76.540807711999946, 3.425935514000059 ], [ -76.540829843999916, 3.425967038000067 ], [ -76.540841243999921, 3.425983274000089 ], [ -76.540855514999919, 3.426003605000062 ], [ -76.540923158999931, 3.426099960000045 ], [ -76.540828444999931, 3.426169007000055 ], [ -76.54073440399992, 3.426237566000054 ], [ -76.54066152799993, 3.426136736000046 ], [ -76.540648823999902, 3.426119157000073 ], [ -76.540620819999901, 3.426080408000075 ], [ -76.540604753999901, 3.426058183000066 ], [ -76.540592174999915, 3.426040779000061 ], [ -76.540579066999953, 3.426022643000067 ], [ -76.540576126999952, 3.426018574000068 ], [ -76.540548163999915, 3.425980150000044 ], [ -76.540534709999918, 3.425961661000088 ], [ -76.5405226499999, 3.425945091000074 ], [ -76.540491679999946, 3.425902532000066 ], [ -76.540435393999928, 3.42582518800009 ], [ -76.540425179999943, 3.425811153000041 ], [ -76.540371808999907, 3.425737540000057 ], [ -76.540404394999939, 3.425709316000052 ], [ -76.540421943999945, 3.425694115000056 ], [ -76.540459720999934, 3.425661395000077 ] ] ] } },
{ "type": "Feature", "properties": { "COD_DPTO": "76", "COD_MPIO": "76001", "COD_DANE": "7600110000000019330116", "ipm": 25.0, "OBJECTID": 1, "OID_": 0, "Name": "Roosevelt", "FolderPath": "Roosevelt.kmz", "SymbolID": 0, "AltMode": 0, "Base": 0.0, "Clamped": -1, "Extruded": 0, "Snippet": null, "PopupInfo": null, "Shape_Leng": 1641.93268188, "BUFF_DIST": 100.0, "ORIG_FID": 0, "Shape_Le_1": 0.028019003091599999, "Shape_Area": 42.917556573799999 }, "geometry": { "type": "Polygon", "coordinates": [ [ [ -76.540236393999919, 3.426629102000049 ], [ -76.539927558999921, 3.42685160800005 ], [ -76.539865733999932, 3.42687464100004 ], [ -76.539851507999913, 3.426875478000056 ], [ -76.539841463999949, 3.426876069000059 ], [ -76.539815765999947, 3.426857509000058 ], [ -76.53982433199991, 3.426821817000075 ], [ -76.53984003599993, 3.426780414000064 ], [ -76.540018495999902, 3.426372099000048 ], [ -76.540058599999952, 3.42638321600009 ], [ -76.540065525999921, 3.426392071000066 ], [ -76.540144675999898, 3.426332572000092 ], [ -76.540211658999908, 3.426282220000076 ], [ -76.540222688999904, 3.426274 ], [ -76.540302763999932, 3.426214324000057 ], [ -76.540380375999916, 3.426156485000092 ], [ -76.540392202999897, 3.42614767200007 ], [ -76.540460442999915, 3.426096815000051 ], [ -76.54054188899994, 3.426036117000081 ], [ -76.540563124999949, 3.426065632000075 ], [ -76.540599523999902, 3.42611622600009 ], [ -76.540620990999912, 3.426146062000043 ], [ -76.540699508999921, 3.426255195000067 ], [ -76.540657326999906, 3.426285893000056 ], [ -76.540617212999905, 3.426315086000045 ], [ -76.540598090999936, 3.426329003000092 ], [ -76.540559410999947, 3.426357153000083 ], [ -76.540538732999948, 3.426372202000039 ], [ -76.540459923999947, 3.426429558000052 ], [ -76.540414419999934, 3.42646267300006 ], [ -76.540379431999952, 3.426488087000052 ], [ -76.540359060999947, 3.426502883000069 ], [ -76.540322245999903, 3.426529625000057 ], [ -76.540301008999904, 3.426545049000083 ], [ -76.54028176199995, 3.426559028000042 ], [ -76.540219882999907, 3.42660397700007 ], [ -76.540236393999919, 3.426629102000049 ] ] ] } },
{ "type": "Feature", "properties": { "COD_DPTO": "76", "COD_MPIO": "76001", "COD_DANE": "7600110000000019330214", "ipm": 0.0, "OBJECTID": 1, "OID_": 0, "Name": "Roosevelt", "FolderPath": "Roosevelt.kmz", "SymbolID": 0, "AltMode": 0, "Base": 0.0, "Clamped": -1, "Extruded": 0, "Snippet": null, "PopupInfo": null, "Shape_Leng": 1641.93268188, "BUFF_DIST": 100.0, "ORIG_FID": 0, "Shape_Le_1": 0.028019003091599999, "Shape_Area": 42.917556573799999 }, "geometry": { "type": "Polygon", "coordinates": [ [ [ -76.540027141999929, 3.425298382000051 ], [ -76.540231681999899, 3.425282542000048 ], [ -76.540168904999916, 3.425427656000068 ], [ -76.540167929999939, 3.425429865000069 ], [ -76.540134580999904, 3.42550533800005 ], [ -76.540133154999921, 3.425508514000057 ], [ -76.540104997999947, 3.425571282000078 ], [ -76.540103294999938, 3.425575128000048 ], [ -76.540075746999946, 3.425637377000044 ], [ -76.540073699999937, 3.425642091000043 ], [ -76.540046955999912, 3.425703673000044 ], [ -76.540044192999915, 3.425710033000087 ], [ -76.5400181629999, 3.425769973000058 ], [ -76.540014383999903, 3.42577844300007 ], [ -76.539986883999916, 3.425840106000066 ], [ -76.539982446999943, 3.425850035000053 ], [ -76.539936452999939, 3.425952939000069 ], [ -76.539750805999915, 3.42588390800006 ], [ -76.539749868999934, 3.425883555000041 ], [ -76.539683429999911, 3.425858445000074 ], [ -76.539682657999947, 3.425858156000061 ], [ -76.539611719999925, 3.425831726000069 ], [ -76.539540181999939, 3.425804544000073 ], [ -76.539468844999931, 3.425776833000043 ], [ -76.539397955999902, 3.425747697000077 ], [ -76.53939555799991, 3.425746711000045 ], [ -76.539302333999899, 3.425706945000059 ], [ -76.539344429999915, 3.425587779000068 ], [ -76.539370988999906, 3.425518211000053 ], [ -76.539396567999916, 3.425451200000055 ], [ -76.539444849999938, 3.425342613000055 ], [ -76.539600951999944, 3.425330565000081 ], [ -76.539681691999931, 3.425324336000074 ], [ -76.539762434999943, 3.425318105000088 ], [ -76.539763082999912, 3.425318059000062 ], [ -76.539843191999921, 3.42531206700005 ], [ -76.539926210999909, 3.42530585600008 ], [ -76.539928432999943, 3.425305692000052 ], [ -76.540025925999942, 3.425298474000044 ], [ -76.540027141999929, 3.425298382000051 ] ] ] } },
{ "type": "Feature", "properties": { "COD_DPTO": "76", "COD_MPIO": "76001", "COD_DANE": "7600110000000019330216", "ipm": 0.0, "OBJECTID": 1, "OID_": 0, "Name": "Roosevelt", "FolderPath": "Roosevelt.kmz", "SymbolID": 0, "AltMode": 0, "Base": 0.0, "Clamped": -1, "Extruded": 0, "Snippet": null, "PopupInfo": null, "Shape_Leng": 1641.93268188, "BUFF_DIST": 100.0, "ORIG_FID": 0, "Shape_Le_1": 0.028019003091599999, "Shape_Area": 42.917556573799999 }, "geometry": { "type": "Polygon", "coordinates": [ [ [ -76.539073568999925, 3.426317187000052 ], [ -76.539106562999905, 3.426298261000056 ], [ -76.539205609999897, 3.426409916000068 ], [ -76.539247435999926, 3.426457070000083 ], [ -76.539258298999926, 3.426469409000049 ], [ -76.539306152999927, 3.426523755000062 ], [ -76.539333029999909, 3.426554279000072 ], [ -76.53935085899991, 3.426574616000039 ], [ -76.539405006999914, 3.426636371000086 ], [ -76.539417865999951, 3.426651038000045 ], [ -76.53946202599991, 3.426701459000071 ], [ -76.539487738999924, 3.426730812000073 ], [ -76.539512445999947, 3.426758688000064 ], [ -76.539534345999925, 3.426783397000065 ], [ -76.539553198999897, 3.426803909000057 ], [ -76.539557909999928, 3.426840717000061 ], [ -76.539538528999913, 3.426889090000088 ], [ -76.539504643999919, 3.426973243000077 ], [ -76.539490261999902, 3.427008959000091 ], [ -76.539464748999933, 3.427077109000038 ], [ -76.539459357999931, 3.427091515000086 ], [ -76.539440418999902, 3.42713916200006 ], [ -76.539417893999939, 3.427195424000047 ], [ -76.53940846699993, 3.427219087000083 ], [ -76.539397515999951, 3.427249428000039 ], [ -76.5393524079999, 3.427232888000049 ], [ -76.539220857999908, 3.427184640000064 ], [ -76.539143762999913, 3.427156368000055 ], [ -76.53913538899991, 3.427153396000051 ], [ -76.539038196999911, 3.427118949000089 ], [ -76.539006220999909, 3.427107617000047 ], [ -76.538987833999897, 3.427100230000065 ], [ -76.538939214999914, 3.427083469000081 ], [ -76.538938553999913, 3.427083243000084 ], [ -76.53884146799993, 3.42704926600004 ], [ -76.538835554999935, 3.42704771800004 ], [ -76.538832341999921, 3.427046701000052 ], [ -76.538829045999933, 3.427044436000074 ], [ -76.538826616999927, 3.427041996000071 ], [ -76.538825746999919, 3.427039034000074 ], [ -76.538825922999933, 3.427034506000041 ], [ -76.538826789999916, 3.427030321000075 ], [ -76.538849701999936, 3.42696042700004 ], [ -76.538853485999937, 3.426950128000044 ], [ -76.538869605999935, 3.426906268000039 ], [ -76.538875914999949, 3.426887179000062 ], [ -76.538881191999906, 3.426871222000045 ], [ -76.538901095999904, 3.42681443400005 ], [ -76.538917857999934, 3.426764480000088 ], [ -76.538926236999941, 3.426742921000084 ], [ -76.538940718999925, 3.426700518000075 ], [ -76.538951380999947, 3.426669306000065 ], [ -76.538955566999903, 3.426657467000041 ], [ -76.538970305999896, 3.426615790000085 ], [ -76.538972936999926, 3.426608347000069 ], [ -76.538985311999909, 3.426573188000077 ], [ -76.539003840999897, 3.426520534000076 ], [ -76.53900928999991, 3.426504550000061 ], [ -76.539017458999922, 3.426480570000081 ], [ -76.539029778999918, 3.426445558000069 ], [ -76.539047376999918, 3.426395536000086 ], [ -76.539049776999946, 3.426388359000043 ], [ -76.539073568999925, 3.426317187000052 ] ] ] } },
{ "type": "Feature", "properties": { "COD_DPTO": "76", "COD_MPIO": "76001", "COD_DANE": "7600110000000019330217", "ipm": 0.0, "OBJECTID": 1, "OID_": 0, "Name": "Roosevelt", "FolderPath": "Roosevelt.kmz", "SymbolID": 0, "AltMode": 0, "Base": 0.0, "Clamped": -1, "Extruded": 0, "Snippet": null, "PopupInfo": null, "Shape_Leng": 1641.93268188, "BUFF_DIST": 100.0, "ORIG_FID": 0, "Shape_Le_1": 0.028019003091599999, "Shape_Area": 42.917556573799999 }, "geometry": { "type": "Polygon", "coordinates": [ [ [ -76.538771425999926, 3.427156449000051 ], [ -76.538776125999902, 3.427156018000062 ], [ -76.538781251999922, 3.427157309000052 ], [ -76.53889640999995, 3.42720466600008 ], [ -76.538897039999938, 3.427204926000059 ], [ -76.538972172999934, 3.427236386000061 ], [ -76.539057246999903, 3.427271458000064 ], [ -76.539143614999944, 3.427307061000079 ], [ -76.539208470999938, 3.427333816000043 ], [ -76.539324361999945, 3.427382521000084 ], [ -76.539266032999933, 3.427521325000043 ], [ -76.539232924999908, 3.427597792000086 ], [ -76.53919981599995, 3.427673450000043 ], [ -76.539166291999948, 3.427749842000082 ], [ -76.539165789999913, 3.427750985000046 ], [ -76.539127938999911, 3.427837222000051 ], [ -76.539093420999905, 3.427915004000056 ], [ -76.539077219999911, 3.427951773000075 ], [ -76.539061191999906, 3.427989331000049 ], [ -76.539053754999941, 3.428005756000061 ], [ -76.539046054999915, 3.428021514000079 ], [ -76.538950082999918, 3.427890460000071 ], [ -76.538888581999913, 3.427806538000084 ], [ -76.538845117999927, 3.427747231000069 ], [ -76.538803499999915, 3.427691520000053 ], [ -76.538756977999924, 3.427629238000065 ], [ -76.53875684399992, 3.427629060000072 ], [ -76.538724618999936, 3.427585916000055 ], [ -76.538680822999936, 3.427527287000089 ], [ -76.538644484999907, 3.427475685000047 ], [ -76.538694403999898, 3.427335393000078 ], [ -76.53872356699992, 3.427253817000064 ], [ -76.538752626999951, 3.427177036000046 ], [ -76.538755617999925, 3.427168030000075 ], [ -76.538759461999916, 3.427162881000072 ], [ -76.538765443999921, 3.427157734000048 ], [ -76.538771425999926, 3.427156449000051 ] ] ] } },
{ "type": "Feature", "properties": { "COD_DPTO": "76", "COD_MPIO": "76001", "COD_DANE": "7600110000000019330218", "ipm": 0.0, "OBJECTID": 1, "OID_": 0, "Name": "Roosevelt", "FolderPath": "Roosevelt.kmz", "SymbolID": 0, "AltMode": 0, "Base": 0.0, "Clamped": -1, "Extruded": 0, "Snippet": null, "PopupInfo": null, "Shape_Leng": 1641.93268188, "BUFF_DIST": 100.0, "ORIG_FID": 0, "Shape_Le_1": 0.028019003091599999, "Shape_Area": 42.917556573799999 }, "geometry": { "type": "Polygon", "coordinates": [ [ [ -76.538466916999937, 3.425924515000077 ], [ -76.538494765999928, 3.425912879000066 ], [ -76.53862104399991, 3.425970960000086 ], [ -76.538637018999907, 3.425978571000087 ], [ -76.538714991999939, 3.426015712000037 ], [ -76.538739205999946, 3.426027250000061 ], [ -76.538792971999897, 3.426052807000076 ], [ -76.538871547999918, 3.426090155000054 ], [ -76.538978182999927, 3.426140843000042 ], [ -76.538991268999951, 3.426165521000087 ], [ -76.538953501999913, 3.426270680000073 ], [ -76.538923939999904, 3.426353117000076 ], [ -76.538905362999913, 3.426404920000039 ], [ -76.538890396999932, 3.426446652000038 ], [ -76.53888614199991, 3.426458575000083 ], [ -76.538856860999942, 3.426540627000065 ], [ -76.538818998999943, 3.426635002000069 ], [ -76.538788033999936, 3.426712182000074 ], [ -76.538757964999945, 3.426795394000067 ], [ -76.538757342999929, 3.426797113000077 ], [ -76.538727300999938, 3.426881952000087 ], [ -76.538702765999915, 3.426952963000076 ], [ -76.538675461999901, 3.427027619000057 ], [ -76.538609955999902, 3.427207182000075 ], [ -76.538565161999941, 3.427324428000077 ], [ -76.538535594999928, 3.427328062000072 ], [ -76.538455952999925, 3.427229924000073 ], [ -76.538390188999927, 3.427148143000068 ], [ -76.53835579899993, 3.427106344000038 ], [ -76.538167978999923, 3.42684302400005 ], [ -76.538196117999917, 3.426756448000049 ], [ -76.538212779999924, 3.42670552900006 ], [ -76.538227744999915, 3.426659801000085 ], [ -76.53823198799995, 3.426645851000046 ], [ -76.538250109999922, 3.426586242000042 ], [ -76.538260777999938, 3.426551159000041 ], [ -76.538269186999912, 3.426525564000087 ], [ -76.53829457899991, 3.426448285000049 ], [ -76.538314993999904, 3.426386148000063 ], [ -76.538320600999953, 3.426369721000071 ], [ -76.538367000999926, 3.426233770000067 ], [ -76.53837412799993, 3.426212234000047 ], [ -76.538405730999898, 3.426116740000055 ], [ -76.538409508999905, 3.426104870000074 ], [ -76.538435799999945, 3.426022271000079 ], [ -76.538466916999937, 3.425924515000077 ] ] ] } },
{ "type": "Feature", "properties": { "COD_DPTO": "76", "COD_MPIO": "76001", "COD_DANE": "7600110000000019330219", "ipm": 8.2, "OBJECTID": 1, "OID_": 0, "Name": "Roosevelt", "FolderPath": "Roosevelt.kmz", "SymbolID": 0, "AltMode": 0, "Base": 0.0, "Clamped": -1, "Extruded": 0, "Snippet": null, "PopupInfo": null, "Shape_Leng": 1641.93268188, "BUFF_DIST": 100.0, "ORIG_FID": 0, "Shape_Le_1": 0.028019003091599999, "Shape_Area": 42.917556573799999 }, "geometry": { "type": "Polygon", "coordinates": [ [ [ -76.537866726999937, 3.425708719000056 ], [ -76.537890846999915, 3.425624950000042 ], [ -76.538053219999938, 3.425704449000079 ], [ -76.53807637999995, 3.425715789000094 ], [ -76.538125621999939, 3.425740303000055 ], [ -76.53818642199991, 3.425770571000044 ], [ -76.538292288999912, 3.425823272000059 ], [ -76.538367906999952, 3.425861409000049 ], [ -76.538345909999919, 3.425925695000046 ], [ -76.538329482999927, 3.425973697000074 ], [ -76.538324618999923, 3.425988439000093 ], [ -76.538305654999931, 3.426045907000059 ], [ -76.538302967999925, 3.426053933000048 ], [ -76.538282137999943, 3.42611615800007 ], [ -76.538260428999934, 3.426180203000058 ], [ -76.538238867999951, 3.426243815000078 ], [ -76.538217622999923, 3.426307127000086 ], [ -76.538196570999901, 3.426369858000044 ], [ -76.538175364999915, 3.426431542000046 ], [ -76.538142773999937, 3.426526337000041 ], [ -76.53811991799995, 3.426592821000042 ], [ -76.538080479999905, 3.426709177000077 ], [ -76.53798228799991, 3.426579403000062 ], [ -76.537964835999901, 3.42655633600009 ], [ -76.537886296999943, 3.426451893000092 ], [ -76.537835437999945, 3.426384260000077 ], [ -76.537814213999923, 3.426356037000062 ], [ -76.537715061999904, 3.426223120000088 ], [ -76.537722059999908, 3.426198858000078 ], [ -76.537728828999946, 3.426175402000069 ], [ -76.537736264999921, 3.426149639000073 ], [ -76.537745166999912, 3.426118794000047 ], [ -76.537753686999906, 3.426090272000067 ], [ -76.53777131399994, 3.426031264000073 ], [ -76.53778916199991, 3.425971519000086 ], [ -76.53780146899993, 3.425930318000042 ], [ -76.537806970999952, 3.425912521000043 ], [ -76.53782022799993, 3.425869639000041 ], [ -76.537824905999912, 3.425853534000055 ], [ -76.537838916999931, 3.425805310000044 ], [ -76.537842566999927, 3.425792637000086 ], [ -76.537866726999937, 3.425708719000056 ] ] ] } },
{ "type": "Feature", "properties": { "COD_DPTO": "76", "COD_MPIO": "76001", "COD_DANE": "7600110000000019370101", "ipm": 0.0, "OBJECTID": 1, "OID_": 0, "Name": "Roosevelt", "FolderPath": "Roosevelt.kmz", "SymbolID": 0, "AltMode": 0, "Base": 0.0, "Clamped": -1, "Extruded": 0, "Snippet": null, "PopupInfo": null, "Shape_Leng": 1641.93268188, "BUFF_DIST": 100.0, "ORIG_FID": 0, "Shape_Le_1": 0.028019003091599999, "Shape_Area": 42.917556573799999 }, "geometry": { "type": "Polygon", "coordinates": [ [ [ -76.537161255999933, 3.427251638000087 ], [ -76.537261573999899, 3.426907376000088 ], [ -76.53729865899993, 3.426778933000094 ], [ -76.537446609999904, 3.426653146000092 ], [ -76.537552915999925, 3.426569269000083 ], [ -76.53760055999993, 3.426578099000039 ], [ -76.537652554999909, 3.426632447000088 ], [ -76.537726076999945, 3.426726371000086 ], [ -76.537776667999935, 3.426792404000082 ], [ -76.537964984999917, 3.427039612000044 ], [ -76.537969561999944, 3.427066345000071 ], [ -76.537958302999925, 3.427115041000093 ], [ -76.53796413099991, 3.427116544000057 ], [ -76.537947923999923, 3.427168330000086 ], [ -76.537854351999897, 3.427467334000085 ], [ -76.537476506999951, 3.427354010000045 ], [ -76.537161255999933, 3.427251638000087 ] ] ] } },
{ "type": "Feature", "properties": { "COD_DPTO": "76", "COD_MPIO": "76001", "COD_DANE": "7600110000000019370102", "ipm": 0.0, "OBJECTID": 1, "OID_": 0, "Name": "Roosevelt", "FolderPath": "Roosevelt.kmz", "SymbolID": 0, "AltMode": 0, "Base": 0.0, "Clamped": -1, "Extruded": 0, "Snippet": null, "PopupInfo": null, "Shape_Leng": 1641.93268188, "BUFF_DIST": 100.0, "ORIG_FID": 0, "Shape_Le_1": 0.028019003091599999, "Shape_Area": 42.917556573799999 }, "geometry": { "type": "Polygon", "coordinates": [ [ [ -76.537132176999933, 3.427343385000086 ], [ -76.537133942999901, 3.427343378000046 ], [ -76.537135705999901, 3.42734346900005 ], [ -76.537137460999929, 3.427343656000062 ], [ -76.537139202999924, 3.427343941000061 ], [ -76.537140928999918, 3.427344319000042 ], [ -76.537142629999948, 3.427344792000042 ], [ -76.537321147999933, 3.427399837000053 ], [ -76.537413754999932, 3.427429425000071 ], [ -76.537505633999899, 3.427458340000044 ], [ -76.537598552999953, 3.427486921000082 ], [ -76.5376914389999, 3.427515620000065 ], [ -76.537795359999905, 3.42754741400006 ], [ -76.537797020999903, 3.427547969000045 ], [ -76.5377986499999, 3.42754861800006 ], [ -76.537800236999942, 3.427549354000064 ], [ -76.537801786999921, 3.427550177000057 ], [ -76.537803288999953, 3.427551081000047 ], [ -76.537804740999945, 3.427552067000079 ], [ -76.537806134999926, 3.427553132000071 ], [ -76.537807469999905, 3.427554268000051 ], [ -76.537808742999914, 3.427555476000066 ], [ -76.53780994899995, 3.42755675300009 ], [ -76.537811080999916, 3.427558093000073 ], [ -76.53781214199995, 3.427559495000082 ], [ -76.537813123999911, 3.427560948000064 ], [ -76.5378140279999, 3.427562456000089 ], [ -76.537814848999915, 3.427564013000051 ], [ -76.537815581999951, 3.427565609000055 ], [ -76.537816229999919, 3.427567243000055 ], [ -76.53781678799993, 3.427568911000094 ], [ -76.537817252999901, 3.427570606000074 ], [ -76.537817628999903, 3.427572325000085 ], [ -76.537817909999944, 3.42757406000004 ], [ -76.537818096999899, 3.427575811000054 ], [ -76.53781818899995, 3.427577567000071 ], [ -76.537818184999935, 3.427579330000071 ], [ -76.537818087999938, 3.427581082000074 ], [ -76.537817894999932, 3.427582833000088 ], [ -76.537817608999944, 3.427584568000043 ], [ -76.537817227999938, 3.427586287000054 ], [ -76.537816754999938, 3.427587979000066 ], [ -76.537768997999933, 3.427742810000041 ], [ -76.537747687999911, 3.427811903000077 ], [ -76.537676899999951, 3.42804512400005 ], [ -76.53767653999995, 3.42804620600009 ], [ -76.537676121999937, 3.428047264000043 ], [ -76.537675644999922, 3.428048296000043 ], [ -76.537675116999935, 3.42804930200009 ], [ -76.537674533999905, 3.428050275000089 ], [ -76.537673895999944, 3.428051218000064 ], [ -76.537673210999912, 3.428052121000064 ], [ -76.537672478999923, 3.428052988000047 ], [ -76.537671696999951, 3.428053814000066 ], [ -76.537670872999911, 3.428054594000059 ], [ -76.537670009999943, 3.428055329000074 ], [ -76.537669106999942, 3.428056014000049 ], [ -76.537668167999925, 3.428056651000077 ], [ -76.537667195999916, 3.428057233000061 ], [ -76.537666193999939, 3.428057763000083 ], [ -76.537665163999918, 3.428058234000048 ], [ -76.537664109999923, 3.428058650000082 ], [ -76.537663033999934, 3.428059010000084 ], [ -76.537661939999907, 3.42805930500009 ], [ -76.537660833999951, 3.428059545000053 ], [ -76.537659715999951, 3.428059720000078 ], [ -76.537658588999932, 3.428059836000045 ], [ -76.537657457999899, 3.428059890000043 ], [ -76.537656325999933, 3.428059881000081 ], [ -76.537655195999946, 3.428059813000061 ], [ -76.537654070999906, 3.428059678000068 ], [ -76.537652955999931, 3.428059483000084 ], [ -76.537651851999897, 3.428059228000052 ], [ -76.537650762999931, 3.428058915000065 ], [ -76.53755157799992, 3.42802722600004 ], [ -76.537463102999936, 3.42799950300008 ], [ -76.537374012999919, 3.427972242000067 ], [ -76.537285081999926, 3.427942981000058 ], [ -76.537164800999903, 3.427905373000044 ], [ -76.537079208999899, 3.42787749300004 ], [ -76.536990633999949, 3.427848526000048 ], [ -76.536989003999906, 3.427847943000074 ], [ -76.536987405999923, 3.427847274000044 ], [ -76.536985847999915, 3.427846517000091 ], [ -76.536984330999928, 3.427845680000075 ], [ -76.536982862999935, 3.427844761000074 ], [ -76.536981445999913, 3.427843765000091 ], [ -76.536980080999911, 3.427842694000049 ], [ -76.536978775999899, 3.427841552000075 ], [ -76.536977535999938, 3.427840340000046 ], [ -76.536976359999926, 3.427839062000089 ], [ -76.536975255999948, 3.427837723000039 ], [ -76.536974224999938, 3.42783632700008 ], [ -76.536973269999919, 3.427834877000066 ], [ -76.536972391999939, 3.42783337700007 ], [ -76.536971597999923, 3.427831834000074 ], [ -76.536970886999939, 3.427830245000052 ], [ -76.536970261999898, 3.427828626000064 ], [ -76.536969722999913, 3.427826974000084 ], [ -76.536969273999944, 3.427825293000069 ], [ -76.536968913999942, 3.427823593000085 ], [ -76.536968647999913, 3.427821874000074 ], [ -76.536968471999899, 3.427820145000055 ], [ -76.536968388999924, 3.427818407000075 ], [ -76.536968399999921, 3.427816669000038 ], [ -76.536968501999922, 3.427814933000093 ], [ -76.536968697999953, 3.427813204000074 ], [ -76.53696898499993, 3.427811490000067 ], [ -76.536969365999937, 3.427809794000041 ], [ -76.536969833999933, 3.427808119000076 ], [ -76.537005681999915, 3.427692210000089 ], [ -76.537037708999947, 3.427587645000074 ], [ -76.537068782999938, 3.427483732000042 ], [ -76.537102201999915, 3.427366813000049 ], [ -76.53710273799993, 3.427365122000083 ], [ -76.537103361999925, 3.427363462000073 ], [ -76.537104076999924, 3.42736184000006 ], [ -76.537104876999933, 3.427360260000057 ], [ -76.537105763999932, 3.42735872500009 ], [ -76.537106732999916, 3.427357243000074 ], [ -76.537107780999918, 3.427355815000055 ], [ -76.537108905999901, 3.427354448000074 ], [ -76.537110101999929, 3.427353144000051 ], [ -76.537111368999945, 3.427351909000038 ], [ -76.537112700999899, 3.427350746000059 ], [ -76.537114094999936, 3.427349656000047 ], [ -76.537115547999917, 3.427348644000062 ], [ -76.537117049999949, 3.427347715000053 ], [ -76.537118600999918, 3.427346869000075 ], [ -76.537120196999922, 3.427346111000077 ], [ -76.537121830999922, 3.427345441000057 ], [ -76.53712350099994, 3.427344864000077 ], [ -76.537125197999899, 3.427344377000054 ], [ -76.537126919999935, 3.427343986000039 ], [ -76.53712866099994, 3.427343688000065 ], [ -76.537130415999911, 3.427343488000076 ], [ -76.537132176999933, 3.427343385000086 ] ] ] } },
{ "type": "Feature", "properties": { "COD_DPTO": "76", "COD_MPIO": "76001", "COD_DANE": "7600110000000019370103", "ipm": 0.0, "OBJECTID": 1, "OID_": 0, "Name": "Roosevelt", "FolderPath": "Roosevelt.kmz", "SymbolID": 0, "AltMode": 0, "Base": 0.0, "Clamped": -1, "Extruded": 0, "Snippet": null, "PopupInfo": null, "Shape_Leng": 1641.93268188, "BUFF_DIST": 100.0, "ORIG_FID": 0, "Shape_Le_1": 0.028019003091599999, "Shape_Area": 42.917556573799999 }, "geometry": { "type": "Polygon", "coordinates": [ [ [ -76.53803125099995, 3.427322306000065 ], [ -76.538075989999925, 3.42718149600006 ], [ -76.538126027999908, 3.427246147000062 ], [ -76.538187616999949, 3.427325731000053 ], [ -76.53824893299992, 3.427404957000078 ], [ -76.538291190999928, 3.427459557000077 ], [ -76.538331513999935, 3.427511663000075 ], [ -76.538371838999922, 3.427563767000038 ], [ -76.538461083999948, 3.42768637000006 ], [ -76.538519783999902, 3.427767011000071 ], [ -76.53857821899993, 3.427847287000077 ], [ -76.538615935999928, 3.427899103000073 ], [ -76.538654182999949, 3.427951648000089 ], [ -76.538692963999949, 3.428004924000049 ], [ -76.538730679999901, 3.428056738000066 ], [ -76.538881849999939, 3.428270467000061 ], [ -76.53861203799994, 3.428312806000065 ], [ -76.538534252999909, 3.428325027000085 ], [ -76.538470782999923, 3.428311982000082 ], [ -76.538410166999938, 3.428291713000078 ], [ -76.538348445999929, 3.42827107100004 ], [ -76.538243560999945, 3.42823702700008 ], [ -76.538139954999906, 3.428203409000048 ], [ -76.538036349999913, 3.428169792000062 ], [ -76.537930601999904, 3.428135479000048 ], [ -76.537809360999915, 3.428094965000071 ], [ -76.537808362999897, 3.428094682000051 ], [ -76.537807377999911, 3.428094349000048 ], [ -76.537806408999927, 3.428093965000073 ], [ -76.537805465999952, 3.428093533000037 ], [ -76.537804542999936, 3.428093052000065 ], [ -76.537803643999951, 3.428092528000093 ], [ -76.537802772999953, 3.428091957000049 ], [ -76.537801932999912, 3.428091342000073 ], [ -76.537801122999952, 3.428090688000054 ], [ -76.537800349999941, 3.428089991000093 ], [ -76.537799609999922, 3.428089259000046 ], [ -76.537798909999935, 3.428088489000061 ], [ -76.537798247999945, 3.428087682000069 ], [ -76.537797626999918, 3.428086845000053 ], [ -76.537797048999948, 3.428085976000091 ], [ -76.537796516999947, 3.428085080000074 ], [ -76.537796028999935, 3.428084159000093 ], [ -76.537795587999938, 3.428083215000072 ], [ -76.537795195999934, 3.428082246000088 ], [ -76.537794852999923, 3.428081262000092 ], [ -76.537794559999952, 3.42808025800008 ], [ -76.537794315999918, 3.42807924400006 ], [ -76.537794123999902, 3.428078218000053 ], [ -76.537793983999904, 3.428077187000042 ], [ -76.537793896999915, 3.428076143000055 ], [ -76.537793859999908, 3.428075101000047 ], [ -76.53779387499992, 3.428074056000071 ], [ -76.537793944999919, 3.428073014000063 ], [ -76.537794066999936, 3.428071976000069 ], [ -76.537840474999939, 3.427923612000086 ], [ -76.537857471999928, 3.427869271000077 ], [ -76.537880461999919, 3.427796915000044 ], [ -76.537910837999902, 3.427701306000074 ], [ -76.53794094299991, 3.427606556000057 ], [ -76.537971046999928, 3.427511806000041 ], [ -76.538001148999911, 3.427417055000092 ], [ -76.538029191999897, 3.427328789000057 ], [ -76.53803125099995, 3.427322306000065 ] ] ] } },
{ "type": "Feature", "properties": { "COD_DPTO": "76", "COD_MPIO": "76001", "COD_DANE": "7600110000000019370104", "ipm": 8.7, "OBJECTID": 1, "OID_": 0, "Name": "Roosevelt", "FolderPath": "Roosevelt.kmz", "SymbolID": 0, "AltMode": 0, "Base": 0.0, "Clamped": -1, "Extruded": 0, "Snippet": null, "PopupInfo": null, "Shape_Leng": 1641.93268188, "BUFF_DIST": 100.0, "ORIG_FID": 0, "Shape_Le_1": 0.028019003091599999, "Shape_Area": 42.917556573799999 }, "geometry": { "type": "Polygon", "coordinates": [ [ [ -76.538788620999924, 3.428418394000062 ], [ -76.538873805999913, 3.428403641000045 ], [ -76.538923297999929, 3.428359859000068 ], [ -76.538970887999938, 3.42832369100006 ], [ -76.5390070549999, 3.42831607700009 ], [ -76.539016572999913, 3.42833511200007 ], [ -76.53899944099993, 3.428544505000048 ], [ -76.53895756299994, 3.429260247000059 ], [ -76.538908220999929, 3.429245034000076 ], [ -76.538331194999898, 3.429070427000056 ], [ -76.538461206999898, 3.428604943000039 ], [ -76.538508795999917, 3.428540222000038 ], [ -76.538527831999943, 3.428515476000086 ], [ -76.538568863999899, 3.428481283000053 ], [ -76.538619202999939, 3.428439333000085 ], [ -76.538680116999899, 3.42841268300009 ], [ -76.538720091999949, 3.42841268300009 ], [ -76.538788620999924, 3.428418394000062 ] ] ] } },
{ "type": "Feature", "properties": { "COD_DPTO": "76", "COD_MPIO": "76001", "COD_DANE": "7600110000000019370110", "ipm": 8.3, "OBJECTID": 1, "OID_": 0, "Name": "Roosevelt", "FolderPath": "Roosevelt.kmz", "SymbolID": 0, "AltMode": 0, "Base": 0.0, "Clamped": -1, "Extruded": 0, "Snippet": null, "PopupInfo": null, "Shape_Leng": 1641.93268188, "BUFF_DIST": 100.0, "ORIG_FID": 0, "Shape_Le_1": 0.028019003091599999, "Shape_Area": 42.917556573799999 }, "geometry": { "type": "Polygon", "coordinates": [ [ [ -76.538292916999922, 3.429236945000071 ], [ -76.53831806799991, 3.429220847000067 ], [ -76.538415355999916, 3.42925039000005 ], [ -76.53850407099992, 3.429277328000069 ], [ -76.5386188949999, 3.429311642000073 ], [ -76.538730743999906, 3.429344418000085 ], [ -76.53879984799994, 3.429364670000041 ], [ -76.538903504999951, 3.429395044000046 ], [ -76.538896583999929, 3.429545061000056 ], [ -76.538887835999901, 3.429734740000072 ], [ -76.538877836999916, 3.429951514000038 ], [ -76.538877738999929, 3.429952158000049 ], [ -76.538877618999948, 3.429952798000045 ], [ -76.538877475999925, 3.429953435000073 ], [ -76.538877311999897, 3.42995406600005 ], [ -76.538877124999942, 3.429954689000056 ], [ -76.538876916999925, 3.429955308000046 ], [ -76.538876688999949, 3.42995591600004 ], [ -76.538876435999953, 3.429956517000051 ], [ -76.53887616399993, 3.429957110000089 ], [ -76.538875872999938, 3.429957692000073 ], [ -76.538875559999951, 3.42995826300006 ], [ -76.538875226999949, 3.42995882200006 ], [ -76.53887487399993, 3.429959372000042 ], [ -76.538874503999921, 3.429959903000054 ], [ -76.538874112999906, 3.429960425000047 ], [ -76.538873704999901, 3.429960932000085 ], [ -76.53887328199994, 3.429961424000055 ], [ -76.538872838999907, 3.42996190100007 ], [ -76.53887237999993, 3.429962363000072 ], [ -76.538871904999951, 3.429962807000038 ], [ -76.538871415999949, 3.42996323400007 ], [ -76.538870911999936, 3.429963643000065 ], [ -76.5388703939999, 3.429964035000069 ], [ -76.53886986099991, 3.429964407000057 ], [ -76.538869314999943, 3.429964762000054 ], [ -76.538868757999921, 3.429965097000093 ], [ -76.538868189999903, 3.429965410000079 ], [ -76.538867610999944, 3.429965705000086 ], [ -76.53886702199992, 3.429965976000062 ], [ -76.538707869999939, 3.429960780000044 ], [ -76.538453570999934, 3.429884409000067 ], [ -76.53833893299992, 3.429850004000059 ], [ -76.538250226999935, 3.429823433000081 ], [ -76.538142452999921, 3.429793552000092 ], [ -76.538137370999948, 3.429776441000058 ], [ -76.538160929999947, 3.429692947000092 ], [ -76.538175222999939, 3.429642294000075 ], [ -76.538194237999903, 3.429574900000091 ], [ -76.538213262999932, 3.429507474000047 ], [ -76.538231430999929, 3.429443082000091 ], [ -76.538249350999934, 3.429379571000084 ], [ -76.538292916999922, 3.429236945000071 ] ] ] } },
{ "type": "Feature", "properties": { "COD_DPTO": "76", "COD_MPIO": "76001", "COD_DANE": "7600110000000019370111", "ipm": 15.2, "OBJECTID": 1, "OID_": 0, "Name": "Roosevelt", "FolderPath": "Roosevelt.kmz", "SymbolID": 0, "AltMode": 0, "Base": 0.0, "Clamped": -1, "Extruded": 0, "Snippet": null, "PopupInfo": null, "Shape_Leng": 1641.93268188, "BUFF_DIST": 100.0, "ORIG_FID": 0, "Shape_Le_1": 0.028019003091599999, "Shape_Area": 42.917556573799999 }, "geometry": { "type": "Polygon", "coordinates": [ [ [ -76.538075109999909, 3.429960889000085 ], [ -76.538094905999912, 3.429891351000038 ], [ -76.538197333999904, 3.42992229500004 ], [ -76.538268168999934, 3.429943695000077 ], [ -76.53833476099993, 3.429963813000086 ], [ -76.538420294999923, 3.429989653000064 ], [ -76.538506501999905, 3.430015696000055 ], [ -76.538541835999922, 3.430026371000054 ], [ -76.538627332999909, 3.430052198000055 ], [ -76.538706194999918, 3.430076022000094 ], [ -76.538724153999908, 3.430099817000041 ], [ -76.538720760999922, 3.430193346000067 ], [ -76.53871711499994, 3.430293833000064 ], [ -76.538694466999914, 3.430318540000087 ], [ -76.538584153999921, 3.430313747000071 ], [ -76.538493808999931, 3.430309817000079 ], [ -76.5384370189999, 3.430307349000088 ], [ -76.538377287999936, 3.430304748000083 ], [ -76.538286568999922, 3.430300807000037 ], [ -76.538214594999943, 3.430297673000041 ], [ -76.538142296999922, 3.430294532000062 ], [ -76.538007186999948, 3.430288656000073 ], [ -76.537991606999924, 3.430254236000053 ], [ -76.538014612999916, 3.430173421000063 ], [ -76.53803578499992, 3.430099040000073 ], [ -76.538054287999898, 3.430034040000066 ], [ -76.538064623999901, 3.429997726000067 ], [ -76.538075109999909, 3.429960889000085 ] ] ] } },
{ "type": "Feature", "properties": { "COD_DPTO": "76", "COD_MPIO": "76001", "COD_DANE": "7600110000000019370201", "ipm": 0.0, "OBJECTID": 1, "OID_": 0, "Name": "Roosevelt", "FolderPath": "Roosevelt.kmz", "SymbolID": 0, "AltMode": 0, "Base": 0.0, "Clamped": -1, "Extruded": 0, "Snippet": null, "PopupInfo": null, "Shape_Leng": 1641.93268188, "BUFF_DIST": 100.0, "ORIG_FID": 0, "Shape_Le_1": 0.028019003091599999, "Shape_Area": 42.917556573799999 }, "geometry": { "type": "Polygon", "coordinates": [ [ [ -76.537607476999938, 3.431982623000067 ], [ -76.537614579999911, 3.431827061000092 ], [ -76.537701961999915, 3.431829650000054 ], [ -76.537742335999951, 3.431830845000093 ], [ -76.537772906999919, 3.431832179000082 ], [ -76.537834171999918, 3.431834846000072 ], [ -76.537836994999907, 3.431834969000079 ], [ -76.537902773999917, 3.431837896000047 ], [ -76.537917837999942, 3.431838567000057 ], [ -76.537965933999942, 3.431840556000054 ], [ -76.537987065999914, 3.431841433000045 ], [ -76.538027191999902, 3.431843301000072 ], [ -76.538119458999915, 3.431847601000072 ], [ -76.538123380999934, 3.431847754000046 ], [ -76.538219255999934, 3.431851548000054 ], [ -76.538306614999897, 3.431855005000045 ], [ -76.538309195999943, 3.43185511300004 ], [ -76.538379366999948, 3.431858006000084 ], [ -76.538439037999922, 3.431860469000071 ], [ -76.538440739999942, 3.431860534000066 ], [ -76.538504523999904, 3.431862977000094 ], [ -76.53851562299991, 3.43186340200009 ], [ -76.538594443999898, 3.431866798000044 ], [ -76.538629980999929, 3.431868330000043 ], [ -76.538673905999929, 3.431869984000059 ], [ -76.538798386999929, 3.431874666000056 ], [ -76.538792120999915, 3.432028993000074 ], [ -76.538786849999951, 3.432158839000067 ], [ -76.538783233999936, 3.43225655100008 ], [ -76.538779676999923, 3.432352707000064 ], [ -76.538775352999949, 3.432469511000079 ], [ -76.538560723999922, 3.432460616000071 ], [ -76.538538216999939, 3.432459682000058 ], [ -76.53848936299994, 3.432457702000079 ], [ -76.538417202999938, 3.432454777000089 ], [ -76.538381562999916, 3.432453335000048 ], [ -76.538340810999898, 3.43245160500004 ], [ -76.538252519999901, 3.432447860000082 ], [ -76.538164350999921, 3.432444118000092 ], [ -76.538155871999948, 3.432443757000044 ], [ -76.538075062999951, 3.432440370000052 ], [ -76.537999197999909, 3.432437190000087 ], [ -76.537976964999928, 3.43243609700005 ], [ -76.537877902999924, 3.432431235000081 ], [ -76.537828470999898, 3.432429373000048 ], [ -76.537813681999921, 3.432428818000062 ], [ -76.537778924999941, 3.432427350000069 ], [ -76.537688972999945, 3.43242355600006 ], [ -76.537683643999912, 3.432423331000052 ], [ -76.537600875999942, 3.432420194000088 ], [ -76.537589576999949, 3.432419761000062 ], [ -76.537598357999912, 3.43219182100006 ], [ -76.537599861999922, 3.432152789000043 ], [ -76.537600371999929, 3.432141388000048 ], [ -76.537604279999925, 3.432054097000048 ], [ -76.537607138999931, 3.431990217000077 ], [ -76.537607476999938, 3.431982623000067 ] ] ] } },
{ "type": "Feature", "properties": { "COD_DPTO": "76", "COD_MPIO": "76001", "COD_DANE": "7600110000000019370206", "ipm": 9.2, "OBJECTID": 1, "OID_": 0, "Name": "Roosevelt", "FolderPath": "Roosevelt.kmz", "SymbolID": 0, "AltMode": 0, "Base": 0.0, "Clamped": -1, "Extruded": 0, "Snippet": null, "PopupInfo": null, "Shape_Leng": 1641.93268188, "BUFF_DIST": 100.0, "ORIG_FID": 0, "Shape_Le_1": 0.028019003091599999, "Shape_Area": 42.917556573799999 }, "geometry": { "type": "Polygon", "coordinates": [ [ [ -76.537583355999914, 3.432632489000071 ], [ -76.537586096999917, 3.432540737000068 ], [ -76.537664697999901, 3.432544874000087 ], [ -76.537700740999924, 3.43254677200008 ], [ -76.537788966999926, 3.43255141800006 ], [ -76.537870152999915, 3.43255569300004 ], [ -76.537951680999925, 3.432559819000062 ], [ -76.53803703299991, 3.432564136000053 ], [ -76.538121328999921, 3.432568401000083 ], [ -76.538211488999934, 3.432572965000077 ], [ -76.538307415999952, 3.432578120000073 ], [ -76.538361972999951, 3.432581048000088 ], [ -76.538415473999919, 3.432583921000059 ], [ -76.538529415999903, 3.432590041000083 ], [ -76.53876886899991, 3.432603560000075 ], [ -76.538760055999944, 3.432790889000046 ], [ -76.538753596999925, 3.432928186000083 ], [ -76.538750386999936, 3.432996422000087 ], [ -76.538747250999904, 3.433063126000093 ], [ -76.538738642999931, 3.433246115000088 ], [ -76.538629769999943, 3.433240800000078 ], [ -76.538520541999901, 3.433235466000042 ], [ -76.538373689999901, 3.433228295000049 ], [ -76.538283803999946, 3.433223904000045 ], [ -76.538211678999915, 3.433220383000048 ], [ -76.53821131299992, 3.433220365000068 ], [ -76.538141415999917, 3.433216721000065 ], [ -76.538015765999944, 3.433210171000042 ], [ -76.537837158999935, 3.433200860000056 ], [ -76.537747792999937, 3.433196201000044 ], [ -76.537655454999936, 3.433191388000068 ], [ -76.537583084999937, 3.433187617000044 ], [ -76.537552202999905, 3.433186007000074 ], [ -76.537567383999942, 3.432963412000049 ], [ -76.537572694999938, 3.432888436000042 ], [ -76.537577910999914, 3.432814731000065 ], [ -76.53758066499995, 3.432722598000055 ], [ -76.537583355999914, 3.432632489000071 ] ] ] } },
{ "type": "Feature", "properties": { "COD_DPTO": "76", "COD_MPIO": "76001", "COD_DANE": "7600110000000019370207", "ipm": 5.0, "OBJECTID": 1, "OID_": 0, "Name": "Roosevelt", "FolderPath": "Roosevelt.kmz", "SymbolID": 0, "AltMode": 0, "Base": 0.0, "Clamped": -1, "Extruded": 0, "Snippet": null, "PopupInfo": null, "Shape_Leng": 1641.93268188, "BUFF_DIST": 100.0, "ORIG_FID": 0, "Shape_Le_1": 0.028019003091599999, "Shape_Area": 42.917556573799999 }, "geometry": { "type": "Polygon", "coordinates": [ [ [ -76.538212072999897, 3.433427948000087 ], [ -76.538215713999932, 3.433344844000089 ], [ -76.538446735999912, 3.433355063000079 ], [ -76.538524939999945, 3.433358523000038 ], [ -76.538734384999941, 3.433367786000076 ], [ -76.538727260999906, 3.433530383000061 ], [ -76.538722514999904, 3.433638786000074 ], [ -76.538717291999944, 3.433758021000074 ], [ -76.538713334999898, 3.433848355000066 ], [ -76.538710959999946, 3.433902554000042 ], [ -76.538708585999927, 3.433956753000075 ], [ -76.538704628999938, 3.434047087000067 ], [ -76.538692836999928, 3.434316275000072 ], [ -76.53840518599992, 3.434303553000063 ], [ -76.538353947999951, 3.43430128500006 ], [ -76.538293721999935, 3.434298621000039 ], [ -76.538174165999919, 3.434293332000038 ], [ -76.538180772999908, 3.434142478000069 ], [ -76.538187381999933, 3.433991622000065 ], [ -76.538190547999932, 3.433919355000057 ], [ -76.538193713999931, 3.433847090000086 ], [ -76.538197709999906, 3.433755855000072 ], [ -76.538202498999908, 3.433646554000063 ], [ -76.538206138999897, 3.43356344700004 ], [ -76.538209777999953, 3.433480343000042 ], [ -76.538212072999897, 3.433427948000087 ] ] ] } },
{ "type": "Feature", "properties": { "COD_DPTO": "76", "COD_MPIO": "76001", "COD_DANE": "7600110000000019370208", "ipm": 3.8, "OBJECTID": 1, "OID_": 0, "Name": "Roosevelt", "FolderPath": "Roosevelt.kmz", "SymbolID": 0, "AltMode": 0, "Base": 0.0, "Clamped": -1, "Extruded": 0, "Snippet": null, "PopupInfo": null, "Shape_Leng": 1641.93268188, "BUFF_DIST": 100.0, "ORIG_FID": 0, "Shape_Le_1": 0.028019003091599999, "Shape_Area": 42.917556573799999 }, "geometry": { "type": "Polygon", "coordinates": [ [ [ -76.53786098799992, 3.434281643000077 ], [ -76.53777111699992, 3.434277190000046 ], [ -76.537771028999941, 3.434278997000092 ], [ -76.537690145999932, 3.434274990000063 ], [ -76.537608364999926, 3.43427094000009 ], [ -76.537496028999897, 3.434265380000056 ], [ -76.537504887999944, 3.43408475800004 ], [ -76.537508562999903, 3.434009801000059 ], [ -76.537512105999951, 3.433937553000078 ], [ -76.537515871999915, 3.43386078900005 ], [ -76.537519636999946, 3.433784023000044 ], [ -76.537523621999924, 3.433702744000072 ], [ -76.537530439999898, 3.43356373000006 ], [ -76.537531506999926, 3.433541995000041 ], [ -76.537536201999899, 3.433446263000064 ], [ -76.537541691999934, 3.433334282000089 ], [ -76.537541766999936, 3.433333302000051 ], [ -76.537541894999947, 3.433332332000077 ], [ -76.53754207399993, 3.433331370000076 ], [ -76.537542302999952, 3.433330421000051 ], [ -76.537542585999915, 3.433329481000044 ], [ -76.537542916999939, 3.433328560000064 ], [ -76.5375432969999, 3.433327658000053 ], [ -76.5375437269999, 3.433326779000083 ], [ -76.537544201999935, 3.433325925000076 ], [ -76.53754472199995, 3.433325095000043 ], [ -76.537545286999944, 3.433324300000038 ], [ -76.537545892999901, 3.433323531000042 ], [ -76.537546540999926, 3.433322799000052 ], [ -76.537547226999948, 3.433322104000069 ], [ -76.53754794699995, 3.433321446000093 ], [ -76.537548706999928, 3.433320827000045 ], [ -76.537549494999951, 3.433320252000044 ], [ -76.53755031399993, 3.433319721000089 ], [ -76.537551159999907, 3.433319236000045 ], [ -76.537552030999905, 3.433318794000058 ], [ -76.537552924999943, 3.433318406000069 ], [ -76.537553835999915, 3.433318063000058 ], [ -76.53755476799995, 3.433317770000087 ], [ -76.537555711999914, 3.433317531000057 ], [ -76.537556668999912, 3.433317340000087 ], [ -76.537557631999903, 3.433317204000048 ], [ -76.537558602999923, 3.433317117000058 ], [ -76.5375595779999, 3.433317087000091 ], [ -76.537560552999935, 3.43331710800004 ], [ -76.537645927999904, 3.433321337000052 ], [ -76.537733101999947, 3.433325654000043 ], [ -76.537819374999913, 3.43332993000007 ], [ -76.537901155999919, 3.433333976000085 ], [ -76.537981139999943, 3.433337938000079 ], [ -76.538078198999926, 3.433342745000061 ], [ -76.5380791689999, 3.433342817000039 ], [ -76.538080135999905, 3.433342947000085 ], [ -76.538081094999939, 3.433343126000068 ], [ -76.538082041999928, 3.433343358000059 ], [ -76.538082974999952, 3.433343642000068 ], [ -76.538083890999928, 3.433343974000081 ], [ -76.538084787999935, 3.433344358000056 ], [ -76.538085662999947, 3.433344792000071 ], [ -76.538086512999939, 3.43334526700005 ], [ -76.538087336999922, 3.433345789000043 ], [ -76.538088131999928, 3.433346359000041 ], [ -76.53808889499993, 3.433346965000055 ], [ -76.538089623999952, 3.433347619000074 ], [ -76.53809031499992, 3.433348306000084 ], [ -76.538090969999928, 3.433349031000091 ], [ -76.538091583999915, 3.433349795000083 ], [ -76.538092157999927, 3.433350585000085 ], [ -76.538092686999903, 3.433351408000078 ], [ -76.538093168999922, 3.43335225800007 ], [ -76.538093606999951, 3.433353134000072 ], [ -76.538093996999919, 3.433354031000079 ], [ -76.538094336999904, 3.433354949000091 ], [ -76.538094626999907, 3.433355883000047 ], [ -76.538094867999916, 3.433356833000062 ], [ -76.538095056999907, 3.433357793000084 ], [ -76.538095192999947, 3.433358762000069 ], [ -76.538095275999922, 3.433359740000071 ], [ -76.538095306999935, 3.433360716000038 ], [ -76.538095286999919, 3.433361696000077 ], [ -76.538085099999932, 3.433569410000075 ], [ -76.538080668999953, 3.433659718000058 ], [ -76.538075443999901, 3.433766288000072 ], [ -76.538071767999952, 3.433841244000064 ], [ -76.5380680909999, 3.433916200000056 ], [ -76.538064415999941, 3.433991157000094 ], [ -76.538060738999945, 3.434066116000054 ], [ -76.538057195999897, 3.434138363000045 ], [ -76.538050595999948, 3.434272925000073 ], [ -76.538050522999924, 3.434273902000086 ], [ -76.538050395999903, 3.434274873000049 ], [ -76.53805021699992, 3.43427583600004 ], [ -76.538049986999908, 3.434276788000091 ], [ -76.538049705999924, 3.434277726000062 ], [ -76.538049372999922, 3.434278647000042 ], [ -76.538048993999951, 3.434279547000074 ], [ -76.53804856499994, 3.434280430000058 ], [ -76.538048089999904, 3.43428128100004 ], [ -76.538047567999911, 3.434282111000073 ], [ -76.538047002999917, 3.434282909000046 ], [ -76.538046396999903, 3.434283675000074 ], [ -76.538045749999924, 3.434284408000053 ], [ -76.538045062999913, 3.434285102000047 ], [ -76.538044339999942, 3.43428576000008 ], [ -76.538043584999912, 3.434286378000081 ], [ -76.53804279499991, 3.434286951000047 ], [ -76.53804197799991, 3.434287486000073 ], [ -76.538041129999897, 3.434287970000071 ], [ -76.538040258999899, 3.434288410000079 ], [ -76.538039366999897, 3.434288804000062 ], [ -76.538038453999945, 3.434289145000093 ], [ -76.538037523999947, 3.434289439000054 ], [ -76.538036578999936, 3.434289677000038 ], [ -76.538035621999938, 3.434289868000064 ], [ -76.538034656999912, 3.434290003000058 ], [ -76.538033684999903, 3.434290089000058 ], [ -76.538032711999904, 3.434290120000071 ], [ -76.538031738999905, 3.434290098000076 ], [ -76.53793288199995, 3.43428520100008 ], [ -76.53786098799992, 3.434281643000077 ] ] ] } },
{ "type": "Feature", "properties": { "COD_DPTO": "76", "COD_MPIO": "76001", "COD_DANE": "7600110000000019370215", "ipm": 0.0, "OBJECTID": 1, "OID_": 0, "Name": "Roosevelt", "FolderPath": "Roosevelt.kmz", "SymbolID": 0, "AltMode": 0, "Base": 0.0, "Clamped": -1, "Extruded": 0, "Snippet": null, "PopupInfo": null, "Shape_Leng": 1641.93268188, "BUFF_DIST": 100.0, "ORIG_FID": 0, "Shape_Le_1": 0.028019003091599999, "Shape_Area": 42.917556573799999 }, "geometry": { "type": "Polygon", "coordinates": [ [ [ -76.537458315999913, 3.434500458000059 ], [ -76.537465763999933, 3.434372961000065 ], [ -76.537591249999934, 3.434378446000039 ], [ -76.537660277999919, 3.434381461000044 ], [ -76.537700746999917, 3.434383227000069 ], [ -76.537746096999911, 3.434385208000037 ], [ -76.537826454999902, 3.434388720000072 ], [ -76.537849447999918, 3.434389724000084 ], [ -76.537944886999924, 3.434393896000074 ], [ -76.53804939999992, 3.43439827900005 ], [ -76.538290977999907, 3.434408411000049 ], [ -76.538366658999905, 3.434411584000088 ], [ -76.53844100099991, 3.434414704000062 ], [ -76.538703825999903, 3.434425727000075 ], [ -76.538696422999919, 3.434576287000084 ], [ -76.538691829999948, 3.43466969900004 ], [ -76.538688704999913, 3.434733232000042 ], [ -76.538687215999914, 3.434763553000039 ], [ -76.538680727999918, 3.434895449000066 ], [ -76.538676105999912, 3.434989478000091 ], [ -76.53866680099992, 3.435178631000042 ], [ -76.5385259869999, 3.435171902000093 ], [ -76.53845537199993, 3.435168526000041 ], [ -76.538386165999952, 3.435165219000055 ], [ -76.538293320999912, 3.435160782000082 ], [ -76.538226742999939, 3.435157601000071 ], [ -76.538142289999939, 3.435153564000075 ], [ -76.538072733999911, 3.435150240000041 ], [ -76.538001735999899, 3.435146570000086 ], [ -76.537934321999899, 3.43514308500005 ], [ -76.537867692999953, 3.435139640000045 ], [ -76.537797878999925, 3.435136035000085 ], [ -76.537705532999951, 3.435131259000059 ], [ -76.537600426999916, 3.435125826000046 ], [ -76.537531961999946, 3.43512228700007 ], [ -76.537422309999897, 3.435116617000062 ], [ -76.53743714299992, 3.434862770000052 ], [ -76.537443308999912, 3.434757253000043 ], [ -76.537447776999898, 3.434680769000067 ], [ -76.537452998999925, 3.434591414000067 ], [ -76.537458315999913, 3.434500458000059 ] ] ] } },
{ "type": "Feature", "properties": { "COD_DPTO": "76", "COD_MPIO": "76001", "COD_DANE": "7600110000000019370216", "ipm": 10.7, "OBJECTID": 1, "OID_": 0, "Name": "Roosevelt", "FolderPath": "Roosevelt.kmz", "SymbolID": 0, "AltMode": 0, "Base": 0.0, "Clamped": -1, "Extruded": 0, "Snippet": null, "PopupInfo": null, "Shape_Leng": 1641.93268188, "BUFF_DIST": 100.0, "ORIG_FID": 0, "Shape_Le_1": 0.028019003091599999, "Shape_Area": 42.917556573799999 }, "geometry": { "type": "Polygon", "coordinates": [ [ [ -76.53745768899995, 3.435253988000056 ], [ -76.537458584999911, 3.435253187000058 ], [ -76.53745951399992, 3.435252424000055 ], [ -76.537460471999907, 3.435251703000063 ], [ -76.537461463999932, 3.435251023000092 ], [ -76.537462483999946, 3.435250388000043 ], [ -76.537463530999901, 3.43524979700004 ], [ -76.537464599999907, 3.435249255000087 ], [ -76.537465693999934, 3.435248757000068 ], [ -76.537466805999941, 3.435248308000041 ], [ -76.537467937999907, 3.435247909000054 ], [ -76.53746908699992, 3.435247558000071 ], [ -76.537588506999953, 3.435253145000047 ], [ -76.537589886999911, 3.43525347800005 ], [ -76.537589897999908, 3.435253210000042 ], [ -76.537720315999934, 3.435259315000053 ], [ -76.537792554999953, 3.435263250000048 ], [ -76.537861042999907, 3.435266983000076 ], [ -76.537927492999927, 3.435270608000053 ], [ -76.537971458999948, 3.435273006000045 ], [ -76.538033139999925, 3.435275028000092 ], [ -76.538125597999908, 3.435279750000063 ], [ -76.538213756999937, 3.435284255000056 ], [ -76.538285727999948, 3.435287933000041 ], [ -76.53835655499995, 3.435291554000059 ], [ -76.538447616999917, 3.435296206000089 ], [ -76.538519551999912, 3.435299880000059 ], [ -76.538621767999928, 3.435305104000065 ], [ -76.538644848999922, 3.435334954000041 ], [ -76.538639317999923, 3.435462077000068 ], [ -76.538639235999938, 3.435464505000084 ], [ -76.53863707499994, 3.435527943000068 ], [ -76.538632943999914, 3.435618512000076 ], [ -76.538629664999917, 3.43569042900009 ], [ -76.538629621999917, 3.435691279000082 ], [ -76.538625753999952, 3.435769398000048 ], [ -76.538624167999899, 3.435801388000073 ], [ -76.538622783999926, 3.435829371000068 ], [ -76.538618366999913, 3.435918568000091 ], [ -76.538611717999913, 3.43605279600007 ], [ -76.5385863919999, 3.436076906000039 ], [ -76.538557386999912, 3.436075257000084 ], [ -76.538523501999919, 3.436073329000067 ], [ -76.538434179999911, 3.436068247000094 ], [ -76.538356638999915, 3.436063835000084 ], [ -76.538282494999919, 3.43605961600008 ], [ -76.538253263999934, 3.436057953000045 ], [ -76.538183015999948, 3.436053960000038 ], [ -76.5381096509999, 3.43604978500008 ], [ -76.538043049999942, 3.43604599300005 ], [ -76.537963004999938, 3.436041702000068 ], [ -76.537855239999942, 3.43603592900007 ], [ -76.537775666999948, 3.43603115500008 ], [ -76.537686271999917, 3.436025799000049 ], [ -76.537633068999924, 3.43602254700005 ], [ -76.53757986699992, 3.436019297000087 ], [ -76.537524866999945, 3.436014972000066 ], [ -76.537415855999939, 3.436007204000077 ], [ -76.537417220999941, 3.435977028000082 ], [ -76.537424874999942, 3.435807835000048 ], [ -76.537428133999924, 3.435735780000073 ], [ -76.537430535999931, 3.435682701000076 ], [ -76.53743398499995, 3.435608390000084 ], [ -76.537436938999917, 3.435544818000039 ], [ -76.537439903999939, 3.435480960000064 ], [ -76.537442338999938, 3.435428468000055 ], [ -76.537445693999928, 3.435356178000063 ], [ -76.537448919999918, 3.435273217000088 ], [ -76.53744899499992, 3.435272014000077 ], [ -76.537449118999916, 3.435270815000081 ], [ -76.537449294999931, 3.435269622000078 ], [ -76.537449520999928, 3.435268439000083 ], [ -76.537449800999923, 3.435267267000086 ], [ -76.537450129999911, 3.435266108000064 ], [ -76.537450507999949, 3.435264963000066 ], [ -76.537450935999914, 3.435263839000072 ], [ -76.537451411999939, 3.435262732000069 ], [ -76.537451934999922, 3.435261647000061 ], [ -76.537452505999909, 3.435260585000037 ], [ -76.537453119999952, 3.435259552000048 ], [ -76.537453777999929, 3.435258544000078 ], [ -76.537454479999951, 3.435257567000065 ], [ -76.537455223999928, 3.435256620000075 ], [ -76.537456007999936, 3.435255707000067 ], [ -76.537456831999918, 3.435254829000087 ], [ -76.53745768899995, 3.435253988000056 ] ] ] } },
{ "type": "Feature", "properties": { "COD_DPTO": "76", "COD_MPIO": "76001", "COD_DANE": "7600110000000019370218", "ipm": 5.9, "OBJECTID": 1, "OID_": 0, "Name": "Roosevelt", "FolderPath": "Roosevelt.kmz", "SymbolID": 0, "AltMode": 0, "Base": 0.0, "Clamped": -1, "Extruded": 0, "Snippet": null, "PopupInfo": null, "Shape_Leng": 1641.93268188, "BUFF_DIST": 100.0, "ORIG_FID": 0, "Shape_Le_1": 0.028019003091599999, "Shape_Area": 42.917556573799999 }, "geometry": { "type": "Polygon", "coordinates": [ [ [ -76.53857178599992, 3.436692718000074 ], [ -76.538568545999908, 3.436749281000061 ], [ -76.538549478999926, 3.436910945000079 ], [ -76.53851140799992, 3.437097495000046 ], [ -76.538464584999929, 3.437155903000075 ], [ -76.53832676199994, 3.437327827000047 ], [ -76.538277268999934, 3.437346863000073 ], [ -76.538192059999915, 3.437335248000068 ], [ -76.538134070999945, 3.437279971000066 ], [ -76.538069151999935, 3.437218212000062 ], [ -76.538068608999936, 3.437217676000046 ], [ -76.538020529999926, 3.437170331000061 ], [ -76.537937439999951, 3.437088503000041 ], [ -76.53793662299995, 3.437087696000049 ], [ -76.537910849999946, 3.437063225000088 ], [ -76.537885942999935, 3.437039580000089 ], [ -76.537852586999918, 3.437007909000044 ], [ -76.537814627999921, 3.436971867000068 ], [ -76.537760062999951, 3.436919741000054 ], [ -76.537743942999953, 3.436904337000044 ], [ -76.537709363999909, 3.436871302000043 ], [ -76.537709008999911, 3.436870970000086 ], [ -76.537685969999927, 3.436849380000069 ], [ -76.537632066999947, 3.436798871000065 ], [ -76.537555356999917, 3.436725232000072 ], [ -76.537511045999906, 3.436683275000064 ], [ -76.537491761999945, 3.436665014000084 ], [ -76.537491249999903, 3.436664420000056 ], [ -76.537490347999949, 3.436665366000057 ], [ -76.53741137499992, 3.436590890000048 ], [ -76.53729500399993, 3.436478934000093 ], [ -76.537359728999945, 3.436306880000075 ], [ -76.537363762999917, 3.436298031000092 ], [ -76.537395893999928, 3.436211469000057 ], [ -76.537403192999932, 3.436190363000094 ], [ -76.53741802299993, 3.43615303100006 ], [ -76.537421459999905, 3.436148552000077 ], [ -76.537424743999907, 3.436144637000041 ], [ -76.537429705999898, 3.436141730000088 ], [ -76.537436051999919, 3.436140822000084 ], [ -76.5374471639999, 3.436141526000085 ], [ -76.537516292999953, 3.436144384000045 ], [ -76.537528396999903, 3.436144883000054 ], [ -76.537577711999916, 3.43614784500005 ], [ -76.537640486999919, 3.436151616000075 ], [ -76.537705343999903, 3.436154999000053 ], [ -76.537793361999945, 3.436159583000062 ], [ -76.537798503999909, 3.43615985100007 ], [ -76.537859407999917, 3.436163460000046 ], [ -76.537943602999917, 3.43616845400004 ], [ -76.537982020999948, 3.436170730000072 ], [ -76.538007698999934, 3.436172178000049 ], [ -76.538081681999927, 3.436176354000054 ], [ -76.538085678999948, 3.436176580000051 ], [ -76.538132342999916, 3.436178748000088 ], [ -76.538158813999928, 3.436180651000086 ], [ -76.538216033999902, 3.436184768000089 ], [ -76.538277096999934, 3.436188007000055 ], [ -76.538341497999909, 3.436191328000064 ], [ -76.538379531999908, 3.436192934000076 ], [ -76.538385584999901, 3.436194063000073 ], [ -76.538385577999918, 3.43619413600004 ], [ -76.538585385999909, 3.436204803000066 ], [ -76.538590539999916, 3.436206673000072 ], [ -76.538595688999919, 3.436209227000063 ], [ -76.538600133999921, 3.436214030000087 ], [ -76.538604295999903, 3.436223348000055 ], [ -76.538605126999926, 3.43622901100008 ], [ -76.53859859399995, 3.436314546000062 ], [ -76.538593508999952, 3.436386345000074 ], [ -76.538593011999922, 3.436393328000065 ], [ -76.538587106999898, 3.436475484000084 ], [ -76.538586525999904, 3.436483569000075 ], [ -76.538581764999947, 3.436549682000077 ], [ -76.538580722999939, 3.436564176000047 ], [ -76.538576694999904, 3.436622100000079 ], [ -76.53857178599992, 3.436692718000074 ] ] ] } },
{ "type": "Feature", "properties": { "COD_DPTO": "76", "COD_MPIO": "76001", "COD_DANE": "7600110000000019380101", "ipm": 0.0, "OBJECTID": 1, "OID_": 0, "Name": "Roosevelt", "FolderPath": "Roosevelt.kmz", "SymbolID": 0, "AltMode": 0, "Base": 0.0, "Clamped": -1, "Extruded": 0, "Snippet": null, "PopupInfo": null, "Shape_Leng": 1641.93268188, "BUFF_DIST": 100.0, "ORIG_FID": 0, "Shape_Le_1": 0.028019003091599999, "Shape_Area": 42.917556573799999 }, "geometry": { "type": "Polygon", "coordinates": [ [ [ -76.539157944999943, 3.428663722000067 ], [ -76.539159174999952, 3.428663666000091 ], [ -76.539160404999905, 3.428663725000092 ], [ -76.539161624999906, 3.428663893000078 ], [ -76.539162823999902, 3.428664173000072 ], [ -76.539163992999931, 3.428664562000051 ], [ -76.53916512099994, 3.428665054000078 ], [ -76.539166200999944, 3.428665649000038 ], [ -76.539167222999936, 3.428666340000063 ], [ -76.539168176999908, 3.428667119000067 ], [ -76.539169058999903, 3.42866798600005 ], [ -76.539169855999944, 3.428668926000057 ], [ -76.539170566999928, 3.428669937000052 ], [ -76.539275509999925, 3.428807675000087 ], [ -76.539336030999948, 3.428887108000083 ], [ -76.539367336999931, 3.428928197000062 ], [ -76.539427017999913, 3.429006529000048 ], [ -76.539554830999919, 3.429174284000055 ], [ -76.539388390999932, 3.429213514000082 ], [ -76.539327211999932, 3.42922793200006 ], [ -76.539230594999935, 3.429250705000072 ], [ -76.539108532999933, 3.429279474000055 ], [ -76.539118429999917, 3.429119183000068 ], [ -76.539119384999935, 3.429103718000079 ], [ -76.539124014999913, 3.429028698000081 ], [ -76.53912897999993, 3.428948268000056 ], [ -76.539134146999913, 3.428864587000078 ], [ -76.539145656999949, 3.428678165000065 ], [ -76.539145631999929, 3.428676929000062 ], [ -76.539145717999929, 3.428675695000038 ], [ -76.539145915999939, 3.428674474000047 ], [ -76.539146222999932, 3.42867327600004 ], [ -76.539146636999931, 3.428672111000083 ], [ -76.539147155999899, 3.428670990000057 ], [ -76.539147772999911, 3.428669919000072 ], [ -76.539148485999931, 3.428668908000077 ], [ -76.53914928599994, 3.428667970000049 ], [ -76.539150167999935, 3.428667105000045 ], [ -76.539151124999933, 3.428666326000041 ], [ -76.539152146999925, 3.428665636000062 ], [ -76.539153228999908, 3.428665046000049 ], [ -76.539154356999916, 3.428664554000079 ], [ -76.539155525999945, 3.428664167000079 ], [ -76.53915672699992, 3.428663890000053 ], [ -76.539157944999943, 3.428663722000067 ] ] ] } },
{ "type": "Feature", "properties": { "COD_DPTO": "76", "COD_MPIO": "76001", "COD_DANE": "7600110000000019380103", "ipm": 11.3, "OBJECTID": 1, "OID_": 0, "Name": "Roosevelt", "FolderPath": "Roosevelt.kmz", "SymbolID": 0, "AltMode": 0, "Base": 0.0, "Clamped": -1, "Extruded": 0, "Snippet": null, "PopupInfo": null, "Shape_Leng": 1641.93268188, "BUFF_DIST": 100.0, "ORIG_FID": 0, "Shape_Le_1": 0.028019003091599999, "Shape_Area": 42.917556573799999 }, "geometry": { "type": "Polygon", "coordinates": [ [ [ -76.539068387999919, 3.430492583000046 ], [ -76.53908853899992, 3.430469947000063 ], [ -76.539189535999924, 3.430475247000061 ], [ -76.539263311999946, 3.430479120000086 ], [ -76.539337830999898, 3.430483031000051 ], [ -76.539430381999921, 3.430487890000052 ], [ -76.539553483999953, 3.430494352000039 ], [ -76.53957517099991, 3.430516314000045 ], [ -76.539570948999938, 3.430604823000067 ], [ -76.539567425999905, 3.430676168000048 ], [ -76.539563547999933, 3.43075745200008 ], [ -76.539560019999897, 3.430833887000063 ], [ -76.539556485999924, 3.430907948000083 ], [ -76.539552995999941, 3.430981101000043 ], [ -76.539549290999901, 3.431058776000043 ], [ -76.539545507999946, 3.431138073000056 ], [ -76.539541801999917, 3.431215746000078 ], [ -76.53953833199995, 3.431288450000068 ], [ -76.539535746999945, 3.431342642000061 ], [ -76.539532298999916, 3.431414895000046 ], [ -76.539528443999927, 3.431495727000083 ], [ -76.539524586999903, 3.431576559000064 ], [ -76.539520385999936, 3.431664620000049 ], [ -76.539514933999897, 3.431778870000073 ], [ -76.539381048999928, 3.431771845000071 ], [ -76.539278598999942, 3.431766466000056 ], [ -76.539207601999919, 3.431762738000089 ], [ -76.539135832999932, 3.431758971000079 ], [ -76.539031423999916, 3.431753491000052 ], [ -76.539009398999951, 3.431752335000056 ], [ -76.539015740999901, 3.431616854000083 ], [ -76.539019971999949, 3.431526532000078 ], [ -76.539024200999904, 3.43143621300004 ], [ -76.539028432999942, 3.431345889000056 ], [ -76.539030544999946, 3.431300730000089 ], [ -76.539032658999929, 3.431255571000065 ], [ -76.539036891999899, 3.431165250000049 ], [ -76.539041118999933, 3.431074930000079 ], [ -76.539043233999905, 3.431029766000051 ], [ -76.539045346999899, 3.430984608000074 ], [ -76.539049579999926, 3.430894285000079 ], [ -76.539053807999949, 3.430803965000052 ], [ -76.539058010999952, 3.430714239000054 ], [ -76.539063017999922, 3.430607290000069 ], [ -76.539068387999919, 3.430492583000046 ] ] ] } },
{ "type": "Feature", "properties": { "COD_DPTO": "76", "COD_MPIO": "76001", "COD_DANE": "7600110000000019380108", "ipm": 2.5, "OBJECTID": 1, "OID_": 0, "Name": "Roosevelt", "FolderPath": "Roosevelt.kmz", "SymbolID": 0, "AltMode": 0, "Base": 0.0, "Clamped": -1, "Extruded": 0, "Snippet": null, "PopupInfo": null, "Shape_Leng": 1641.93268188, "BUFF_DIST": 100.0, "ORIG_FID": 0, "Shape_Le_1": 0.028019003091599999, "Shape_Area": 42.917556573799999 }, "geometry": { "type": "Polygon", "coordinates": [ [ [ -76.538991122999903, 3.431908855000074 ], [ -76.538991913999951, 3.431885584000042 ], [ -76.53903374999993, 3.431887725000081 ], [ -76.539136054999915, 3.431893186000082 ], [ -76.539182241999924, 3.431895653000083 ], [ -76.539184577999947, 3.431895779000058 ], [ -76.539241445999949, 3.431898814000078 ], [ -76.53930747499993, 3.431900094000071 ], [ -76.539375974999928, 3.431901425000092 ], [ -76.539449268999931, 3.431902843000046 ], [ -76.539619573999914, 3.431906144000038 ], [ -76.539630111999941, 3.431906893000075 ], [ -76.539901148999945, 3.43192604300009 ], [ -76.540027459999919, 3.431934971000089 ], [ -76.540132541999924, 3.431942395000078 ], [ -76.540193728999952, 3.431946719000052 ], [ -76.54020476799991, 3.431961740000077 ], [ -76.540396874999942, 3.432223258000079 ], [ -76.540400380999927, 3.432228035000094 ], [ -76.540476639999952, 3.432328047000055 ], [ -76.540476109999929, 3.432337079000092 ], [ -76.540470743999947, 3.43242824400005 ], [ -76.54047047499995, 3.432432787000039 ], [ -76.540468271999941, 3.432521416000043 ], [ -76.540455038999937, 3.432533198000044 ], [ -76.540443085999925, 3.432543843000076 ], [ -76.540261654999938, 3.432535673000075 ], [ -76.540204715999948, 3.432533111000055 ], [ -76.540184336999914, 3.432532195000078 ], [ -76.540180655999905, 3.432532029000072 ], [ -76.540071902999898, 3.432527133000065 ], [ -76.540026956999952, 3.43252510700006 ], [ -76.539931876999901, 3.43252082500004 ], [ -76.539783640999929, 3.432514150000088 ], [ -76.539693753999927, 3.432510102000037 ], [ -76.539638515999911, 3.432507615000077 ], [ -76.539630829999908, 3.432507271000077 ], [ -76.539573757999904, 3.432504699000049 ], [ -76.539567908999913, 3.43250443800008 ], [ -76.539484626999922, 3.432500688000061 ], [ -76.539472411999952, 3.432500135000055 ], [ -76.539391512999941, 3.432496493000087 ], [ -76.539310612999941, 3.432492848000038 ], [ -76.539225219999935, 3.432489002000068 ], [ -76.53915375899993, 3.432485786000086 ], [ -76.538997613999925, 3.432478752000065 ], [ -76.538969084999906, 3.432477565000056 ], [ -76.538969745999907, 3.432458141000041 ], [ -76.538973067999905, 3.432372799000063 ], [ -76.538976153999897, 3.43229350200005 ], [ -76.53897907299995, 3.432218465000062 ], [ -76.538986111999918, 3.432037644000047 ], [ -76.538988219999908, 3.431983432000038 ], [ -76.538990270999932, 3.431930763000082 ], [ -76.538991122999903, 3.431908855000074 ] ] ] } },
{ "type": "Feature", "properties": { "COD_DPTO": "76", "COD_MPIO": "76001", "COD_DANE": "7600110000000019380109", "ipm": 7.5, "OBJECTID": 1, "OID_": 0, "Name": "Roosevelt", "FolderPath": "Roosevelt.kmz", "SymbolID": 0, "AltMode": 0, "Base": 0.0, "Clamped": -1, "Extruded": 0, "Snippet": null, "PopupInfo": null, "Shape_Leng": 1641.93268188, "BUFF_DIST": 100.0, "ORIG_FID": 0, "Shape_Le_1": 0.028019003091599999, "Shape_Area": 42.917556573799999 }, "geometry": { "type": "Polygon", "coordinates": [ [ [ -76.538962506999951, 3.432891221000091 ], [ -76.53896556299992, 3.43280218700005 ], [ -76.538972437999917, 3.432638447000045 ], [ -76.538993541999901, 3.43262001100004 ], [ -76.539128189999929, 3.432626906000053 ], [ -76.539195522999933, 3.432629896000037 ], [ -76.539260423999906, 3.432632774000069 ], [ -76.539324523999937, 3.432634510000071 ], [ -76.539353327999947, 3.432635290000064 ], [ -76.539353422999909, 3.432635290000064 ], [ -76.539459387999898, 3.432639542000061 ], [ -76.539549267999917, 3.432643149000057 ], [ -76.53976025299994, 3.432651641000064 ], [ -76.539906304999931, 3.432658620000041 ], [ -76.540023263999899, 3.432664208000062 ], [ -76.540201810999918, 3.432672786000069 ], [ -76.540310050999949, 3.432677894000051 ], [ -76.540432146999933, 3.432683889000089 ], [ -76.540448818999948, 3.432700483000076 ], [ -76.540444051999941, 3.432860942000048 ], [ -76.540441143999942, 3.432957385000066 ], [ -76.540439401999947, 3.433026891000054 ], [ -76.540437661999931, 3.433096394000074 ], [ -76.54043149499995, 3.433309420000057 ], [ -76.540340259999937, 3.433306169000048 ], [ -76.540267879999931, 3.433303591000083 ], [ -76.540196197999933, 3.433301038000081 ], [ -76.540106345999902, 3.43329783900009 ], [ -76.540016513999944, 3.433294640000042 ], [ -76.539962449999905, 3.433292453000092 ], [ -76.539908342999922, 3.43329026400005 ], [ -76.539817902999914, 3.433286610000039 ], [ -76.539737827999943, 3.433283372000062 ], [ -76.539624804999903, 3.433278721000079 ], [ -76.539516352999897, 3.433274257000051 ], [ -76.539381673999912, 3.433268711000039 ], [ -76.539306478999947, 3.433265616000085 ], [ -76.539215991999924, 3.433262700000057 ], [ -76.539152481999906, 3.433260653000048 ], [ -76.539125502999923, 3.43325978200005 ], [ -76.538948701999914, 3.433251647000077 ], [ -76.538952593999909, 3.433153608000055 ], [ -76.538955785999917, 3.433073131000071 ], [ -76.538959342999931, 3.432983509000053 ], [ -76.538962506999951, 3.432891221000091 ] ] ] } },
{ "type": "Feature", "properties": { "COD_DPTO": "76", "COD_MPIO": "76001", "COD_DANE": "7600110000000019320112", "ipm": 0.0, "OBJECTID": 1, "OID_": 0, "Name": "Roosevelt", "FolderPath": "Roosevelt.kmz", "SymbolID": 0, "AltMode": 0, "Base": 0.0, "Clamped": -1, "Extruded": 0, "Snippet": null, "PopupInfo": null, "Shape_Leng": 1641.93268188, "BUFF_DIST": 100.0, "ORIG_FID": 0, "Shape_Le_1": 0.028019003091599999, "Shape_Area": 42.917556573799999 }, "geometry": { "type": "Polygon", "coordinates": [ [ [ -76.540026865999948, 3.427949640000065 ], [ -76.540280744999905, 3.427762376000089 ], [ -76.540478876999941, 3.428032331000054 ], [ -76.540718688999902, 3.428359078000085 ], [ -76.539835466999932, 3.429021727000077 ], [ -76.539431617999924, 3.428478419000044 ], [ -76.539388540999937, 3.42842046700008 ], [ -76.540026865999948, 3.427949640000065 ] ] ] } },
{ "type": "Feature", "properties": { "COD_DPTO": "76", "COD_MPIO": "76001", "COD_DANE": "7600110000000019330121", "ipm": 0.0, "OBJECTID": 1, "OID_": 0, "Name": "Roosevelt", "FolderPath": "Roosevelt.kmz", "SymbolID": 0, "AltMode": 0, "Base": 0.0, "Clamped": -1, "Extruded": 0, "Snippet": null, "PopupInfo": null, "Shape_Leng": 1641.93268188, "BUFF_DIST": 100.0, "ORIG_FID": 0, "Shape_Le_1": 0.028019003091599999, "Shape_Area": 42.917556573799999 }, "geometry": { "type": "Polygon", "coordinates": [ [ [ -76.540027897999948, 3.426347027000077 ], [ -76.540281418999939, 3.425767716000053 ], [ -76.540467669999941, 3.426024688000041 ], [ -76.540027897999948, 3.426347027000077 ] ] ] } },
{ "type": "Feature", "properties": { "COD_DPTO": "76", "COD_MPIO": "76001", "COD_DANE": "7600110000000019330215", "ipm": 0.0, "OBJECTID": 1, "OID_": 0, "Name": "Roosevelt", "FolderPath": "Roosevelt.kmz", "SymbolID": 0, "AltMode": 0, "Base": 0.0, "Clamped": -1, "Extruded": 0, "Snippet": null, "PopupInfo": null, "Shape_Leng": 1641.93268188, "BUFF_DIST": 100.0, "ORIG_FID": 0, "Shape_Le_1": 0.028019003091599999, "Shape_Area": 42.917556573799999 }, "geometry": { "type": "Polygon", "coordinates": [ [ [ -76.538661043999923, 3.425768803000039 ], [ -76.538598915999899, 3.425742221000064 ], [ -76.538597502999949, 3.425747183000055 ], [ -76.538509958999953, 3.425710319000075 ], [ -76.538512430999901, 3.425702525000077 ], [ -76.538446974999943, 3.42567329700006 ], [ -76.538442516999908, 3.425677471000085 ], [ -76.538358614999936, 3.425638562000074 ], [ -76.538346538999917, 3.425632963000055 ], [ -76.538222681999912, 3.425575673000083 ], [ -76.538172240999927, 3.425550809000072 ], [ -76.53815710899994, 3.425543904000051 ], [ -76.538150229999928, 3.42553515600008 ], [ -76.538146102999917, 3.42552594600005 ], [ -76.538141978999931, 3.425515819000054 ], [ -76.538140142999907, 3.425504770000089 ], [ -76.538140143999897, 3.425494180000044 ], [ -76.538143354999931, 3.425478529000088 ], [ -76.538150691999931, 3.425464716000079 ], [ -76.538163074999943, 3.425453668000046 ], [ -76.538175456999909, 3.425445841000055 ], [ -76.538187380999943, 3.425444001000074 ], [ -76.538209643999949, 3.425441474000081 ], [ -76.538458414999923, 3.425416727000083 ], [ -76.538613951999935, 3.425401256000043 ], [ -76.538777385999936, 3.42538486300009 ], [ -76.538875340999937, 3.425375039000073 ], [ -76.5391369109999, 3.425348933000066 ], [ -76.53933060199995, 3.425330120000069 ], [ -76.539239882999937, 3.425587071000052 ], [ -76.53914199299993, 3.425864352000076 ], [ -76.539100833999953, 3.425975918000063 ], [ -76.53865821799991, 3.425776600000063 ], [ -76.538661043999923, 3.425768803000039 ] ] ] } },
{ "type": "Feature", "properties": { "COD_DPTO": "76", "COD_MPIO": "76001", "COD_DANE": "7600110000000019330220", "ipm": 0.0, "OBJECTID": 1, "OID_": 0, "Name": "Roosevelt", "FolderPath": "Roosevelt.kmz", "SymbolID": 0, "AltMode": 0, "Base": 0.0, "Clamped": -1, "Extruded": 0, "Snippet": null, "PopupInfo": null, "Shape_Leng": 1641.93268188, "BUFF_DIST": 100.0, "ORIG_FID": 0, "Shape_Le_1": 0.028019003091599999, "Shape_Area": 42.917556573799999 }, "geometry": { "type": "Polygon", "coordinates": [ [ [ -76.539652236999927, 3.426619563000088 ], [ -76.539169609999931, 3.426060344000064 ], [ -76.539169303999927, 3.426059977000079 ], [ -76.539169011999945, 3.426059594000094 ], [ -76.539168733999929, 3.426059205000058 ], [ -76.539168468999947, 3.426058802000057 ], [ -76.539168221999944, 3.426058392000073 ], [ -76.539167990999943, 3.426057971000091 ], [ -76.539167772999917, 3.426057542000081 ], [ -76.539167572999929, 3.426057109000055 ], [ -76.539167388999942, 3.426056664000043 ], [ -76.539167222999936, 3.426056213000038 ], [ -76.539167071999941, 3.426055758000075 ], [ -76.539166938999927, 3.426055295000083 ], [ -76.539166823999949, 3.426054828000076 ], [ -76.539166724999916, 3.426054357000055 ], [ -76.539166644999909, 3.426053883000066 ], [ -76.53916658299994, 3.426053408000087 ], [ -76.539166537999904, 3.426052930000083 ], [ -76.539166509999916, 3.426052449000053 ], [ -76.539166503999922, 3.426051971000049 ], [ -76.53916651399993, 3.426051490000077 ], [ -76.53916653999994, 3.426051010000037 ], [ -76.539166584999919, 3.426050531000044 ], [ -76.539166647999934, 3.426050055000076 ], [ -76.53916672999992, 3.426049582000076 ], [ -76.539166827999907, 3.426049111000054 ], [ -76.53916694499992, 3.426048645000094 ], [ -76.539167078999924, 3.426048184000081 ], [ -76.53916722799994, 3.426047728000071 ], [ -76.539167395999925, 3.426047278000055 ], [ -76.539259843999901, 3.425838879000082 ], [ -76.539279201999932, 3.425827363000053 ], [ -76.539354941999932, 3.425847239000063 ], [ -76.539363998999931, 3.425883642000088 ], [ -76.539502985999945, 3.425941034000061 ], [ -76.539523498999927, 3.42591354700005 ], [ -76.539590623999914, 3.425939677000088 ], [ -76.539592838999909, 3.425973057000078 ], [ -76.539663746999906, 3.426004190000072 ], [ -76.539686961999905, 3.425980844000094 ], [ -76.539897614999916, 3.426065550000089 ], [ -76.539898729999948, 3.426066035000076 ], [ -76.539899814999899, 3.426066580000054 ], [ -76.53990086999994, 3.426067185000079 ], [ -76.539901887999918, 3.426067849000049 ], [ -76.539902867999899, 3.426068567000073 ], [ -76.539903809999942, 3.426069338000048 ], [ -76.539904702999934, 3.426070163000077 ], [ -76.539905553999915, 3.426071033000085 ], [ -76.539906354999914, 3.426071952000086 ], [ -76.539907102999905, 3.426072913000041 ], [ -76.539907795999909, 3.426073913000039 ], [ -76.539908432999937, 3.426074951000089 ], [ -76.539909012999942, 3.426076022000075 ], [ -76.5399095329999, 3.426077127000042 ], [ -76.539909991999934, 3.426078256000039 ], [ -76.539910387999953, 3.426079409000067 ], [ -76.539910716999941, 3.426080582000054 ], [ -76.539910982999913, 3.426081774000068 ], [ -76.539911181999912, 3.426082977000078 ], [ -76.539911314999927, 3.42608419000004 ], [ -76.5399113819999, 3.426085407000073 ], [ -76.539911378999932, 3.426086627000075 ], [ -76.539911310999912, 3.42608784500004 ], [ -76.539911175999919, 3.42608905700007 ], [ -76.539910974999941, 3.42609026100007 ], [ -76.539910706999933, 3.426091450000058 ], [ -76.53991037399993, 3.426092623000045 ], [ -76.539909977999912, 3.426093775000083 ], [ -76.539909516999899, 3.42609490500007 ], [ -76.539680519999933, 3.426615258000083 ], [ -76.539680005999912, 3.426616318000072 ], [ -76.539679420999903, 3.426617339000074 ], [ -76.539678765999952, 3.426618316000088 ], [ -76.539678046999938, 3.426619247000076 ], [ -76.539677265999899, 3.426620126000046 ], [ -76.539676425999914, 3.426620949000039 ], [ -76.539675530999943, 3.426621710000063 ], [ -76.539674585999933, 3.426622409000061 ], [ -76.539673594999897, 3.426623039000049 ], [ -76.539672564999933, 3.426623600000084 ], [ -76.539671497999905, 3.42662408800004 ], [ -76.539670398999931, 3.426624501000049 ], [ -76.539669273999948, 3.426624834000052 ], [ -76.539668129999939, 3.426625094000087 ], [ -76.539666968999938, 3.426625270000045 ], [ -76.539665801999945, 3.426625364000074 ], [ -76.539664627999912, 3.426625381000065 ], [ -76.539663456999904, 3.426625312000056 ], [ -76.539662292999935, 3.426625164000086 ], [ -76.539661142999933, 3.426624934000074 ], [ -76.53966001099991, 3.426624626000091 ], [ -76.539658904999897, 3.42662424100007 ], [ -76.539657824999949, 3.426623779000067 ], [ -76.539656778999927, 3.426623245000087 ], [ -76.539655773999925, 3.426622638000083 ], [ -76.539654811999924, 3.426621965000038 ], [ -76.539653900999951, 3.426621222000051 ], [ -76.539653039999905, 3.426620421000052 ], [ -76.539652236999927, 3.426619563000088 ] ] ] } },
{ "type": "Feature", "properties": { "COD_DPTO": "76", "COD_MPIO": "76001", "COD_DANE": "7600110000000019370118", "ipm": 0.0, "OBJECTID": 1, "OID_": 0, "Name": "Roosevelt", "FolderPath": "Roosevelt.kmz", "SymbolID": 0, "AltMode": 0, "Base": 0.0, "Clamped": -1, "Extruded": 0, "Snippet": null, "PopupInfo": null, "Shape_Leng": 1641.93268188, "BUFF_DIST": 100.0, "ORIG_FID": 0, "Shape_Le_1": 0.028019003091599999, "Shape_Area": 42.917556573799999 }, "geometry": { "type": "Polygon", "coordinates": [ [ [ -76.537951455999917, 3.430466489000082 ], [ -76.538000495999938, 3.430431953000038 ], [ -76.538250830999914, 3.430439718000059 ], [ -76.538260626999943, 3.430440117000046 ], [ -76.538386247999938, 3.430445271000053 ], [ -76.538827070999901, 3.43046335400004 ], [ -76.538864361999913, 3.430499649000069 ], [ -76.538848411999936, 3.43091399900004 ], [ -76.538846680999939, 3.430975068000066 ], [ -76.538840406999952, 3.431196638000074 ], [ -76.538836922999906, 3.431319712000061 ], [ -76.53882606399992, 3.431703493000043 ], [ -76.538794331999952, 3.431733246000078 ], [ -76.537813889999939, 3.431697546000066 ], [ -76.537811083999941, 3.431697435000046 ], [ -76.5376600109999, 3.431691460000081 ], [ -76.537658236999903, 3.431691392000062 ], [ -76.537629379999942, 3.431656437000072 ], [ -76.537627117999932, 3.431653696000069 ], [ -76.537624839999921, 3.43154988200007 ], [ -76.537625203999937, 3.431533053000067 ], [ -76.537627529999952, 3.43142498800006 ], [ -76.537631219999923, 3.431278356000064 ], [ -76.537656584999922, 3.431174421000094 ], [ -76.537677254999949, 3.431110317000048 ], [ -76.537726519999921, 3.430990564000069 ], [ -76.537764294999931, 3.430902019000087 ], [ -76.537800621999907, 3.430816629000049 ], [ -76.537804685999902, 3.43080707900009 ], [ -76.537864422999917, 3.430665523000073 ], [ -76.537951455999917, 3.430466489000082 ] ] ] } },
{ "type": "Feature", "properties": { "COD_DPTO": "76", "COD_MPIO": "76001", "COD_DANE": "7600110000000019370119", "ipm": 0.0, "OBJECTID": 1, "OID_": 0, "Name": "Roosevelt", "FolderPath": "Roosevelt.kmz", "SymbolID": 0, "AltMode": 0, "Base": 0.0, "Clamped": -1, "Extruded": 0, "Snippet": null, "PopupInfo": null, "Shape_Leng": 1641.93268188, "BUFF_DIST": 100.0, "ORIG_FID": 0, "Shape_Le_1": 0.028019003091599999, "Shape_Area": 42.917556573799999 }, "geometry": { "type": "Polygon", "coordinates": [ [ [ -76.538760729999922, 3.430357325000045 ], [ -76.53877790599995, 3.43004585400007 ], [ -76.538881222999919, 3.430051609000088 ], [ -76.538864043999922, 3.430363079000074 ], [ -76.538760729999922, 3.430357325000045 ] ] ] } },
{ "type": "Feature", "properties": { "COD_DPTO": "76", "COD_MPIO": "76001", "COD_DANE": "7600110000000019380116", "ipm": 3.3, "OBJECTID": 1, "OID_": 0, "Name": "Roosevelt", "FolderPath": "Roosevelt.kmz", "SymbolID": 0, "AltMode": 0, "Base": 0.0, "Clamped": -1, "Extruded": 0, "Snippet": null, "PopupInfo": null, "Shape_Leng": 1641.93268188, "BUFF_DIST": 100.0, "ORIG_FID": 0, "Shape_Le_1": 0.028019003091599999, "Shape_Area": 42.917556573799999 }, "geometry": { "type": "Polygon", "coordinates": [ [ [ -76.539744980999899, 3.433596665000039 ], [ -76.539755848999903, 3.433430936000093 ], [ -76.539856582999903, 3.43343518800009 ], [ -76.539936139999952, 3.433438549000073 ], [ -76.540067255999929, 3.433444085000076 ], [ -76.540168578999896, 3.433448361000046 ], [ -76.54024218099994, 3.433451467000054 ], [ -76.540312673999949, 3.433454444000063 ], [ -76.540426584999921, 3.43345925300008 ], [ -76.540420938999944, 3.433571767000046 ], [ -76.540416596999933, 3.433658337000054 ], [ -76.540412679999918, 3.433736404000058 ], [ -76.540408769999942, 3.433814237000092 ], [ -76.540405147999934, 3.433886433000055 ], [ -76.540401753999902, 3.43395405800004 ], [ -76.540398135999908, 3.434026164000045 ], [ -76.54039494999995, 3.434089669000059 ], [ -76.540391400999908, 3.434160385000041 ], [ -76.540387242999941, 3.434243251000055 ], [ -76.540380472999914, 3.434378138000056 ], [ -76.540211963999923, 3.434371246000069 ], [ -76.540153006999901, 3.434368835000043 ], [ -76.540097247999938, 3.434366556000043 ], [ -76.539973285999906, 3.434361486000057 ], [ -76.53985543899995, 3.434356665000053 ], [ -76.539781942999923, 3.434353658000077 ], [ -76.539738463999925, 3.434351880000065 ], [ -76.539695560999917, 3.434350127000073 ], [ -76.539702441999907, 3.434245212000064 ], [ -76.539710075999949, 3.434128811000051 ], [ -76.539714183999934, 3.434066184000073 ], [ -76.539718490999917, 3.434000519000051 ], [ -76.539723023999898, 3.43393141100006 ], [ -76.539727481999932, 3.433863459000065 ], [ -76.539732582999932, 3.433785657000044 ], [ -76.539738456999942, 3.433696122000072 ], [ -76.539744980999899, 3.433596665000039 ] ] ] } },
{ "type": "Feature", "properties": { "COD_DPTO": "76", "COD_MPIO": "76001", "COD_DANE": "7600110000000019380117", "ipm": 2.6, "OBJECTID": 1, "OID_": 0, "Name": "Roosevelt", "FolderPath": "Roosevelt.kmz", "SymbolID": 0, "AltMode": 0, "Base": 0.0, "Clamped": -1, "Extruded": 0, "Snippet": null, "PopupInfo": null, "Shape_Leng": 1641.93268188, "BUFF_DIST": 100.0, "ORIG_FID": 0, "Shape_Le_1": 0.028019003091599999, "Shape_Area": 42.917556573799999 }, "geometry": { "type": "Polygon", "coordinates": [ [ [ -76.538929469999914, 3.433489128000076 ], [ -76.538933834999909, 3.433386960000064 ], [ -76.539092981999943, 3.433392335000065 ], [ -76.53920454699994, 3.433396103000064 ], [ -76.539300186999924, 3.433399333000068 ], [ -76.539300366999953, 3.433399342000087 ], [ -76.539361086999918, 3.433401392000064 ], [ -76.539425366999922, 3.43340356300007 ], [ -76.539489322999941, 3.433405724000067 ], [ -76.539635956999916, 3.433410676000051 ], [ -76.539624827999944, 3.43364078500008 ], [ -76.539621574999899, 3.433708060000072 ], [ -76.539618327999904, 3.433775204000085 ], [ -76.539614979999897, 3.433844386000089 ], [ -76.539611469999898, 3.433917010000073 ], [ -76.539607997999951, 3.433988807000048 ], [ -76.539604504999943, 3.434061025000062 ], [ -76.539600093999923, 3.434152210000093 ], [ -76.539596272999916, 3.434231227000055 ], [ -76.539591168999948, 3.434332404000088 ], [ -76.53956280299991, 3.434350017000042 ], [ -76.539342589999933, 3.434342725000079 ], [ -76.539311336999901, 3.434341690000053 ], [ -76.539246328999923, 3.434339538000074 ], [ -76.539162530999931, 3.434336762000044 ], [ -76.538894199999902, 3.434327876000054 ], [ -76.538903172999937, 3.434114514000044 ], [ -76.538906673999918, 3.434031190000042 ], [ -76.538909369999942, 3.433967086000052 ], [ -76.538911809999945, 3.433909070000084 ], [ -76.538914348999924, 3.433848714000078 ], [ -76.53891686299994, 3.433788852000077 ], [ -76.538921433999917, 3.433680239000068 ], [ -76.538924806999944, 3.433599952000066 ], [ -76.538927159999901, 3.433543992000068 ], [ -76.538929469999914, 3.433489128000076 ] ] ] } },
{ "type": "Feature", "properties": { "COD_DPTO": "76", "COD_MPIO": "76001", "COD_DANE": "7600110000000019380118", "ipm": 2.9, "OBJECTID": 1, "OID_": 0, "Name": "Roosevelt", "FolderPath": "Roosevelt.kmz", "SymbolID": 0, "AltMode": 0, "Base": 0.0, "Clamped": -1, "Extruded": 0, "Snippet": null, "PopupInfo": null, "Shape_Leng": 1641.93268188, "BUFF_DIST": 100.0, "ORIG_FID": 0, "Shape_Le_1": 0.028019003091599999, "Shape_Area": 42.917556573799999 }, "geometry": { "type": "Polygon", "coordinates": [ [ [ -76.538879074999898, 3.434470746000045 ], [ -76.538903775999927, 3.434447052000053 ], [ -76.539027075999911, 3.434451633000037 ], [ -76.539154511999925, 3.434456364000084 ], [ -76.539156261999949, 3.434456429000079 ], [ -76.539247229999944, 3.434460200000046 ], [ -76.539358645999926, 3.434464816000059 ], [ -76.539446187999943, 3.434468442000082 ], [ -76.539448273999938, 3.434468530000061 ], [ -76.539544573999933, 3.434472267000046 ], [ -76.539624648999904, 3.43447537500009 ], [ -76.539704276999942, 3.434478465000041 ], [ -76.539807376999931, 3.434482465000087 ], [ -76.539830556999902, 3.434483365000062 ], [ -76.539904776999947, 3.434485410000093 ], [ -76.540005202999907, 3.43448817400008 ], [ -76.540097413999945, 3.43449071200007 ], [ -76.540139000999943, 3.434491857000069 ], [ -76.540253048999944, 3.434495981000055 ], [ -76.540350702999945, 3.43449951000008 ], [ -76.540358425999898, 3.434502353000084 ], [ -76.540362835999929, 3.434507361000044 ], [ -76.540365656999938, 3.434513605000063 ], [ -76.540366676999952, 3.434519295000086 ], [ -76.540366462999941, 3.434526848000075 ], [ -76.540365489999942, 3.434557411000071 ], [ -76.540364063999903, 3.434600624000041 ], [ -76.540361003999919, 3.434693376000041 ], [ -76.540358262999916, 3.434776482000075 ], [ -76.540358256999923, 3.434776669000087 ], [ -76.540352163999898, 3.434961373000078 ], [ -76.540347695999913, 3.435069504000069 ], [ -76.540344538999932, 3.435145850000083 ], [ -76.540340702999913, 3.43523859600009 ], [ -76.540337740999917, 3.435310306000076 ], [ -76.54033469299992, 3.435383976000082 ], [ -76.54033175099994, 3.435455154000067 ], [ -76.54030459899991, 3.435489920000066 ], [ -76.540215650999926, 3.435603813000057 ], [ -76.540123322999932, 3.435531394000066 ], [ -76.540050869999902, 3.435474561000092 ], [ -76.539975786999946, 3.43541567300008 ], [ -76.539877404999913, 3.435338503000082 ], [ -76.539778167999941, 3.435260665000044 ], [ -76.539725439999927, 3.435219308000057 ], [ -76.539674115999901, 3.435217199000078 ], [ -76.539596245999917, 3.435213995000083 ], [ -76.539515489999928, 3.435210676000054 ], [ -76.539462256999911, 3.435208488000058 ], [ -76.539407636999897, 3.435206242000049 ], [ -76.539286950999951, 3.435201282000094 ], [ -76.539205881999919, 3.435197949000042 ], [ -76.539122911999925, 3.435194320000051 ], [ -76.539056092999942, 3.435191398000086 ], [ -76.538851878999935, 3.435182467000061 ], [ -76.538857217999919, 3.435045554000055 ], [ -76.538860886999942, 3.434951489000071 ], [ -76.538864365999927, 3.434862241000076 ], [ -76.538868408999917, 3.434758583000075 ], [ -76.538873876999901, 3.434610994000082 ], [ -76.538879074999898, 3.434470746000045 ] ] ] } }
]
}
